OBJECTID,Borough,Type,Provider,Name,Location,Latitude,Longitude,X,Y,Location_T,Remarks,City,SSID,SourceID,Activated,BoroCode,Borough Name,Neighborhood Tabulation Area Code (NTACODE),Neighborhood Tabulation Area (NTA),Council Distrcit,Postcode,BoroCD,Census Tract,BCTCB2010,BIN,BBL,DOITT_ID,"Location (Lat, Long)"
12084,3,Free,LinkNYC - Citybridge,bk-02-126166,181 Court Street,40.6879008003,-73.9931469103,986150.575255,189897.318418,Outdoor Kiosk,"Tablet Internet -phone , Free 1 GB Wi-FI Service",Brooklyn,LinkNYC Free Wi-Fi,LINK-000049,01/05/2018,3,Brooklyn,BK38,DUMBO-Vinegar Hill-Downtown Brooklyn-Boerum Hill,33,11201,302,43,43,3002846,3002800020,3039,"(40.6879008003, -73.9931469103)"
12080,3,Free,LinkNYC - Citybridge,bk-02-126505,620 ATLANTIC AVENUE,40.6836250004,-73.9770060002,990627.361249,188340.282818,Outdoor Kiosk,"Tablet Internet -phone , Free 1 GB Wi-FI Service",Brooklyn,LinkNYC Free Wi-Fi,LINK-000044,07/25/2017,3,Brooklyn,BK37,Park Slope-Gowanus,35,11217,302,129,129,3348849,3020017500,3035,"(40.6836250004, -73.9770060002)"
12632,3,Free,LinkNYC - Citybridge,bk-16-126638,2208 FULTON STREET,40.6780789998,-73.9083739999,1009664.4823,186332.16938,Outdoor Kiosk,"Tablet Internet -phone , Free 1 GB Wi-FI Service",Brooklyn,LinkNYC Free Wi-Fi,LINK-002348,01/17/2017,3,Brooklyn,BK79,Ocean Hill,37,11233,316,369,369,3042262,3015520040,3632,"(40.6780789998, -73.9083739999)"
12286,3,Free,LinkNYC - Citybridge,bk-17-126297,3301 CHURCH AVE,40.6510267597,-73.9465128704,999091.849241,176467.516209,Outdoor Kiosk,"Tablet Internet -phone , Free 1 GB Wi-FI Service",Brooklyn,LinkNYC Free Wi-Fi,LINK-001087,10/30/2017,3,Brooklyn,BK95,Erasmus,40,11203,317,818,818,3108643,3048700040,3469,"(40.6510267597, -73.9465128704)"
10320,3,Free,LinkNYC - Citybridge,bk-05-145942,3368 FULTON STREET,40.6838205904,-73.8713797301,1019922.57726,188436.894173,Outdoor Kiosk,"Tablet Internet -phone , Free 1 GB Wi-FI Service",Brooklyn,LinkNYC Free Wi-Fi,LINK-021920,12/07/2017,3,Brooklyn,BK83,Cypress Hills-City Line,37,11208,305,184,184,3092807,3041470040,4725,"(40.6838205904, -73.8713797301)"
11935,3,Free,LinkNYC - Citybridge,bk-08-145992,685 Franklin Ave,40.6751409996,-73.9562809996,996376.960314,185251.506187,Outdoor Kiosk,"Tablet Internet -phone , Free 1 GB Wi-FI Service",Brooklyn,LinkNYC Free Wi-Fi,LINK-018096,02/01/2018,3,Brooklyn,BK61,Crown Heights North,35,11216,308,221,221,3030857,3012240000,4483,"(40.6751409996, -73.9562809996)"
12643,3,Free,LinkNYC - Citybridge,bk-06-125928,63 5 AVENUE,40.6807317996,-73.9774460905,990505.574091,187286.174362,Outdoor Kiosk,"Tablet Internet -phone , Free 1 GB Wi-FI Service",Brooklyn,LinkNYC Free Wi-Fi,LINK-002670,06/23/2017,3,Brooklyn,BK37,Park Slope-Gowanus,39,11217,306,129,129,3018705,3009350010,3643,"(40.6807317996, -73.9774460905)"
10258,3,Free,LinkNYC - Citybridge,bk-01-146000,101 NORTH 5 STREET,40.7176582282,-73.9603011562,995254.812296,200741.257688,Outdoor Kiosk,"Tablet Internet -phone , Free 1 GB Wi-FI Service",Brooklyn,LinkNYC Free Wi-Fi,LINK-021163,02/01/2018,3,Brooklyn,BK73,North Side-South Side,33,11249,301,555,555,3062172,3023347500,4663,"(40.7176582282, -73.9603011562)"
10321,3,Free,LinkNYC - Citybridge,bk-05-145941,3386 FULTON STREET,40.6840608397,-73.8705374096,1020156.06367,188524.768013,Outdoor Kiosk,"Tablet Internet -phone , Free 1 GB Wi-FI Service",Brooklyn,LinkNYC Free Wi-Fi,LINK-021921,11/21/2017,3,Brooklyn,BK83,Cypress Hills-City Line,37,11208,305,184,184,3327234,3041480040,4726,"(40.6840608397, -73.8705374096)"
12910,3,Free,LinkNYC - Citybridge,bk-02-108350,36 NEVINS STREET,40.6874572699,-73.9819201796,989264.130708,189736.170446,Outdoor Kiosk,"Tablet Internet -phone , Free 1 GB Wi-FI Service",Brooklyn,LinkNYC Free Wi-Fi,LINK-006141,03/29/2018,3,Brooklyn,BK38,DUMBO-Vinegar Hill-Downtown Brooklyn-Boerum Hill,33,11217,302,37,37,3000000,3001660040,3764,"(40.6874572699, -73.9819201796)"
12345,3,Free,LinkNYC - Citybridge,bk-02-125681,60 HENRY STREET,40.69934194,-73.9921867902,986416.474658,194065.684753,Outdoor Kiosk,"Tablet Internet -phone , Free 1 GB Wi-FI Service",Brooklyn,LinkNYC Free Wi-Fi,LINK-001009,02/13/2017,3,Brooklyn,BK09,Brooklyn Heights-Cobble Hill,33,11201,302,1,1,3001646,3002210020,3455,"(40.69934194, -73.9921867902)"
10301,3,Free,LinkNYC - Citybridge,bk-07-145867,691 4 AVENUE,40.6621889998,-73.9960170003,985355.035836,180529.72462,Outdoor Kiosk,"Tablet Internet -phone , Free 1 GB Wi-FI Service",Brooklyn,LinkNYC Free Wi-Fi,LINK-021522,08/22/2017,3,Brooklyn,BK32,Sunset Park West,38,11232,307,145,145,3000000,3006430000,4706,"(40.6621889998, -73.9960170003)"
11808,3,Free,LinkNYC - Citybridge,bk-02-126904,128 MONTAGUE STREET,40.6947255403,-73.9942270995,985850.841275,192383.749797,Outdoor Kiosk,"Tablet Internet -phone , Free 1 GB Wi-FI Service",Brooklyn,LinkNYC Free Wi-Fi,LINK-014440,09/09/9999,3,Brooklyn,BK09,Brooklyn Heights-Cobble Hill,33,11201,302,5,5,3002077,3002490030,4428,"(40.6947255403, -73.9942270995)"
10290,3,Free,LinkNYC - Citybridge,bk-06-145891,50 5 AVENUE,40.681596,-73.9770380003,990618.679836,187601.056934,Outdoor Kiosk,"Tablet Internet -phone , Free 1 GB Wi-FI Service",Brooklyn,LinkNYC Free Wi-Fi,LINK-021504,08/15/2017,3,Brooklyn,BK37,Park Slope-Gowanus,39,11217,306,129,129,3018442,3009300050,4695,"(40.681596, -73.9770380003)"
11946,3,Free,LinkNYC - Citybridge,bk-03-145759,1546 FULTON STREET,40.6797519303,-73.9391010097,1001141.24967,186934.245932,Outdoor Kiosk,"Tablet Internet -phone , Free 1 GB Wi-FI Service",Brooklyn,LinkNYC Free Wi-Fi,LINK-018115,04/05/2017,3,Brooklyn,BK61,Crown Heights North,36,11213,303,271,271,3053854,3018640030,4494,"(40.6797519303, -73.9391010097)"
10326,3,Free,LinkNYC - Citybridge,bk-05-145931,2631 FULTON STREET,40.6772216502,-73.8974635303,1012691.10485,186023.166389,Outdoor Kiosk,"Tablet Internet -phone , Free 1 GB Wi-FI Service",Brooklyn,LinkNYC Free Wi-Fi,LINK-021927,01/05/2018,3,Brooklyn,BK82,East New York,37,11207,305,198,198,3000000,3036590000,4731,"(40.6772216502, -73.8974635303)"
11939,3,Free,LinkNYC - Citybridge,bk-03-145784,1139 FULTON STREET,40.6813152498,-73.9562012602,996397.954039,187500.973801,Outdoor Kiosk,"Tablet Internet -phone , Free 1 GB Wi-FI Service",Brooklyn,LinkNYC Free Wi-Fi,LINK-018101,03/24/2017,3,Brooklyn,BK69,Clinton Hill,35,11238,303,227,227,3057391,3019970050,4487,"(40.6813152498, -73.9562012602)"
11176,3,Free,LinkNYC - Citybridge,bk-08-127044,590 NOSTRAND AVENUE,40.6782680804,-73.9497984494,998174.464265,186391.755219,Outdoor Kiosk,"Tablet Internet -phone , Free 1 GB Wi-FI Service",Brooklyn,LinkNYC Free Wi-Fi,LINK-013489,03/01/2017,3,Brooklyn,BK61,Crown Heights North,36,11216,308,315,315,3029761,3012000040,4301,"(40.6782680804, -73.9497984494)"
11129,3,Free,LinkNYC - Citybridge,bk-09-145844,1053 Nostrand Ave,40.6624380004,-73.9506050003,997954.002436,180624.28119,Outdoor Kiosk,"Tablet Internet -phone , Free 1 GB Wi-FI Service",Brooklyn,LinkNYC Free Wi-Fi,LINK-019371,06/14/2017,3,Brooklyn,BK60,Prospect Lefferts Gardens-Wingate,40,11225,309,329,329,3035092,3013210000,4572,"(40.6624380004, -73.9506050003)"
10331,3,Free,LinkNYC - Citybridge,bk-16-145963,2440 FULTON STREET,40.6778615496,-73.9043006705,1010794.39572,186254.154116,Outdoor Kiosk,"Tablet Internet -phone , Free 1 GB Wi-FI Service",Brooklyn,LinkNYC Free Wi-Fi,LINK-021932,01/05/2018,3,Brooklyn,BK79,Ocean Hill,37,11233,316,367,367,3042309,3015540020,4736,"(40.6778615496, -73.9043006705)"
11931,3,Free,LinkNYC - Citybridge,bk-14-145789,1052 FLATBUSH AVENUE,40.6452617002,-73.9581440801,995865.372755,174365.390492,Outdoor Kiosk,"Tablet Internet -phone , Free 1 GB Wi-FI Service",Brooklyn,LinkNYC Free Wi-Fi,LINK-018087,09/15/2017,3,Brooklyn,BK42,Flatbush,40,11226,314,510,510,3117661,3051250070,4479,"(40.6452617002, -73.9581440801)"
9837,3,Free,LinkNYC - Citybridge,bk-02-145910,66 SMITH STREET,40.6894082198,-73.9887286998,987375.811978,190446.642122,Outdoor Kiosk,"Tablet Internet -phone , Free 1 GB Wi-FI Service",Brooklyn,LinkNYC Free Wi-Fi,LINK-020653,10/06/2017,3,Brooklyn,BK38,DUMBO-Vinegar Hill-Downtown Brooklyn-Boerum Hill,33,11201,302,43,43,3348905,3002587500,4614,"(40.6894082198, -73.9887286998)"
12628,3,Free,LinkNYC - Citybridge,bk-03-126646,1874 FULTON STREET,40.6789599998,-73.9244239997,1005212.38687,186648.894141,Outdoor Kiosk,"Tablet Internet -phone , Free 1 GB Wi-FI Service",Brooklyn,LinkNYC Free Wi-Fi,LINK-002341,11/08/2016,3,Brooklyn,BK61,Crown Heights North,41,11233,303,299,299,3048037,3017040000,3628,"(40.6789599998, -73.9244239997)"
12020,3,Free,LinkNYC - Citybridge,bk-01-126861,691 METROPOLITAN AVENUE,40.7144457399,-73.9459483206,999234.245938,199572.979513,Outdoor Kiosk,"Tablet Internet -phone , Free 1 GB Wi-FI Service",Brooklyn,LinkNYC Free Wi-Fi,LINK-012038,04/24/2018,3,Brooklyn,BK90,East Williamsburg,34,11211,301,497,497,3068728,3027590000,4107,"(40.7144457399, -73.9459483206)"
12639,3,Free,LinkNYC - Citybridge,bk-02-126839,340 LIVINGSTON ST,40.6878136202,-73.9812839303,989440.55588,189866.036328,Outdoor Kiosk,"Tablet Internet -phone , Free 1 GB Wi-FI Service",Brooklyn,LinkNYC Free Wi-Fi,LINK-002528,01/20/2017,3,Brooklyn,BK38,DUMBO-Vinegar Hill-Downtown Brooklyn-Boerum Hill,33,11217,302,37,37,3000522,3001670000,3639,"(40.6878136202, -73.9812839303)"
12886,3,Free,LinkNYC - Citybridge,bk-08-146009,795 WASHINGTON AVE,40.6727480001,-73.9626939995,994598.466824,184378.845531,Outdoor Kiosk,"Tablet Internet -phone , Free 1 GB Wi-FI Service",Brooklyn,LinkNYC Free Wi-Fi,LINK-005779,02/14/2018,3,Brooklyn,BK64,Prospect Heights,35,11238,308,215,215,3029546,3011770000,3740,"(40.6727480001, -73.9626939995)"
11951,3,Free,LinkNYC - Citybridge,bk-16-145962,2122 FULTON STREET,40.6782855904,-73.9121847599,1008607.40928,186406.353615,Outdoor Kiosk,"Tablet Internet -phone , Free 1 GB Wi-FI Service",Brooklyn,LinkNYC Free Wi-Fi,LINK-018133,04/05/2018,3,Brooklyn,BK79,Ocean Hill,41,11233,316,301,301,3042170,3015510020,4499,"(40.6782855904, -73.9121847599)"
10297,3,Free,LinkNYC - Citybridge,bk-06-145874,515 5 AVENUE,40.6665385801,-73.9883783202,987474.086388,182114.58792,Outdoor Kiosk,"Tablet Internet -phone , Free 1 GB Wi-FI Service",Brooklyn,LinkNYC Free Wi-Fi,LINK-021517,08/22/2017,3,Brooklyn,BK37,Park Slope-Gowanus,39,11215,306,141,141,3392322,3010357500,4702,"(40.6665385801, -73.9883783202)"
10269,3,Free,LinkNYC - Citybridge,bk-01-146001,185 BERRY STREET,40.716849745,-73.9608407636,995105.360823,200446.635246,Outdoor Kiosk,"Tablet Internet -phone , Free 1 GB Wi-FI Service",Brooklyn,LinkNYC Free Wi-Fi,LINK-021265,02/01/2018,3,Brooklyn,BK73,North Side-South Side,34,11249,301,553,553,3062367,3023510010,4674,"(40.716849745, -73.9608407636)"
12075,3,Free,LinkNYC - Citybridge,bk-07-125916,601 5 AVENUE,40.6641759998,-73.9903530005,986926.36537,181253.766807,Outdoor Kiosk,"Tablet Internet -phone , Free 1 GB Wi-FI Service",Brooklyn,LinkNYC Free Wi-Fi,LINK-000039,07/25/2017,3,Brooklyn,BK37,Park Slope-Gowanus,39,11215,307,141,141,3330599,3010530000,3030,"(40.6641759998, -73.9903530005)"
11988,3,Free,LinkNYC - Citybridge,bk-17-126271,4802 CHURCH AVE,40.6515900001,-73.9321869996,1003066.89674,176675.472486,Outdoor Kiosk,"Tablet Internet -phone , Free 1 GB Wi-FI Service",Brooklyn,LinkNYC Free Wi-Fi,LINK-011626,07/24/2018,3,Brooklyn,BK91,East Flatbush-Farragut,45,11203,317,860,860,3102784,3046960000,4075,"(40.6515900001, -73.9321869996)"
11172,3,Free,LinkNYC - Citybridge,bk-09-127021,1106 NOSTRAND AVENUE,40.6607317999,-73.9507266396,997920.604865,180002.645622,Outdoor Kiosk,"Tablet Internet -phone , Free 1 GB Wi-FI Service",Brooklyn,LinkNYC Free Wi-Fi,LINK-013458,03/07/2017,3,Brooklyn,BK60,Prospect Lefferts Gardens-Wingate,40,11225,309,800,800,3115014,3050330040,4297,"(40.6607317999, -73.9507266396)"
11125,3,Free,LinkNYC - Citybridge,bk-03-145843,545 NOSTRAND AVENUE,40.6788179999,-73.9495790005,998235.217753,186592.141629,Outdoor Kiosk,"Tablet Internet -phone , Free 1 GB Wi-FI Service",Brooklyn,LinkNYC Free Wi-Fi,LINK-019365,05/31/2017,3,Brooklyn,BK61,Crown Heights North,36,11216,303,247,247,3329718,3018670010,4568,"(40.6788179999, -73.9495790005)"
11727,3,Free,LinkNYC - Citybridge,bk-01-125630,61 AVENUE OF PUERTO RICO,40.7036540004,-73.9426819995,1000142.3104,195641.799711,Outdoor Kiosk,"Tablet Internet -phone , Free 1 GB Wi-FI Service",Brooklyn,LinkNYC Free Wi-Fi,LINK-010946,06/09/2017,3,Brooklyn,BK90,East Williamsburg,34,11206,301,491,491,3071502,3031050020,3963,"(40.7036540004, -73.9426819995)"
10335,3,Free,LinkNYC - Citybridge,bk-17-145927,3121 CHURCH AVENUE,40.6509619998,-73.9478340004,998725.27025,176443.701296,Outdoor Kiosk,"Tablet Internet -phone , Free 1 GB Wi-FI Service",Brooklyn,LinkNYC Free Wi-Fi,LINK-022138,10/30/2017,3,Brooklyn,BK95,Erasmus,40,11226,317,818,818,3327743,3048690050,4740,"(40.6509619998, -73.9478340004)"
12277,3,Free,LinkNYC - Citybridge,bk-07-108701,731 4 AVENUE,40.6608710001,-73.9973869996,984974.960152,180049.526106,Outdoor Kiosk,"Tablet Internet -phone , Free 1 GB Wi-FI Service",Brooklyn,LinkNYC Free Wi-Fi,LINK-001043,04/26/2017,3,Brooklyn,BK32,Sunset Park West,38,11232,307,101,101,3009586,3006520010,3460,"(40.6608710001, -73.9973869996)"
11046,3,Free,LinkNYC - Citybridge,bk-01-126673,202 AVENUE OF PUERTO RICO,40.7089220198,-73.9433896499,999944.862955,197560.969429,Outdoor Kiosk,"Tablet Internet -phone , Free 1 GB Wi-FI Service",Brooklyn,LinkNYC Free Wi-Fi,LINK-012938,05/23/2017,3,Brooklyn,BK78,Bushwick South,34,11206,301,493,493,3344974,3030260000,4243,"(40.7089220198, -73.9433896499)"
12624,3,Free,LinkNYC - Citybridge,bk-02-132668,979 FULTON STREET,40.6829320003,-73.9639590003,994246.036426,188089.022166,Outdoor Kiosk,"Tablet Internet -phone , Free 1 GB Wi-FI Service",Brooklyn,LinkNYC Free Wi-Fi,LINK-002214,01/25/2017,3,Brooklyn,BK69,Clinton Hill,35,11238,302,201,201,3056672,3019790050,3624,"(40.6829320003, -73.9639590003)"
10172,3,Free,LinkNYC - Citybridge,bk-01-145856,119 GRAHAM AVENUE,40.7057680002,-73.9430299995,1000045.32109,196411.930061,Outdoor Kiosk,"Tablet Internet -phone , Free 1 GB Wi-FI Service",Brooklyn,LinkNYC Free Wi-Fi,LINK-020775,08/10/2017,3,Brooklyn,BK90,East Williamsburg,34,11206,301,505,505,3071340,3030790020,4628,"(40.7057680002, -73.9430299995)"
11947,3,Free,LinkNYC - Citybridge,bk-03-145760,1591 FULTON STREET,40.6798153564,-73.9376270019,1001550.07136,186957.641555,Outdoor Kiosk,"Tablet Internet -phone , Free 1 GB Wi-FI Service",Brooklyn,LinkNYC Free Wi-Fi,LINK-018117,04/10/2017,3,Brooklyn,BK35,Stuyvesant Heights,36,11216,303,273,273,3053698,3018590030,4495,"(40.6798153564, -73.9376270019)"
10265,3,Free,LinkNYC - Citybridge,bk-01-146073,153 NORTH 8 STREET,40.7185134904,-73.9572313094,996105.644256,201053.256408,Outdoor Kiosk,"Tablet Internet -phone , Free 1 GB Wi-FI Service",Brooklyn,LinkNYC Free Wi-Fi,LINK-021234,08/02/2018,3,Brooklyn,BK73,North Side-South Side,33,11249,301,517,517,3061793,3023110030,4670,"(40.7185134904, -73.9572313094)"
12079,3,Free,LinkNYC - Citybridge,bk-06-117250,304 5 AVENUE,40.6735340004,-73.982789,989024.174823,184663.473243,Outdoor Kiosk,"Tablet Internet -phone , Free 1 GB Wi-FI Service",Brooklyn,LinkNYC Free Wi-Fi,LINK-000043,08/15/2017,3,Brooklyn,BK37,Park Slope-Gowanus,39,11215,306,135,135,3020782,3009690050,3034,"(40.6735340004, -73.982789)"
12086,3,Free,LinkNYC - Citybridge,bk-06-126394,343 COURT STREET,40.6824829165,-73.9957534823,985427.787331,187923.380109,Outdoor Kiosk,"Tablet Internet -phone , Free 1 GB Wi-FI Service",Brooklyn,LinkNYC Free Wi-Fi,LINK-000052,11/21/2017,3,Brooklyn,BK33,Carroll Gardens-Columbia Street-Red Hook,39,11231,306,75,75,3007004,3004280000,3041,"(40.6824829165, -73.9957534823)"
12636,3,Free,LinkNYC - Citybridge,bk-09-126616,806 FRANKLIN AVE,40.6703177604,-73.9581718604,995853.304537,183494.00675,Outdoor Kiosk,"Tablet Internet -phone , Free 1 GB Wi-FI Service",Brooklyn,LinkNYC Free Wi-Fi,LINK-002457,02/08/2017,3,Brooklyn,BK63,Crown Heights South,35,11225,309,213,213,3029674,3011850040,3636,"(40.6703177604, -73.9581718604)"
12282,3,Free,LinkNYC - Citybridge,bk-07-125904,650 5TH AVE,40.6625879999,-73.9922589998,986397.635457,180675.161337,Outdoor Kiosk,"Tablet Internet -phone , Free 1 GB Wi-FI Service",Brooklyn,LinkNYC Free Wi-Fi,LINK-001059,02/06/2018,3,Brooklyn,BK37,Park Slope-Gowanus,38,11215,307,143,143,3345653,3006340050,3465,"(40.6625879999, -73.9922589998)"
11923,3,Free,LinkNYC - Citybridge,bk-02-145812,957 FULTON STREET,40.6830769204,-73.9646334495,994058.955436,188141.744501,Outdoor Kiosk,"Tablet Internet -phone , Free 1 GB Wi-FI Service",Brooklyn,LinkNYC Free Wi-Fi,LINK-018068,07/25/2017,3,Brooklyn,BK69,Clinton Hill,35,11238,302,201,201,3056680,3019790060,4471,"(40.6830769204, -73.9646334495)"
12062,3,Free,LinkNYC - Citybridge,bk-01-109091,24 AVENUE OF PUERTO RICO,40.7015421937,-73.9421692826,1000284.9771,194872.499084,Outdoor Kiosk,"Tablet Internet -phone , Free 1 GB Wi-FI Service",Brooklyn,LinkNYC Free Wi-Fi,LINK-000003,08/03/2017,3,Brooklyn,BK90,East Williamsburg,34,11206,301,491,491,3071658,3031270010,3017,"(40.7015421937, -73.9421692826)"
12631,3,Free,LinkNYC - Citybridge,bk-16-126635,2057 FULTON STREET,40.6783539998,-73.9110080002,1008933.78297,186431.606517,Outdoor Kiosk,"Tablet Internet -phone , Free 1 GB Wi-FI Service",Brooklyn,LinkNYC Free Wi-Fi,LINK-002347,12/09/2016,3,Brooklyn,BK79,Ocean Hill,41,11233,316,371,371,3041999,3015410000,3631,"(40.6783539998, -73.9110080002)"
9910,3,Free,LinkNYC - Citybridge,bk-01-145857,256 GRAHAM AVENUE,40.7110789001,-73.9437320696,999849.424498,198346.724747,Outdoor Kiosk,"Tablet Internet -phone , Free 1 GB Wi-FI Service",Brooklyn,LinkNYC Free Wi-Fi,LINK-020772,08/10/2017,3,Brooklyn,BK90,East Williamsburg,34,11206,301,495,495,3069606,3027890000,4626,"(40.7110789001, -73.9437320696)"
12348,3,Free,LinkNYC - Citybridge,bk-02-135003,156 LAWRENCE STREET,40.6912339801,-73.98638427,988025.877279,191111.912445,Outdoor Kiosk,"Tablet Internet -phone , Free 1 GB Wi-FI Service",Brooklyn,LinkNYC Free Wi-Fi,LINK-001017,04/20/2017,3,Brooklyn,BK38,DUMBO-Vinegar Hill-Downtown Brooklyn-Boerum Hill,33,11201,302,11,11,3000399,3001510040,3458,"(40.6912339801, -73.98638427)"
12067,3,Free,LinkNYC - Citybridge,bk-14-126509,1591 FLATBUSH AVENUE,40.6321347751,-73.9467806744,999021.71946,169584.608387,Outdoor Kiosk,"Tablet Internet -phone , Free 1 GB Wi-FI Service",Brooklyn,LinkNYC Free Wi-Fi,LINK-000025,06/18/2018,3,Brooklyn,BK42,Flatbush,45,11210,314,786,786,3205905,3075580030,3022,"(40.6321347751, -73.9467806744)"
11941,3,Free,LinkNYC - Citybridge,bk-03-145750,560 FRANKLIN AVENUE,40.6795059998,-73.9554309998,996611.927692,186841.919673,Outdoor Kiosk,"Tablet Internet -phone , Free 1 GB Wi-FI Service",Brooklyn,LinkNYC Free Wi-Fi,LINK-018103,03/13/2017,3,Brooklyn,BK69,Clinton Hill,36,11238,303,227,227,3057888,3020200060,4489,"(40.6795059998, -73.9554309998)"
10262,3,Free,LinkNYC - Citybridge,bk-01-146007,364 GRAND STREET,40.7122676599,-73.9556103901,996556.122357,198777.933859,Outdoor Kiosk,"Tablet Internet -phone , Free 1 GB Wi-FI Service",Brooklyn,LinkNYC Free Wi-Fi,LINK-021229,04/10/2018,3,Brooklyn,BK73,North Side-South Side,34,11211,301,523,523,3062845,3023960020,4667,"(40.7122676599, -73.9556103901)"
12000,3,Free,LinkNYC - Citybridge,bk-08-127030,791 NOSTRAND AVENUE,40.6701470003,-73.9503969996,998010.119121,183432.919601,Outdoor Kiosk,"Tablet Internet -phone , Free 1 GB Wi-FI Service",Brooklyn,LinkNYC Free Wi-Fi,LINK-011768,02/23/2017,3,Brooklyn,BK61,Crown Heights North,35,11216,308,317,317,3032652,3012620000,4087,"(40.6701470003, -73.9503969996)"
11891,3,Free,LinkNYC - Citybridge,bk-07-125836,948 3 AVENUE,40.655745777,-74.0065489228,982432.903885,178182.321507,Outdoor Kiosk,"Tablet Internet -phone , Free 1 GB Wi-FI Service",Brooklyn,LinkNYC Free Wi-Fi,LINK-011423,05/02/2018,3,Brooklyn,BK32,Sunset Park West,38,11232,307,18,18,3010251,3006910050,4055,"(40.655745777, -74.0065489228)"
10176,3,Free,LinkNYC - Citybridge,bk-06-145870,321 COURT STREET,40.6831796304,-73.9954176204,985520.92658,188177.217856,Outdoor Kiosk,"Tablet Internet -phone , Free 1 GB Wi-FI Service",Brooklyn,LinkNYC Free Wi-Fi,LINK-020785,11/21/2017,3,Brooklyn,BK33,Carroll Gardens-Columbia Street-Red Hook,39,11231,306,75,75,3006813,3004210000,4632,"(40.6831796304, -73.9954176204)"
10252,3,Free,LinkNYC - Citybridge,bk-01-146022,2 DEVOE STREET,40.7130798796,-73.9512847414,997755.156377,199074.4874,Outdoor Kiosk,"Tablet Internet -phone , Free 1 GB Wi-FI Service",Brooklyn,LinkNYC Free Wi-Fi,LINK-021136,02/14/2018,3,Brooklyn,BK73,North Side-South Side,34,11211,301,513,513,3068930,3027670010,4657,"(40.7130798796, -73.9512847414)"
10294,3,Free,LinkNYC - Citybridge,bk-06-145893,372 3 AVENUE,40.6726791001,-73.9831614205,988920.928638,184351.988629,Outdoor Kiosk,"Tablet Internet -phone , Free 1 GB Wi-FI Service",Brooklyn,LinkNYC Free Wi-Fi,LINK-021511,09/11/2017,3,Brooklyn,BK37,Park Slope-Gowanus,39,11215,306,135,135,3021066,3009820010,4699,"(40.6726791001, -73.9831614205)"
10322,3,Free,LinkNYC - Citybridge,bk-05-145940,3435 FULTON STREET,40.6846250902,-73.868974527,1020589.21668,188730.985121,Outdoor Kiosk,"Tablet Internet -phone , Free 1 GB Wi-FI Service",Brooklyn,LinkNYC Free Wi-Fi,LINK-021922,11/21/2017,3,Brooklyn,BK83,Cypress Hills-City Line,37,11208,305,184,184,3092471,3041340160,4727,"(40.6846250902, -73.868974527)"
11999,3,Free,LinkNYC - Citybridge,bk-08-126469,529 EASTERN PARKWAY,40.6701150004,-73.9506270004,997946.322333,183421.225071,Outdoor Kiosk,"Tablet Internet -phone , Free 1 GB Wi-FI Service",Brooklyn,LinkNYC Free Wi-Fi,LINK-011761,02/23/2017,3,Brooklyn,BK61,Crown Heights North,35,11216,308,317,317,3032633,3012610030,4086,"(40.6701150004, -73.9506270004)"
11945,3,Free,LinkNYC - Citybridge,bk-03-145757,1473 FULTON STREET,40.6800589999,-73.9422599997,1000264.98272,187045.526877,Outdoor Kiosk,"Tablet Internet -phone , Free 1 GB Wi-FI Service",Brooklyn,LinkNYC Free Wi-Fi,LINK-018111,03/24/2017,3,Brooklyn,BK75,Bedford,36,11216,303,269,269,3338750,3018570020,4493,"(40.6800589999, -73.9422599997)"
11938,3,Free,LinkNYC - Citybridge,bk-03-145748,549 CLASSON AVENUE,40.6818530001,-73.9585350001,995750.578693,187696.576756,Outdoor Kiosk,"Tablet Internet -phone , Free 1 GB Wi-FI Service",Brooklyn,LinkNYC Free Wi-Fi,LINK-018100,04/20/2017,3,Brooklyn,BK69,Clinton Hill,35,11238,303,227,227,3057307,3019940060,4486,"(40.6818530001, -73.9585350001)"
10327,3,Free,LinkNYC - Citybridge,bk-05-145937,2598 FULTON STREET,40.6769941203,-73.89835842,1012442.98068,185939.981516,Outdoor Kiosk,"Tablet Internet -phone , Free 1 GB Wi-FI Service",Brooklyn,LinkNYC Free Wi-Fi,LINK-021928,01/22/2018,3,Brooklyn,BK82,East New York,37,11207,305,198,198,3000000,3036680010,4732,"(40.6769941203, -73.89835842)"
12068,3,Free,LinkNYC - Citybridge,bk-01-125268,817 Manhattan Ave,40.7281329999,-73.9534389996,997155.024047,204558.476103,Outdoor Kiosk,"Tablet Internet -phone , Free 1 GB Wi-FI Service",Brooklyn,LinkNYC Free Wi-Fi,LINK-000027,04/14/2017,3,Brooklyn,BK76,Greenpoint,33,11222,301,561,561,3065107,3025730020,3023,"(40.7281329999, -73.9534389996)"
12070,3,Free,LinkNYC - Citybridge,bk-06-125931,270 5 AVENUE,40.6745555102,-73.9819357697,989260.776384,185035.686081,Outdoor Kiosk,"Tablet Internet -phone , Free 1 GB Wi-FI Service",Brooklyn,LinkNYC Free Wi-Fi,LINK-000031,04/03/2017,3,Brooklyn,BK37,Park Slope-Gowanus,39,11215,306,133,133,3020591,3009640040,3025,"(40.6745555102, -73.9819357697)"
11054,3,Free,LinkNYC - Citybridge,bk-07-125917,620 5 AVENUE,40.6635500702,-73.9912456206,986678.74874,181025.697054,Outdoor Kiosk,"Tablet Internet -phone , Free 1 GB Wi-FI Service",Brooklyn,LinkNYC Free Wi-Fi,LINK-013089,01/16/2018,3,Brooklyn,BK37,Park Slope-Gowanus,38,11215,307,143,143,3009000,3006310050,4251,"(40.6635500702, -73.9912456206)"
12085,3,Free,LinkNYC - Citybridge,bk-06-126392,252 COURT STREET,40.685389756,-73.9945262011,985768.112109,188982.44492,Outdoor Kiosk,"Tablet Internet -phone , Free 1 GB Wi-FI Service",Brooklyn,LinkNYC Free Wi-Fi,LINK-000051,11/21/2017,3,Brooklyn,BK33,Carroll Gardens-Columbia Street-Red Hook,39,11231,306,67,67,3336007,3003260040,3040,"(40.685389756, -73.9945262011)"
9653,3,Free,LinkNYC - Citybridge,bk-01-146093,394 KENT AVENUE,40.7109881099,-73.9685338097,992973.533066,198310.203823,Outdoor Kiosk,"Tablet Internet -phone , Free 1 GB Wi-FI Service",Brooklyn,LinkNYC Free Wi-Fi,LINK-021289,09/09/9999,3,Brooklyn,BK73,North Side-South Side,33,11249,301,549,549,3063635,3024670000,4852,"(40.7109881099, -73.9685338097)"
11255,3,Free,LinkNYC - Citybridge,bk-01-108703,213 UNION AVENUE,40.706822167,-73.9505289535,997965.968291,196794.73146,Outdoor Kiosk,"Tablet Internet -phone , Free 1 GB Wi-FI Service",Brooklyn,LinkNYC Free Wi-Fi,LINK-010434,02/14/2018,3,Brooklyn,BK73,North Side-South Side,34,11211,301,527,527,3063527,3024520020,3885,"(40.706822167, -73.9505289535)"
10906,3,Free,LinkNYC - Citybridge,bk-09-130021,991 NOSTRAND AVENUE,40.6641664798,-73.9509196198,997866.362519,181253.965626,Outdoor Kiosk,"Tablet Internet -phone , Free 1 GB Wi-FI Service",Brooklyn,LinkNYC Free Wi-Fi,LINK-010328,04/13/2017,3,Brooklyn,BK63,Crown Heights South,35,11225,309,319,319,3324553,3013090000,3864,"(40.6641664798, -73.9509196198)"
10253,3,Free,LinkNYC - Citybridge,bk-01-146050,2 POWERS STREET,40.7116663597,-73.9510261478,997827.133267,198559.539282,Outdoor Kiosk,"Tablet Internet -phone , Free 1 GB Wi-FI Service",Brooklyn,LinkNYC Free Wi-Fi,LINK-021137,03/30/2018,3,Brooklyn,BK73,North Side-South Side,34,11211,301,513,513,3323015,3027790000,4658,"(40.7116663597, -73.9510261478)"
11059,3,Free,LinkNYC - Citybridge,bk-06-127417,739 UNION STREET,40.6764090003,-73.98029,989717.138988,185711.063995,Outdoor Kiosk,"Tablet Internet -phone , Free 1 GB Wi-FI Service",Brooklyn,LinkNYC Free Wi-Fi,LINK-013117,04/03/2017,3,Brooklyn,BK37,Park Slope-Gowanus,39,11217,306,131,131,3019760,3009530000,4256,"(40.6764090003, -73.98029)"
10248,3,Free,LinkNYC - Citybridge,bk-01-146012,230 BERRY STREET,40.7152266304,-73.9627406698,994578.937992,199855.055392,Outdoor Kiosk,"Tablet Internet -phone , Free 1 GB Wi-FI Service",Brooklyn,LinkNYC Free Wi-Fi,LINK-021119,03/29/2018,3,Brooklyn,BK73,North Side-South Side,34,11249,301,555,555,3398694,3023790020,4653,"(40.7152266304, -73.9627406698)"
11913,3,Free,LinkNYC - Citybridge,bk-08-127034,628 NOSTRAND AVENUE,40.6769760001,-73.9499159996,998142.128372,185920.994678,Outdoor Kiosk,"Tablet Internet -phone , Free 1 GB Wi-FI Service",Brooklyn,LinkNYC Free Wi-Fi,LINK-011604,03/07/2017,3,Brooklyn,BK61,Crown Heights North,36,11216,308,315,315,3030004,3012060050,4073,"(40.6769760001, -73.9499159996)"
12074,3,Free,LinkNYC - Citybridge,bk-08-126502,307 FLATBUSH AVENUE,40.6784527942,-73.9732527771,991668.889022,186456.194395,Outdoor Kiosk,"Tablet Internet -phone , Free 1 GB Wi-FI Service",Brooklyn,LinkNYC Free Wi-Fi,LINK-000036,03/08/2018,3,Brooklyn,BK64,Prospect Heights,35,11217,308,161,161,3028698,3011570020,3029,"(40.6784527942, -73.9732527771)"
12625,3,Free,LinkNYC - Citybridge,bk-02-126628,691 FULTON STREET,40.6878896096,-73.9782016897,990295.351414,189893.919147,Outdoor Kiosk,"Tablet Internet -phone , Free 1 GB Wi-FI Service",Brooklyn,LinkNYC Free Wi-Fi,LINK-002234,03/24/2017,3,Brooklyn,BK68,Fort Greene,35,11217,302,33,33,3331261,3020960070,3625,"(40.6878896096, -73.9782016897)"
12911,3,Free,LinkNYC - Citybridge,bk-02-126847,141 LIVINGSTON STREET,40.6905944398,-73.9879984001,987578.28303,190878.843686,Outdoor Kiosk,"Tablet Internet -phone , Free 1 GB Wi-FI Service",Brooklyn,LinkNYC Free Wi-Fi,LINK-006143,05/03/2017,3,Brooklyn,BK38,DUMBO-Vinegar Hill-Downtown Brooklyn-Boerum Hill,33,11201,302,37,37,3000428,3001540030,3765,"(40.6905944398, -73.9879984001)"
12081,3,Free,LinkNYC - Citybridge,bk-02-126565,605 FULTON STREET,40.6888509997,-73.9806129999,989626.542385,190244.024417,Outdoor Kiosk,"Tablet Internet -phone , Free 1 GB Wi-FI Service",Brooklyn,LinkNYC Free Wi-Fi,LINK-000045,01/20/2017,3,Brooklyn,BK68,Fort Greene,35,11201,302,33,33,3058594,3020930000,3036,"(40.6888509997, -73.9806129999)"
12064,3,Free,LinkNYC - Citybridge,bk-01-109262,101 AVENUE OF PUERTO RICO,40.7050604197,-73.9429175794,1000076.6583,196154.15761,Outdoor Kiosk,"Tablet Internet -phone , Free 1 GB Wi-FI Service",Brooklyn,LinkNYC Free Wi-Fi,LINK-000005,05/23/2017,3,Brooklyn,BK90,East Williamsburg,34,11206,301,491,491,3325892,3030880020,3019,"(40.7050604197, -73.9429175794)"
12885,3,Free,LinkNYC - Citybridge,bk-06-145994,342 FLATBUSH AVENUE,40.6761340504,-73.9718355401,992062.260282,185611.532698,Outdoor Kiosk,"Tablet Internet -phone , Free 1 GB Wi-FI Service",Brooklyn,LinkNYC Free Wi-Fi,LINK-005775,02/21/2018,3,Brooklyn,BK37,Park Slope-Gowanus,39,11217,306,159,159,3024375,3010580030,3739,"(40.6761340504, -73.9718355401)"
9784,3,Free,LinkNYC - Citybridge,bk-08-146084,720 FRANKLIN AVENUE,40.6740388697,-73.9568263802,996225.878267,184849.893802,Outdoor Kiosk,"Tablet Internet -phone , Free 1 GB Wi-FI Service",Brooklyn,LinkNYC Free Wi-Fi,LINK-018095,06/18/2018,3,Brooklyn,BK61,Crown Heights North,35,11238,308,217,217,3029279,3011680050,4901,"(40.6740388697, -73.9568263802)"
11248,3,Free,LinkNYC - Citybridge,bk-01-143275,88 NORMAN AVENUE,40.7254560003,-73.9514960001,997694.093179,203583.454431,Outdoor Kiosk,"Tablet Internet -phone , Free 1 GB Wi-FI Service",Brooklyn,LinkNYC Free Wi-Fi,LINK-010360,06/09/2017,3,Brooklyn,BK76,Greenpoint,33,11222,301,569,569,3066070,3026470000,3878,"(40.7254560003, -73.9514960001)"
9838,3,Free,LinkNYC - Citybridge,bk-02-145904,71 WYCKOFF STREET,40.6861770004,-73.9910140005,986742.161999,189269.341327,Outdoor Kiosk,"Tablet Internet -phone , Free 1 GB Wi-FI Service",Brooklyn,LinkNYC Free Wi-Fi,LINK-020655,09/18/2017,3,Brooklyn,BK38,DUMBO-Vinegar Hill-Downtown Brooklyn-Boerum Hill,33,11201,302,69,69,3005750,3003840050,4615,"(40.6861770004, -73.9910140005)"
11259,3,Free,LinkNYC - Citybridge,bk-01-109252,395 BROADWAY,40.7072078604,-73.9541948804,996949.507726,196934.698372,Outdoor Kiosk,"Tablet Internet -phone , Free 1 GB Wi-FI Service",Brooklyn,LinkNYC Free Wi-Fi,LINK-010455,02/27/2018,3,Brooklyn,BK73,North Side-South Side,34,11211,301,527,527,3335978,3024630030,3889,"(40.7072078604, -73.9541948804)"
10270,3,Free,LinkNYC - Citybridge,bk-01-146017,45 NORTH 9 STREET,40.7213825503,-73.9603523499,995240.006879,202098.13588,Outdoor Kiosk,"Tablet Internet -phone , Free 1 GB Wi-FI Service",Brooklyn,LinkNYC Free Wi-Fi,LINK-021279,02/02/2018,3,Brooklyn,BK73,North Side-South Side,33,11249,301,557,557,3061644,3023020000,4675,"(40.7213825503, -73.9603523499)"
11953,3,Free,LinkNYC - Citybridge,bk-16-145818,2214 FULTON STREET,40.6780357896,-73.9076195796,1009873.75386,186316.646445,Outdoor Kiosk,"Tablet Internet -phone , Free 1 GB Wi-FI Service",Brooklyn,LinkNYC Free Wi-Fi,LINK-018136,05/03/2017,3,Brooklyn,BK79,Ocean Hill,37,11233,316,367,367,3042276,3015530000,4501,"(40.6780357896, -73.9076195796)"
10247,3,Free,LinkNYC - Citybridge,bk-01-146015,219 GRAND STREET,40.71385109,-73.95953976,995466.517581,199354.297864,Outdoor Kiosk,"Tablet Internet -phone , Free 1 GB Wi-FI Service",Brooklyn,LinkNYC Free Wi-Fi,LINK-021118,02/02/2018,3,Brooklyn,BK73,North Side-South Side,34,11211,301,519,519,3342373,3023827500,4652,"(40.71385109, -73.95953976)"
11177,3,Free,LinkNYC - Citybridge,bk-17-127011,1295 NOSTRAND AVENUE,40.6553200002,-73.9499660006,998132.765858,178031.096087,Outdoor Kiosk,"Tablet Internet -phone , Free 1 GB Wi-FI Service",Brooklyn,LinkNYC Free Wi-Fi,LINK-013497,03/30/2018,3,Brooklyn,BK95,Erasmus,40,11226,317,818,818,3107759,3048370020,4302,"(40.6553200002, -73.9499660006)"
10313,3,Free,LinkNYC - Citybridge,bk-08-145935,2 UNDERHILL AVENUE,40.6808878802,-73.9646683496,994049.597515,187344.210007,Outdoor Kiosk,"Tablet Internet -phone , Free 1 GB Wi-FI Service",Brooklyn,LinkNYC Free Wi-Fi,LINK-021687,04/10/2018,3,Brooklyn,BK64,Prospect Heights,35,11238,308,203,203,3027474,3011220030,4718,"(40.6808878802, -73.9646683496)"
12346,3,Free,LinkNYC - Citybridge,bk-02-125682,73 CLARK ST,40.6975877701,-73.9930285697,986183.113904,193426.568905,Outdoor Kiosk,"Tablet Internet -phone , Free 1 GB Wi-FI Service",Brooklyn,LinkNYC Free Wi-Fi,LINK-001010,02/13/2017,3,Brooklyn,BK09,Brooklyn Heights-Cobble Hill,33,11201,302,5,5,3335928,3002310000,3456,"(40.6975877701, -73.9930285697)"
10330,3,Free,LinkNYC - Citybridge,bk-05-145944,2460 FULTON STREET,40.6778949796,-73.9029900497,1011157.91271,186266.733488,Outdoor Kiosk,"Tablet Internet -phone , Free 1 GB Wi-FI Service",Brooklyn,LinkNYC Free Wi-Fi,LINK-021931,01/16/2018,3,Brooklyn,BK79,Ocean Hill,37,11207,305,367,367,3042317,3015550000,4735,"(40.6778949796, -73.9029900497)"
11950,3,Free,LinkNYC - Citybridge,bk-03-145817,293 RALPH AVENUE,40.6790149999,-73.9218019995,1005939.62852,186669.570608,Outdoor Kiosk,"Tablet Internet -phone , Free 1 GB Wi-FI Service",Brooklyn,LinkNYC Free Wi-Fi,LINK-018124,04/28/2017,3,Brooklyn,BK35,Stuyvesant Heights,41,11233,303,379,379,3041421,3015240000,4498,"(40.6790149999, -73.9218019995)"
10302,3,Free,LinkNYC - Citybridge,bk-07-145886,799 4 AVENUE,40.6588079996,-73.9995320004,984379.847497,179297.906874,Outdoor Kiosk,"Tablet Internet -phone , Free 1 GB Wi-FI Service",Brooklyn,LinkNYC Free Wi-Fi,LINK-021524,08/22/2017,3,Brooklyn,BK32,Sunset Park West,38,11232,307,101,101,3009753,3006610000,4707,"(40.6588079996, -73.9995320004)"
12287,3,Free,LinkNYC - Citybridge,bk-17-126233,3524 CHURCH AVENUE,40.6510468198,-73.9439693004,999797.64573,176475.265866,Outdoor Kiosk,"Tablet Internet -phone , Free 1 GB Wi-FI Service",Brooklyn,LinkNYC Free Wi-Fi,LINK-001089,10/30/2017,3,Brooklyn,BK91,East Flatbush-Farragut,45,11203,317,856,856,3109473,3048890010,3470,"(40.6510468198, -73.9439693004)"
9897,3,Free,LinkNYC - Citybridge,bk-01-145861,1049 MANHATTAN AVENUE,40.7346839996,-73.955096,996694.54006,206944.970018,Outdoor Kiosk,"Tablet Internet -phone , Free 1 GB Wi-FI Service",Brooklyn,LinkNYC Free Wi-Fi,LINK-020757,08/23/2017,3,Brooklyn,BK76,Greenpoint,33,11222,301,563,563,3063924,3025040040,4621,"(40.7346839996, -73.955096)"
9790,3,Free,LinkNYC - Citybridge,bk-04-103731,849 BROADWAY,40.6988762301,-73.93844701,1001317.7503,193901.912771,Outdoor Kiosk,"Tablet Internet -phone , Free 1 GB Wi-FI Service",Brooklyn,LinkNYC Free Wi-Fi,LINK-000008,07/27/2018,3,Brooklyn,BK78,Bushwick South,34,11206,304,389,389,3071735,3031340000,4907,"(40.6988762301, -73.93844701)"
11928,3,Free,LinkNYC - Citybridge,bk-14-145813,895 FLATBUSH AVENUE,40.65002892,-73.95850153,995765.354582,176102.172124,Outdoor Kiosk,"Tablet Internet -phone , Free 1 GB Wi-FI Service",Brooklyn,LinkNYC Free Wi-Fi,LINK-018083,05/01/2017,3,Brooklyn,BK95,Erasmus,40,11226,314,794,794,3117221,3051030020,4476,"(40.65002892, -73.95850153)"
12640,3,Free,LinkNYC - Citybridge,bk-02-126807,56 LAFAYETTE AVENUE,40.6869605882,-73.9763707911,990803.20801,189555.581241,Outdoor Kiosk,"Tablet Internet -phone , Free 1 GB Wi-FI Service",Brooklyn,LinkNYC Free Wi-Fi,LINK-002533,01/09/2017,3,Brooklyn,BK68,Fort Greene,35,11217,302,35,35,3059247,3021130020,3640,"(40.6869605882, -73.9763707911)"
11989,3,Free,LinkNYC - Citybridge,bk-09-127020,926 NOSTRAND AVENUE,40.6662028303,-73.9509133495,997867.686335,181995.866373,Outdoor Kiosk,"Tablet Internet -phone , Free 1 GB Wi-FI Service",Brooklyn,LinkNYC Free Wi-Fi,LINK-011635,03/01/2017,3,Brooklyn,BK63,Crown Heights South,35,11225,309,321,321,3034163,3012960040,4076,"(40.6662028303, -73.9509133495)"
12078,3,Free,LinkNYC - Citybridge,bk-06-125921,426 5 AVENUE,40.6697310497,-73.98595804,988145.334061,183277.793271,Outdoor Kiosk,"Tablet Internet -phone , Free 1 GB Wi-FI Service",Brooklyn,LinkNYC Free Wi-Fi,LINK-000042,04/03/2017,3,Brooklyn,BK37,Park Slope-Gowanus,39,11215,306,137,137,3022092,3010040040,3033,"(40.6697310497, -73.98595804)"
11927,3,Free,LinkNYC - Citybridge,bk-14-145755,827 FLATBUSH AVENUE,40.65245679,-73.9591152904,995594.630186,176986.631969,Outdoor Kiosk,"Tablet Internet -phone , Free 1 GB Wi-FI Service",Brooklyn,LinkNYC Free Wi-Fi,LINK-018082,04/05/2017,3,Brooklyn,BK60,Prospect Lefferts Gardens-Wingate,40,11226,314,796,796,3335776,3050830000,4475,"(40.65245679, -73.9591152904)"
9841,3,Free,LinkNYC - Citybridge,bk-06-145876,244 SMITH STREET,40.6834360701,-73.9927725399,986254.534037,188270.695687,Outdoor Kiosk,"Tablet Internet -phone , Free 1 GB Wi-FI Service",Brooklyn,LinkNYC Free Wi-Fi,LINK-020659,10/23/2017,3,Brooklyn,BK33,Carroll Gardens-Columbia Street-Red Hook,33,11231,306,75,75,3336097,3004140040,4618,"(40.6834360701, -73.9927725399)"
11942,3,Free,LinkNYC - Citybridge,bk-03-145837,505 Nostrand Ave,40.6799869996,-73.9494730004,998264.373206,187018.058757,Outdoor Kiosk,"Tablet Internet -phone , Free 1 GB Wi-FI Service",Brooklyn,LinkNYC Free Wi-Fi,LINK-018105,06/09/2017,3,Brooklyn,BK61,Crown Heights North,36,11216,303,247,247,3053750,3018610000,4490,"(40.6799869996, -73.9494730004)"
11258,3,Free,LinkNYC - Citybridge,bk-01-108952,511 BROADWAY,40.7053709599,-73.9499634901,998123.046389,196266.102268,Outdoor Kiosk,"Tablet Internet -phone , Free 1 GB Wi-FI Service",Brooklyn,LinkNYC Free Wi-Fi,LINK-010448,02/27/2018,3,Brooklyn,BK90,East Williamsburg,34,11206,301,511,511,3325852,3030580100,3888,"(40.7053709599, -73.9499634901)"
11937,3,Free,LinkNYC - Citybridge,bk-08-145990,634 Franklin Ave,40.6767139998,-73.9558579996,996494.005028,185824.653991,Outdoor Kiosk,"Tablet Internet -phone , Free 1 GB Wi-FI Service",Brooklyn,LinkNYC Free Wi-Fi,LINK-018099,01/22/2018,3,Brooklyn,BK61,Crown Heights North,35,11238,308,305,305,3028306,3011490050,4485,"(40.6767139998, -73.9558579996)"
12635,3,Free,LinkNYC - Citybridge,bk-09-126617,837 FRANKLIN AVE,40.6696520904,-73.9582614199,995828.575912,183251.472458,Outdoor Kiosk,"Tablet Internet -phone , Free 1 GB Wi-FI Service",Brooklyn,LinkNYC Free Wi-Fi,LINK-002456,12/09/2016,3,Brooklyn,BK63,Crown Heights South,35,11225,309,325,325,3337861,3012730010,3635,"(40.6696520904, -73.9582614199)"
10312,3,Free,LinkNYC - Citybridge,bk-02-145868,470 VANDERBILT AVENUE,40.6822675301,-73.9677531801,993193.802967,187846.52626,Outdoor Kiosk,"Tablet Internet -phone , Free 1 GB Wi-FI Service",Brooklyn,LinkNYC Free Wi-Fi,LINK-021686,06/12/2018,3,Brooklyn,BK69,Clinton Hill,35,11238,302,199,199,3335094,3020090000,4717,"(40.6822675301, -73.9677531801)"
10266,3,Free,LinkNYC - Citybridge,bk-01-145995,29 SOUTH 3 STREET,40.7139138601,-73.9669304196,993417.646679,199376.307006,Outdoor Kiosk,"Tablet Internet -phone , Free 1 GB Wi-FI Service",Brooklyn,LinkNYC Free Wi-Fi,LINK-021248,02/14/2018,3,Brooklyn,BK73,North Side-South Side,33,11249,301,551,551,3395339,3024157500,4671,"(40.7139138601, -73.9669304196)"
12061,3,Free,LinkNYC - Citybridge,bk-01-138951,15 DEBEVOISE STREET,40.7016675303,-73.9424885901,1000196.41134,194918.104636,Outdoor Kiosk,"Tablet Internet -phone , Free 1 GB Wi-FI Service",Brooklyn,LinkNYC Free Wi-Fi,LINK-000002,08/02/2017,3,Brooklyn,BK90,East Williamsburg,34,11206,301,491,491,3071604,3031190030,3016,"(40.7016675303, -73.9424885901)"
11263,3,Free,LinkNYC - Citybridge,bk-09-127716,900 NOSTRAND AVENUE,40.6673461304,-73.9508092804,997896.323417,182412.419018,Outdoor Kiosk,"Tablet Internet -phone , Free 1 GB Wi-FI Service",Brooklyn,LinkNYC Free Wi-Fi,LINK-010567,04/28/2017,3,Brooklyn,BK63,Crown Heights South,35,11225,309,321,321,3348092,3012890030,3893,"(40.6673461304, -73.9508092804)"
9909,3,Free,LinkNYC - Citybridge,bk-01-145858,434 MANHATTAN AVENUE,40.7195109999,-73.9468529999,998982.330432,201418.254694,Outdoor Kiosk,"Tablet Internet -phone , Free 1 GB Wi-FI Service",Brooklyn,LinkNYC Free Wi-Fi,LINK-020768,08/15/2017,3,Brooklyn,BK76,Greenpoint,33,11222,301,499,499,3067915,3027240010,4625,"(40.7195109999, -73.9468529999)"
10293,3,Free,LinkNYC - Citybridge,bk-06-145895,615 CARROLL STREET,40.6752539996,-73.9814689995,989390.198369,185290.19279,Outdoor Kiosk,"Tablet Internet -phone , Free 1 GB Wi-FI Service",Brooklyn,LinkNYC Free Wi-Fi,LINK-021509,09/11/2017,3,Brooklyn,BK37,Park Slope-Gowanus,39,11215,306,133,133,3259252,3009590080,4698,"(40.6752539996, -73.9814689995)"
12630,3,Free,LinkNYC - Citybridge,bk-03-126647,1961 FULTON STREET,40.6786540002,-73.916507,1007408.41725,186539.403546,Outdoor Kiosk,"Tablet Internet -phone , Free 1 GB Wi-FI Service",Brooklyn,LinkNYC Free Wi-Fi,LINK-002345,02/24/2017,3,Brooklyn,BK35,Stuyvesant Heights,41,11233,303,379,379,3041785,3015360000,3630,"(40.6786540002, -73.916507)"
11173,3,Free,LinkNYC - Citybridge,bk-09-127022,1208 NOSTRAND AVENUE,40.6577396499,-73.9504069702,998009.912429,178912.572015,Outdoor Kiosk,"Tablet Internet -phone , Free 1 GB Wi-FI Service",Brooklyn,LinkNYC Free Wi-Fi,LINK-013459,03/07/2017,3,Brooklyn,BK60,Prospect Lefferts Gardens-Wingate,40,11225,309,802,802,3115751,3050470040,4298,"(40.6577396499, -73.9504069702)"
12884,3,Free,LinkNYC - Citybridge,bk-06-145848,162 PARK PLACE,40.6775887797,-73.9730618003,991721.957157,186141.425339,Outdoor Kiosk,"Tablet Internet -phone , Free 1 GB Wi-FI Service",Brooklyn,LinkNYC Free Wi-Fi,LINK-005725,04/24/2018,3,Brooklyn,BK64,Prospect Heights,39,11217,306,161,161,3024351,3010570010,3738,"(40.6775887797, -73.9730618003)"
12908,3,Free,LinkNYC - Citybridge,bk-08-126609,764 FRANKLIN AVE,40.6723020003,-73.9574577399,996051.053486,184217.017115,Outdoor Kiosk,"Tablet Internet -phone , Free 1 GB Wi-FI Service",Brooklyn,LinkNYC Free Wi-Fi,LINK-006138,01/05/2018,3,Brooklyn,BK61,Crown Heights North,35,11238,308,217,217,3029594,3011780040,3762,"(40.6723020003, -73.9574577399)"
10334,3,Free,LinkNYC - Citybridge,bk-17-145928,3402 CHURCH AVENUE,40.6509474903,-73.9455446295,999360.538993,176438.8017,Outdoor Kiosk,"Tablet Internet -phone , Free 1 GB Wi-FI Service",Brooklyn,LinkNYC Free Wi-Fi,LINK-022137,10/30/2017,3,Brooklyn,BK91,East Flatbush-Farragut,45,11203,317,856,856,3109421,3048880000,4739,"(40.6509474903, -73.9455446295)"
10298,3,Free,LinkNYC - Citybridge,bk-06-145902,258 14th STREET,40.6662297103,-73.9890566195,987285.926659,182002.033684,Outdoor Kiosk,"Tablet Internet -phone , Free 1 GB Wi-FI Service",Brooklyn,LinkNYC Free Wi-Fi,LINK-021518,08/31/2017,3,Brooklyn,BK37,Park Slope-Gowanus,39,11215,306,141,141,3023670,3010410040,4703,"(40.6662297103, -73.9890566195)"
12283,3,Free,LinkNYC - Citybridge,bk-08-132895,773 WASHINGTON AVE,40.6736920002,-73.9628690295,994549.768759,184722.751011,Outdoor Kiosk,"Tablet Internet -phone , Free 1 GB Wi-FI Service",Brooklyn,LinkNYC Free Wi-Fi,LINK-001076,03/08/2018,3,Brooklyn,BK64,Prospect Heights,35,11238,308,215,215,3029426,3011740000,3466,"(40.6736920002, -73.9628690295)"
12288,3,Free,LinkNYC - Citybridge,bk-17-126292,3923 CHURCH AVE,40.6513409997,-73.9401659996,1000852.92905,176583.141634,Outdoor Kiosk,"Tablet Internet -phone , Free 1 GB Wi-FI Service",Brooklyn,LinkNYC Free Wi-Fi,LINK-001091,07/24/2018,3,Brooklyn,BK91,East Flatbush-Farragut,41,11203,317,814,814,3108908,3048760030,3471,"(40.6513409997, -73.9401659996)"
11932,3,Free,LinkNYC - Citybridge,bk-14-145907,971 FLATBUSH AVENUE,40.6478873703,-73.9580506303,995890.847769,175322.006361,Outdoor Kiosk,"Tablet Internet -phone , Free 1 GB Wi-FI Service",Brooklyn,LinkNYC Free Wi-Fi,LINK-018088,09/15/2017,3,Brooklyn,BK95,Erasmus,40,11226,314,794,794,3117362,3051090000,4480,"(40.6478873703, -73.9580506303)"
11995,3,Free,LinkNYC - Citybridge,bk-08-145032,656 NOSTRAND AVENUE,40.6759649997,-73.9500080005,998116.819695,185552.643708,Outdoor Kiosk,"Tablet Internet -phone , Free 1 GB Wi-FI Service",Brooklyn,LinkNYC Free Wi-Fi,LINK-011729,03/08/2017,3,Brooklyn,BK61,Crown Heights North,36,11216,308,315,315,3030663,3012190040,4082,"(40.6759649997, -73.9500080005)"
12347,3,Free,LinkNYC - Citybridge,bk-02-126247,280 CADMAN PLAZA WEST,40.6960704402,-73.99126379,986672.526311,192873.804591,Outdoor Kiosk,"Tablet Internet -phone , Free 1 GB Wi-FI Service",Brooklyn,LinkNYC Free Wi-Fi,LINK-001011,03/03/2017,3,Brooklyn,BK09,Brooklyn Heights-Cobble Hill,33,11201,302,5,5,3001939,3002390020,3457,"(40.6960704402, -73.99126379)"
10323,3,Free,LinkNYC - Citybridge,bk-05-145939,3450 FULTON STREET,40.6847015539,-73.8683087895,1020773.81342,188759.119907,Outdoor Kiosk,"Tablet Internet -phone , Free 1 GB Wi-FI Service",Brooklyn,LinkNYC Free Wi-Fi,LINK-021923,11/21/2017,3,Brooklyn,BK83,Cypress Hills-City Line,37,11208,305,184,184,3093023,3041510030,4728,"(40.6847015539, -73.8683087895)"
12280,3,Free,LinkNYC - Citybridge,bk-07-125841,875 4 AVENUE,40.6560110001,-74.0024460002,983571.323524,178278.891196,Outdoor Kiosk,"Tablet Internet -phone , Free 1 GB Wi-FI Service",Brooklyn,LinkNYC Free Wi-Fi,LINK-001048,04/13/2017,3,Brooklyn,BK32,Sunset Park West,38,11232,307,101,101,3010083,3006800050,3463,"(40.6560110001, -74.0024460002)"
12073,3,Free,LinkNYC - Citybridge,bk-06-126514,248 FLATBUSH AVENUE,40.6796385842,-73.9743714568,991358.47396,186888.119056,Outdoor Kiosk,"Tablet Internet -phone , Free 1 GB Wi-FI Service",Brooklyn,LinkNYC Free Wi-Fi,LINK-000035,01/16/2018,3,Brooklyn,BK64,Prospect Heights,39,11217,306,161,161,3018773,3009360010,3028,"(40.6796385842, -73.9743714568)"
11922,3,Free,LinkNYC - Citybridge,bk-02-145747,907 FULTON STREET,40.6835909998,-73.9670929999,993376.725829,188328.772671,Outdoor Kiosk,"Tablet Internet -phone , Free 1 GB Wi-FI Service",Brooklyn,LinkNYC Free Wi-Fi,LINK-018067,05/01/2017,3,Brooklyn,BK69,Clinton Hill,35,11238,302,199,199,3056600,3019760020,4470,"(40.6835909998, -73.9670929999)"
10249,3,Free,LinkNYC - Citybridge,bk-08-145919,488 Bergen Street,40.6806498897,-73.9743749598,991357.394566,187256.566482,Outdoor Kiosk,"Tablet Internet -phone , Free 1 GB Wi-FI Service",Brooklyn,LinkNYC Free Wi-Fi,LINK-021194,01/08/2018,3,Brooklyn,BK64,Prospect Heights,35,11217,308,161,161,3028037,3011430010,4654,"(40.6806498897, -73.9743749598)"
10261,3,Free,LinkNYC - Citybridge,bk-01-145996,79 GRAND STREET,40.7157317501,-73.9642430902,994162.365662,200038.912308,Outdoor Kiosk,"Tablet Internet -phone , Free 1 GB Wi-FI Service",Brooklyn,LinkNYC Free Wi-Fi,LINK-021228,02/01/2018,3,Brooklyn,BK73,North Side-South Side,34,11249,301,555,555,3424060,3023797500,4666,"(40.7157317501, -73.9642430902)"
11126,3,Free,LinkNYC - Citybridge,bk-08-145831,575 NOSTRAND AVENUE,40.6775039998,-73.9496970302,998202.754891,186113.394883,Outdoor Kiosk,"Tablet Internet -phone , Free 1 GB Wi-FI Service",Brooklyn,LinkNYC Free Wi-Fi,LINK-019366,05/08/2017,3,Brooklyn,BK61,Crown Heights North,36,11216,308,315,315,3030039,3012070010,4569,"(40.6775039998, -73.9496970302)"
10338,3,Free,LinkNYC - Citybridge,bk-14-145949,9 SNYDER AVENUE,40.6486071201,-73.9578195903,995954.834518,175584.261742,Outdoor Kiosk,"Tablet Internet -phone , Free 1 GB Wi-FI Service",Brooklyn,LinkNYC Free Wi-Fi,LINK-022142,03/01/2019,3,Brooklyn,BK95,Erasmus,40,11226,314,794,794,3117218,3051030000,4743,"(40.6486071201, -73.9578195903)"
10271,3,Free,LinkNYC - Citybridge,bk-01-146041,43 NORTH 10 STREET,40.7219434197,-73.95977484,995399.994092,202302.550825,Outdoor Kiosk,"Tablet Internet -phone , Free 1 GB Wi-FI Service",Brooklyn,LinkNYC Free Wi-Fi,LINK-021280,02/01/2018,3,Brooklyn,BK73,North Side-South Side,33,11249,301,557,557,3061586,3022950000,4676,"(40.7219434197, -73.95977484)"
10303,3,Free,LinkNYC - Citybridge,bk-07-145866,825 4 AVENUE,40.6577040001,-74.0006889997,984058.832391,178895.689503,Outdoor Kiosk,"Tablet Internet -phone , Free 1 GB Wi-FI Service",Brooklyn,LinkNYC Free Wi-Fi,LINK-021525,08/22/2017,3,Brooklyn,BK32,Sunset Park West,38,11232,307,101,101,3009847,3006690000,4708,"(40.6577040001, -74.0006889997)"
10171,3,Free,LinkNYC - Citybridge,bk-01-145892,145 MONTROSE AVENUE,40.7073790001,-73.9433989999,999942.633957,196998.799294,Outdoor Kiosk,"Tablet Internet -phone , Free 1 GB Wi-FI Service",Brooklyn,LinkNYC Free Wi-Fi,LINK-020774,01/05/2018,3,Brooklyn,BK90,East Williamsburg,34,11206,301,505,505,3071122,3030520030,4627,"(40.7073790001, -73.9433989999)"
11918,3,Free,LinkNYC - Citybridge,bk-02-145810,79 HENRY STREET,40.6982803803,-73.9925546004,986314.519809,193678.918138,Outdoor Kiosk,"Tablet Internet -phone , Free 1 GB Wi-FI Service",Brooklyn,LinkNYC Free Wi-Fi,LINK-018047,06/05/2017,3,Brooklyn,BK09,Brooklyn Heights-Cobble Hill,33,11201,302,1,1,3339176,3002170000,4466,"(40.6982803803, -73.9925546004)"
10254,3,Free,LinkNYC - Citybridge,bk-01-146047,1 TEN EYCK STREET,40.7095716301,-73.95070637,997916.215438,197796.415809,Outdoor Kiosk,"Tablet Internet -phone , Free 1 GB Wi-FI Service",Brooklyn,LinkNYC Free Wi-Fi,LINK-021138,03/29/2018,3,Brooklyn,BK73,North Side-South Side,34,11206,301,513,513,3069651,3027910000,4659,"(40.7095716301, -73.95070637)"
10333,3,Free,LinkNYC - Citybridge,bk-17-146003,3723 CHURCH AVENUE,40.6512299704,-73.94206208,1000326.82545,176542.336926,Outdoor Kiosk,"Tablet Internet -phone , Free 1 GB Wi-FI Service",Brooklyn,LinkNYC Free Wi-Fi,LINK-022136,07/27/2018,3,Brooklyn,BK91,East Flatbush-Farragut,41,11203,317,816,816,3108817,3048740030,4738,"(40.6512299704, -73.94206208)"
9898,3,Free,LinkNYC - Citybridge,bk-01-145863,984 MANHATTAN AVENUE,40.7327349999,-73.9545809998,996837.633605,206234.961924,Outdoor Kiosk,"Tablet Internet -phone , Free 1 GB Wi-FI Service",Brooklyn,LinkNYC Free Wi-Fi,LINK-020759,08/02/2017,3,Brooklyn,BK76,Greenpoint,33,11222,301,575,575,3064316,3025330010,4622,"(40.7327349999, -73.9545809998)"
9789,3,Free,LinkNYC - Citybridge,bk-03-108944,846 BROADWAY,40.6989557598,-73.9389323497,1001183.15247,193930.793619,Outdoor Kiosk,"Tablet Internet -phone , Free 1 GB Wi-FI Service",Brooklyn,LinkNYC Free Wi-Fi,LINK-000010,09/06/2018,3,Brooklyn,BK78,Bushwick South,36,11206,303,28501,28501,3251257,3015790030,4906,"(40.6989557598, -73.9389323497)"
11929,3,Free,LinkNYC - Citybridge,bk-14-145836,927 FLATBUSH AVENUE,40.6491150004,-73.9582909997,995823.932877,175769.233813,Outdoor Kiosk,"Tablet Internet -phone , Free 1 GB Wi-FI Service",Brooklyn,LinkNYC Free Wi-Fi,LINK-018085,05/31/2017,3,Brooklyn,BK95,Erasmus,40,11226,314,794,794,3117220,3051030010,4477,"(40.6491150004, -73.9582909997)"
11048,3,Free,LinkNYC - Citybridge,bk-02-126016,348 ATLANTIC AVENUE,40.6875936079,-73.9870681135,987836.431464,189785.589639,Outdoor Kiosk,"Tablet Internet -phone , Free 1 GB Wi-FI Service",Brooklyn,LinkNYC Free Wi-Fi,LINK-012986,05/02/2018,3,Brooklyn,BK38,DUMBO-Vinegar Hill-Downtown Brooklyn-Boerum Hill,33,11217,302,41,41,3000872,3001830010,4245,"(40.6875936079, -73.9870681135)"
12637,3,Free,LinkNYC - Citybridge,bk-02-142293,36 BOND STREET,40.6886723001,-73.9837100796,988767.650074,190178.744036,Outdoor Kiosk,"Tablet Internet -phone , Free 1 GB Wi-FI Service",Brooklyn,LinkNYC Free Wi-Fi,LINK-002525,03/24/2017,3,Brooklyn,BK38,DUMBO-Vinegar Hill-Downtown Brooklyn-Boerum Hill,33,11201,302,37,37,3329446,3001650030,3637,"(40.6886723001, -73.9837100796)"
12071,3,Free,LinkNYC - Citybridge,bk-06-125930,168 5 AVENUE,40.6776196104,-73.9797379904,989870.15279,186152.158914,Outdoor Kiosk,"Tablet Internet -phone , Free 1 GB Wi-FI Service",Brooklyn,LinkNYC Free Wi-Fi,LINK-000032,04/03/2017,3,Brooklyn,BK37,Park Slope-Gowanus,39,11217,306,131,131,3019560,3009490040,3026,"(40.6776196104, -73.9797379904)"
10246,3,Free,LinkNYC - Citybridge,bk-01-145997,500 GRAND STREET,40.7108698299,-73.9513107194,997748.402125,198269.29544,Outdoor Kiosk,"Tablet Internet -phone , Free 1 GB Wi-FI Service",Brooklyn,LinkNYC Free Wi-Fi,LINK-021107,04/10/2018,3,Brooklyn,BK73,North Side-South Side,34,11211,301,513,513,3062881,3024000010,4651,"(40.7108698299, -73.9513107194)"
12069,3,Free,LinkNYC - Citybridge,bk-01-140988,182 Bedford Ave,40.7177702401,-73.9578690795,995928.982208,200782.38195,Outdoor Kiosk,"Tablet Internet -phone , Free 1 GB Wi-FI Service",Brooklyn,LinkNYC Free Wi-Fi,LINK-000029,01/29/2019,3,Brooklyn,BK73,North Side-South Side,33,11249,301,553,553,3062079,3023270020,3024,"(40.7177702401, -73.9578690795)"
11949,3,Free,LinkNYC - Citybridge,bk-03-145816,1741 FULTON STREET,40.6793810001,-73.9298339995,1003711.70188,186801.028351,Outdoor Kiosk,"Tablet Internet -phone , Free 1 GB Wi-FI Service",Brooklyn,LinkNYC Free Wi-Fi,LINK-018120,09/27/2017,3,Brooklyn,BK61,Crown Heights North,36,11233,303,297,297,3325182,3016910010,4497,"(40.6793810001, -73.9298339995)"
12018,3,Free,LinkNYC - Citybridge,bk-01-125263,1007 MANHATTAN AVENUE,40.7334000001,-73.9548860003,996752.979575,206477.198644,Outdoor Kiosk,"Tablet Internet -phone , Free 1 GB Wi-FI Service",Brooklyn,LinkNYC Free Wi-Fi,LINK-012012,04/14/2017,3,Brooklyn,BK76,Greenpoint,33,11222,301,563,563,3064146,3025220040,4105,"(40.7334000001, -73.9548860003)"
11914,3,Free,LinkNYC - Citybridge,bk-08-127080,27 6 AVENUE,40.6821325357,-73.9739328218,991479.865778,187796.773406,Outdoor Kiosk,"Tablet Internet -phone , Free 1 GB Wi-FI Service",Brooklyn,LinkNYC Free Wi-Fi,LINK-011622,02/14/2018,3,Brooklyn,BK64,Prospect Heights,35,11217,308,161,161,3027605,3011280000,4074,"(40.6821325357, -73.9739328218)"
10292,3,Free,LinkNYC - Citybridge,bk-06-145872,110 5 AVENUE,40.6795010096,-73.9784649196,990223.100903,186837.691007,Outdoor Kiosk,"Tablet Internet -phone , Free 1 GB Wi-FI Service",Brooklyn,LinkNYC Free Wi-Fi,LINK-021506,08/15/2017,3,Brooklyn,BK37,Park Slope-Gowanus,39,11217,306,129,129,3018991,3009430240,4697,"(40.6795010096, -73.9784649196)"
10328,3,Free,LinkNYC - Citybridge,bk-05-145936,22 GEORGIA AVENUE,40.6770425302,-73.8992120797,1012206.17537,185957.344999,Outdoor Kiosk,"Tablet Internet -phone , Free 1 GB Wi-FI Service",Brooklyn,LinkNYC Free Wi-Fi,LINK-021929,01/16/2018,3,Brooklyn,BK82,East New York,37,11207,305,198,198,0,3036670020,4733,"(40.6770425302, -73.8992120797)"
11055,3,Free,LinkNYC - Citybridge,bk-14-126362,1626 CORTELYOU ROAD,40.6418583499,-73.9628358496,994563.893074,173124.870008,Outdoor Kiosk,"Tablet Internet -phone , Free 1 GB Wi-FI Service",Brooklyn,LinkNYC Free Wi-Fi,LINK-013093,04/23/2018,3,Brooklyn,BK42,Flatbush,40,11226,314,514,514,3118755,3051590010,4252,"(40.6418583499, -73.9628358496)"
12913,3,Free,LinkNYC - Citybridge,bk-03-127093,1805 FULTON STREET,40.6791430002,-73.9254739997,1004921.09349,186715.316908,Outdoor Kiosk,"Tablet Internet -phone , Free 1 GB Wi-FI Service",Brooklyn,LinkNYC Free Wi-Fi,LINK-006197,01/17/2017,3,Brooklyn,BK61,Crown Heights North,36,11233,303,381,381,3047942,3016970000,3767,"(40.6791430002, -73.9254739997)"
9839,3,Free,LinkNYC - Citybridge,bk-06-145906,333 BALTIC STREET,40.6847989501,-73.9915810402,986584.948402,188767.261951,Outdoor Kiosk,"Tablet Internet -phone , Free 1 GB Wi-FI Service",Brooklyn,LinkNYC Free Wi-Fi,LINK-020657,09/18/2017,3,Brooklyn,BK38,DUMBO-Vinegar Hill-Downtown Brooklyn-Boerum Hill,33,11201,306,69,69,3006352,3003970000,4616,"(40.6847989501, -73.9915810402)"
9896,3,Free,LinkNYC - Citybridge,bk-01-145864,1133 MANHATTAN AVENUE,40.7369134897,-73.9554531896,996595.136715,207757.192803,Outdoor Kiosk,"Tablet Internet -phone , Free 1 GB Wi-FI Service",Brooklyn,LinkNYC Free Wi-Fi,LINK-020756,08/02/2017,3,Brooklyn,BK76,Greenpoint,33,11222,301,563,563,3063701,3024820030,4620,"(40.7369134897, -73.9554531896)"
12626,3,Free,LinkNYC - Citybridge,bk-03-145739,1245 FULTON STREET,40.6805560003,-73.9513809996,997735.047821,187225.062608,Outdoor Kiosk,"Tablet Internet -phone , Free 1 GB Wi-FI Service",Brooklyn,LinkNYC Free Wi-Fi,LINK-002241,04/10/2017,3,Brooklyn,BK75,Bedford,36,11216,303,245,245,3399847,3018420050,3626,"(40.6805560003, -73.9513809996)"
9908,3,Free,LinkNYC - Citybridge,bk-01-145859,475 MANHATTAN AVENUE,40.7201109997,-73.9476270003,998767.647134,201636.723745,Outdoor Kiosk,"Tablet Internet -phone , Free 1 GB Wi-FI Service",Brooklyn,LinkNYC Free Wi-Fi,LINK-020767,08/15/2017,3,Brooklyn,BK76,Greenpoint,33,11222,301,499,499,3067788,3027120000,4624,"(40.7201109997, -73.9476270003)"
10734,3,Free,LinkNYC - Citybridge,bk-02-126433,395 FLATBUSH AVENUE EXTENSION,40.6890260003,-73.980862,989557.473953,190307.767072,Outdoor Kiosk,"Tablet Internet -phone , Free 1 GB Wi-FI Service",Brooklyn,LinkNYC Free Wi-Fi,LINK-009081,07/25/2017,3,Brooklyn,BK68,Fort Greene,35,11201,302,33,33,3058594,3020930000,3840,"(40.6890260003, -73.980862)"
11933,3,Free,LinkNYC - Citybridge,bk-14-145758,1088 FLATBUSH AVENUE,40.6439408604,-73.9579902597,995908.289992,173884.192964,Outdoor Kiosk,"Tablet Internet -phone , Free 1 GB Wi-FI Service",Brooklyn,LinkNYC Free Wi-Fi,LINK-018090,09/15/2017,3,Brooklyn,BK42,Flatbush,40,11226,314,516,516,3345680,3051640010,4481,"(40.6439408604, -73.9579902597)"
10260,3,Free,LinkNYC - Citybridge,bk-01-146016,28 NORTH 5 STREET,40.7190673627,-73.9627653503,994571.501327,201254.348525,Outdoor Kiosk,"Tablet Internet -phone , Free 1 GB Wi-FI Service",Brooklyn,LinkNYC Free Wi-Fi,LINK-021227,04/12/2018,3,Brooklyn,BK73,North Side-South Side,33,11249,301,555,555,3062291,3023410000,4665,"(40.7190673627, -73.9627653503)"
12065,3,Free,LinkNYC - Citybridge,bk-14-126536,1216 FLATBUSH AVENUE,40.6406662264,-73.9559243864,996482.198949,172691.436491,Outdoor Kiosk,"Tablet Internet -phone , Free 1 GB Wi-FI Service",Brooklyn,LinkNYC Free Wi-Fi,LINK-000019,05/10/2018,3,Brooklyn,BK42,Flatbush,40,11226,314,516,516,3119589,3051860030,3020,"(40.6406662264, -73.9559243864)"
10318,3,Free,LinkNYC - Citybridge,bk-05-126737,2 Eldert Ln,40.6910214302,-73.8680948596,1020829.67847,191061.721929,Outdoor Kiosk,"Tablet Internet -phone , Free 1 GB Wi-FI Service",Brooklyn,LinkNYC Free Wi-Fi,LINK-021914,03/28/2018,3,Brooklyn,BK83,Cypress Hills-City Line,37,11208,305,182,182,3091371,3041120060,4723,"(40.6910214302, -73.8680948596)"
12641,3,Free,LinkNYC - Citybridge,bk-06-125915,555 5 AVENUE,40.6656179996,-73.989159,987257.551716,181779.166675,Outdoor Kiosk,"Tablet Internet -phone , Free 1 GB Wi-FI Service",Brooklyn,LinkNYC Free Wi-Fi,LINK-002667,06/12/2017,3,Brooklyn,BK37,Park Slope-Gowanus,39,11215,306,141,141,3023689,3010420000,3641,"(40.6656179996, -73.989159)"
11901,3,Free,LinkNYC - Citybridge,bk-01-126669,45 AVENUE OF PUERTO RICO,40.7029359998,-73.9425630002,1000175.47634,195380.232321,Outdoor Kiosk,"Tablet Internet -phone , Free 1 GB Wi-FI Service",Brooklyn,LinkNYC Free Wi-Fi,LINK-011510,05/23/2017,3,Brooklyn,BK90,East Williamsburg,34,11206,301,491,491,3071557,3031130020,4065,"(40.7029359998, -73.9425630002)"
10255,3,Free,LinkNYC - Citybridge,bk-01-145999,31 NASSAU AVENUE,40.7230135004,-73.9532335504,997212.962907,202693.314479,Outdoor Kiosk,"Tablet Internet -phone , Free 1 GB Wi-FI Service",Brooklyn,LinkNYC Free Wi-Fi,LINK-021150,04/10/2018,3,Brooklyn,BK76,Greenpoint,33,11222,301,569,569,3065960,3026430030,4660,"(40.7230135004, -73.9532335504)"
10311,3,Free,LinkNYC - Citybridge,bk-06-145871,459 BERGEN STREET,40.6810387203,-73.9757301701,990981.472418,187398.121645,Outdoor Kiosk,"Tablet Internet -phone , Free 1 GB Wi-FI Service",Brooklyn,LinkNYC Free Wi-Fi,LINK-021683,08/15/2017,3,Brooklyn,BK37,Park Slope-Gowanus,39,11217,306,129,129,3018494,3009310030,4716,"(40.6810387203, -73.9757301701)"
9895,3,Free,LinkNYC - Citybridge,bk-06-145875,280 SMITH STREET,40.6824098696,-73.9934671297,986061.917624,187896.806015,Outdoor Kiosk,"Tablet Internet -phone , Free 1 GB Wi-FI Service",Brooklyn,LinkNYC Free Wi-Fi,LINK-020661,09/18/2017,3,Brooklyn,BK33,Carroll Gardens-Columbia Street-Red Hook,39,11231,306,75,75,3006845,3004210040,4619,"(40.6824098696, -73.9934671297)"
10296,3,Free,LinkNYC - Citybridge,bk-06-145873,482 5 AVENUE,40.6678730002,-73.9875089995,987715.184003,182600.788064,Outdoor Kiosk,"Tablet Internet -phone , Free 1 GB Wi-FI Service",Brooklyn,LinkNYC Free Wi-Fi,LINK-021516,08/22/2017,3,Brooklyn,BK37,Park Slope-Gowanus,39,11215,306,139,139,3022889,3010220050,4701,"(40.6678730002, -73.9875089995)"
12077,3,Free,LinkNYC - Citybridge,bk-06-125626,445 5 AVENUE,40.6690179999,-73.9863169995,988045.796858,183017.993266,Outdoor Kiosk,"Tablet Internet -phone , Free 1 GB Wi-FI Service",Brooklyn,LinkNYC Free Wi-Fi,LINK-000041,06/05/2017,3,Brooklyn,BK37,Park Slope-Gowanus,39,11215,306,139,139,3000000,3010110010,3032,"(40.6690179999, -73.9863169995)"
10324,3,Free,LinkNYC - Citybridge,bk-05-145938,3480 FULTON STREET,40.6851309404,-73.8667773299,1021198.31684,188916.199973,Outdoor Kiosk,"Tablet Internet -phone , Free 1 GB Wi-FI Service",Brooklyn,LinkNYC Free Wi-Fi,LINK-021925,12/20/2017,3,Brooklyn,BK83,Cypress Hills-City Line,37,11208,305,184,184,3093078,3041520030,4729,"(40.6851309404, -73.8667773299)"
12088,3,Free,LinkNYC - Citybridge,bk-02-126506,339 LIVINGSTON STREET,40.6876489803,-73.9804235504,989679.179747,189806.105346,Outdoor Kiosk,"Tablet Internet -phone , Free 1 GB Wi-FI Service",Brooklyn,LinkNYC Free Wi-Fi,LINK-000056,07/26/2017,3,Brooklyn,BK38,DUMBO-Vinegar Hill-Downtown Brooklyn-Boerum Hill,33,11217,302,37,37,3000483,3001620000,3043,"(40.6876489803, -73.9804235504)"
11926,3,Free,LinkNYC - Citybridge,bk-14-145754,741 FLATBUSH AVENUE,40.6547043304,-73.9595678795,995468.668496,177805.41478,Outdoor Kiosk,"Tablet Internet -phone , Free 1 GB Wi-FI Service",Brooklyn,LinkNYC Free Wi-Fi,LINK-018081,04/05/2017,3,Brooklyn,BK60,Prospect Lefferts Gardens-Wingate,40,11226,314,796,796,3116192,3050640020,4474,"(40.6547043304, -73.9595678795)"
10575,3,Free,LinkNYC - Citybridge,bk-01-146091,178 BROADWAY,40.7099000002,-73.9624400005,994663.120894,197914.43821,Outdoor Kiosk,"Tablet Internet -phone , Free 1 GB Wi-FI Service",Brooklyn,LinkNYC Free Wi-Fi,LINK-021157,01/29/2019,3,Brooklyn,BK73,North Side-South Side,34,11211,301,549,549,3335296,3021320020,4800,"(40.7099000002, -73.9624400005)"
11911,3,Free,LinkNYC - Citybridge,bk-08-127047,632 NOSTRAND AVENUE,40.6767519999,-73.9499350005,998136.904629,185839.38198,Outdoor Kiosk,"Tablet Internet -phone , Free 1 GB Wi-FI Service",Brooklyn,LinkNYC Free Wi-Fi,LINK-011595,03/08/2017,3,Brooklyn,BK61,Crown Heights North,36,11216,308,315,315,3030331,3012120040,4071,"(40.6767519999, -73.9499350005)"
11936,3,Free,LinkNYC - Citybridge,bk-08-145991,658 Franklin Ave,40.6757450701,-73.9562115797,996396.106273,185471.59597,Outdoor Kiosk,"Tablet Internet -phone , Free 1 GB Wi-FI Service",Brooklyn,LinkNYC Free Wi-Fi,LINK-018097,03/12/2018,3,Brooklyn,BK61,Crown Heights North,35,11238,308,305,305,3028671,3011560050,4484,"(40.6757450701, -73.9562115797)"
11921,3,Free,LinkNYC - Citybridge,bk-02-145753,770 FULTON STREET,40.6845490504,-73.9702246199,992508.055322,188677.507537,Outdoor Kiosk,"Tablet Internet -phone , Free 1 GB Wi-FI Service",Brooklyn,LinkNYC Free Wi-Fi,LINK-018064,03/24/2017,3,Brooklyn,BK68,Fort Greene,35,11238,302,179,179,3321980,3020070010,4469,"(40.6845490504, -73.9702246199)"
12060,3,Free,LinkNYC - Citybridge,bk-01-126659,4 PUERTO RICO AVENUE,40.7009900003,-73.9420899997,1000307.0932,194671.333148,Outdoor Kiosk,"Tablet Internet -phone , Free 1 GB Wi-FI Service",Brooklyn,LinkNYC Free Wi-Fi,LINK-000001,04/04/2018,3,Brooklyn,BK90,East Williamsburg,34,11206,301,491,491,3326061,3031270000,3015,"(40.7009900003, -73.9420899997)"
12629,3,Free,LinkNYC - Citybridge,bk-03-126644,1803 FULTON STREET,40.6792320002,-73.9270980001,1004470.62162,186747.363104,Outdoor Kiosk,"Tablet Internet -phone , Free 1 GB Wi-FI Service",Brooklyn,LinkNYC Free Wi-Fi,LINK-002342,11/09/2016,3,Brooklyn,BK61,Crown Heights North,36,11233,303,381,381,3047930,3016950050,3629,"(40.6792320002, -73.9270980001)"
11056,3,Free,LinkNYC - Citybridge,bk-08-127037,794 PROSPECT PLACE,40.6742659996,-73.9502339997,998054.483534,184933.613778,Outdoor Kiosk,"Tablet Internet -phone , Free 1 GB Wi-FI Service",Brooklyn,LinkNYC Free Wi-Fi,LINK-013095,03/03/2017,3,Brooklyn,BK61,Crown Heights North,36,11216,308,317,317,3031210,3012330040,4253,"(40.6742659996, -73.9502339997)"
10314,3,Free,LinkNYC - Citybridge,bk-08-145908,888 Pacific Street,40.6802380502,-73.9645107198,994093.4137,187107.475901,Outdoor Kiosk,"Tablet Internet -phone , Free 1 GB Wi-FI Service",Brooklyn,LinkNYC Free Wi-Fi,LINK-021688,01/05/2018,3,Brooklyn,BK64,Prospect Heights,35,11238,308,203,203,3027680,3011310010,4719,"(40.6802380502, -73.9645107198)"
9840,3,Free,LinkNYC - Citybridge,bk-06-145905,220 SMITH STREET,40.6843037398,-73.9921844995,986417.598671,188586.826944,Outdoor Kiosk,"Tablet Internet -phone , Free 1 GB Wi-FI Service",Brooklyn,LinkNYC Free Wi-Fi,LINK-020658,09/18/2017,3,Brooklyn,BK38,DUMBO-Vinegar Hill-Downtown Brooklyn-Boerum Hill,33,11201,306,69,69,3336068,3004020050,4617,"(40.6843037398, -73.9921844995)"
10264,3,Free,LinkNYC - Citybridge,bk-01-146006,175 GRAND STREET,40.7144977101,-73.9610954989,995035.126056,199589.685844,Outdoor Kiosk,"Tablet Internet -phone , Free 1 GB Wi-FI Service",Brooklyn,LinkNYC Free Wi-Fi,LINK-021233,02/01/2018,3,Brooklyn,BK73,North Side-South Side,34,11211,301,553,553,3062647,3023810040,4669,"(40.7144977101, -73.9610954989)"
10299,3,Free,LinkNYC - Citybridge,bk-06-145909,548 4th AVENUE,40.666904,-73.9917889996,986527.883228,182247.613573,Outdoor Kiosk,"Tablet Internet -phone , Free 1 GB Wi-FI Service",Brooklyn,LinkNYC Free Wi-Fi,LINK-021519,01/05/2018,3,Brooklyn,BK37,Park Slope-Gowanus,39,11215,306,117,117,3398113,3010400050,4704,"(40.666904, -73.9917889996)"
12082,3,Free,LinkNYC - Citybridge,bk-02-125833,46 3Rd Ave,40.6852183298,-73.9808665896,989556.504139,188920.521487,Outdoor Kiosk,"Tablet Internet -phone , Free 1 GB Wi-FI Service",Brooklyn,LinkNYC Free Wi-Fi,LINK-000046,01/08/2018,3,Brooklyn,BK38,DUMBO-Vinegar Hill-Downtown Brooklyn-Boerum Hill,33,11217,302,39,39,3000981,3001850030,3037,"(40.6852183298, -73.9808665896)"
10339,3,Free,LinkNYC - Citybridge,bk-01-146013,115 NORTH 6 STREET,40.7181870001,-73.9596884103,995424.581313,200933.983024,Outdoor Kiosk,"Tablet Internet -phone , Free 1 GB Wi-FI Service",Brooklyn,LinkNYC Free Wi-Fi,LINK-022296,02/01/2018,3,Brooklyn,BK73,North Side-South Side,33,11249,301,555,555,3062058,3023260030,4744,"(40.7181870001, -73.9596884103)"
10267,3,Free,LinkNYC - Citybridge,bk-01-146018,43 NORTH 11 STREET,40.7225042401,-73.9592022004,995558.628618,202506.948382,Outdoor Kiosk,"Tablet Internet -phone , Free 1 GB Wi-FI Service",Brooklyn,LinkNYC Free Wi-Fi,LINK-021262,02/02/2018,3,Brooklyn,BK73,North Side-South Side,33,11249,301,557,557,3329916,3022880000,4672,"(40.7225042401, -73.9592022004)"
10250,3,Free,LinkNYC - Citybridge,bk-01-146014,126 NORTH 8 STREET,40.7192462196,-73.9586124806,995722.65224,201320.028184,Outdoor Kiosk,"Tablet Internet -phone , Free 1 GB Wi-FI Service",Brooklyn,LinkNYC Free Wi-Fi,LINK-021122,02/14/2018,3,Brooklyn,BK73,North Side-South Side,33,11249,301,557,557,3324819,3023180020,4655,"(40.7192462196, -73.9586124806)"
11174,3,Free,LinkNYC - Citybridge,bk-02-127256,320 SCHERMERHORN STREET,40.6872103399,-73.9817193997,989319.832368,189646.218198,Outdoor Kiosk,"Tablet Internet -phone , Free 1 GB Wi-FI Service",Brooklyn,LinkNYC Free Wi-Fi,LINK-013464,11/21/2017,3,Brooklyn,BK38,DUMBO-Vinegar Hill-Downtown Brooklyn-Boerum Hill,33,11217,302,39,39,3000573,3001730000,4299,"(40.6872103399, -73.9817193997)"
11127,3,Free,LinkNYC - Citybridge,bk-08-145832,737 NOSTRAND AVENUE,40.6721144898,-73.9502138998,998060.504519,184149.760687,Outdoor Kiosk,"Tablet Internet -phone , Free 1 GB Wi-FI Service",Brooklyn,LinkNYC Free Wi-Fi,LINK-019368,04/28/2017,3,Brooklyn,BK61,Crown Heights North,35,11216,308,317,317,3031977,3012480110,4570,"(40.6721144898, -73.9502138998)"
12279,3,Free,LinkNYC - Citybridge,bk-07-141113,776 4 AVENUE,40.6597454401,-73.9989856397,984531.432496,179639.443921,Outdoor Kiosk,"Tablet Internet -phone , Free 1 GB Wi-FI Service",Brooklyn,LinkNYC Free Wi-Fi,LINK-001046,04/13/2017,3,Brooklyn,BK32,Sunset Park West,38,11232,307,101,101,3009654,3006570040,3462,"(40.6597454401, -73.9989856397)"
12284,3,Free,LinkNYC - Citybridge,bk-09-126569,535 FLATBUSH AVE,40.6608519998,-73.9605809997,995186.55095,180045.053674,Outdoor Kiosk,"Tablet Internet -phone , Free 1 GB Wi-FI Service",Brooklyn,LinkNYC Free Wi-Fi,LINK-001078,03/07/2017,3,Brooklyn,BK60,Prospect Lefferts Gardens-Wingate,40,11225,309,798,798,3114678,3050280010,3467,"(40.6608519998, -73.9605809997)"
12634,3,Free,LinkNYC - Citybridge,bk-09-126619,856 FRANKLIN AVE,40.6687999996,-73.9587170006,995702.340929,182940.971766,Outdoor Kiosk,"Tablet Internet -phone , Free 1 GB Wi-FI Service",Brooklyn,LinkNYC Free Wi-Fi,LINK-002455,12/05/2016,3,Brooklyn,BK63,Crown Heights South,35,11225,309,213,213,3029704,3011880040,3634,"(40.6687999996, -73.9587170006)"
12072,3,Free,LinkNYC - Citybridge,bk-08-125716,271 FLATBUSH AVENUE,40.6795679997,-73.9740600005,991444.8688,186862.42849,Outdoor Kiosk,"Tablet Internet -phone , Free 1 GB Wi-FI Service",Brooklyn,LinkNYC Free Wi-Fi,LINK-000034,01/05/2018,3,Brooklyn,BK64,Prospect Heights,35,11217,308,161,161,3250935,3011507500,3027,"(40.6795679997, -73.9740600005)"
10337,3,Free,LinkNYC - Citybridge,bk-14-145929,43 SNYDER AVENUE,40.6486891904,-73.9559619698,996470.299038,175614.415881,Outdoor Kiosk,"Tablet Internet -phone , Free 1 GB Wi-FI Service",Brooklyn,LinkNYC Free Wi-Fi,LINK-022141,10/12/2017,3,Brooklyn,BK95,Erasmus,40,11226,314,794,794,3117230,3051030080,4742,"(40.6486891904, -73.9559619698)"
10174,3,Free,LinkNYC - Citybridge,bk-02-145877,219 COURT STREET,40.6865713472,-73.9937850852,985973.623837,189412.946683,Outdoor Kiosk,"Tablet Internet -phone , Free 1 GB Wi-FI Service",Brooklyn,LinkNYC Free Wi-Fi,LINK-020781,11/21/2017,3,Brooklyn,BK38,DUMBO-Vinegar Hill-Downtown Brooklyn-Boerum Hill,33,11201,302,69,69,3006027,3003900000,4630,"(40.6865713472, -73.9937850852)"
9646,3,Free,LinkNYC - Citybridge,bk-01-146085,33 SOUTH 2 STREET,40.7147073403,-73.9665249699,993529.936153,199665.438645,Outdoor Kiosk,"Tablet Internet -phone , Free 1 GB Wi-FI Service",Brooklyn,LinkNYC Free Wi-Fi,LINK-021303,07/27/2018,3,Brooklyn,BK73,North Side-South Side,33,11249,301,551,551,3062886,3024030000,4845,"(40.7147073403, -73.9665249699)"
11257,3,Free,LinkNYC - Citybridge,bk-01-108949,709 BROADWAY,40.7014189996,-73.942908,1000080.17896,194827.481458,Outdoor Kiosk,"Tablet Internet -phone , Free 1 GB Wi-FI Service",Brooklyn,LinkNYC Free Wi-Fi,LINK-010447,08/02/2017,3,Brooklyn,BK90,East Williamsburg,34,11206,301,491,491,3331361,3031260010,3887,"(40.7014189996, -73.942908)"
11943,3,Free,LinkNYC - Citybridge,bk-03-145815,1373 FULTON STREET,40.6802726598,-73.9461549296,999184.622678,187122.681251,Outdoor Kiosk,"Tablet Internet -phone , Free 1 GB Wi-FI Service",Brooklyn,LinkNYC Free Wi-Fi,LINK-018109,07/28/2017,3,Brooklyn,BK75,Bedford,36,11216,303,269,269,3332255,3018540000,4491,"(40.6802726598, -73.9461549296)"
11074,3,Free,LinkNYC - Citybridge,bk-08-127039,695 NOSTRAND AVENUE,40.6735269999,-73.9500780003,998097.9093,184664.39975,Outdoor Kiosk,"Tablet Internet -phone , Free 1 GB Wi-FI Service",Brooklyn,LinkNYC Free Wi-Fi,LINK-013212,03/08/2017,3,Brooklyn,BK61,Crown Heights North,36,11216,308,317,317,3341625,3012340080,4271,"(40.6735269999, -73.9500780003)"
11919,3,Free,LinkNYC - Citybridge,bk-02-145811,322 LIVINGSTON STREET,40.6880387599,-73.9818721505,989277.406928,189948.026978,Outdoor Kiosk,"Tablet Internet -phone , Free 1 GB Wi-FI Service",Brooklyn,LinkNYC Free Wi-Fi,LINK-018057,04/28/2017,3,Brooklyn,BK38,DUMBO-Vinegar Hill-Downtown Brooklyn-Boerum Hill,33,11217,302,37,37,3000511,3001660030,4467,"(40.6880387599, -73.9818721505)"
10319,3,Free,LinkNYC - Citybridge,bk-05-145943,241 CRESCENT STREET,40.6835059996,-73.8720789999,1019728.8037,188321.995781,Outdoor Kiosk,"Tablet Internet -phone , Free 1 GB Wi-FI Service",Brooklyn,LinkNYC Free Wi-Fi,LINK-021919,11/21/2017,3,Brooklyn,BK83,Cypress Hills-City Line,37,11208,305,184,184,3092798,3041470030,4724,"(40.6835059996, -73.8720789999)"
11902,3,Free,LinkNYC - Citybridge,bk-01-126657,46 AVENUE OF PUERTO RICO,40.7022469998,-73.9422870004,1000252.16779,195129.259398,Outdoor Kiosk,"Tablet Internet -phone , Free 1 GB Wi-FI Service",Brooklyn,LinkNYC Free Wi-Fi,LINK-011512,08/02/2017,3,Brooklyn,BK90,East Williamsburg,34,11206,301,491,491,3071613,3031200010,4066,"(40.7022469998, -73.9422870004)"
11128,3,Free,LinkNYC - Citybridge,bk-09-145833,803 NOSTRAND AVENUE,40.6691674197,-73.9505022998,997981.109993,183076.014147,Outdoor Kiosk,"Tablet Internet -phone , Free 1 GB Wi-FI Service",Brooklyn,LinkNYC Free Wi-Fi,LINK-019369,05/19/2017,3,Brooklyn,BK63,Crown Heights South,35,11225,309,319,319,3032926,3012690000,4571,"(40.6691674197, -73.9505022998)"
10332,3,Free,LinkNYC - Citybridge,bk-16-145930,41 Sackman Street,40.67784547,-73.9059013106,1010350.4281,186247.81489,Outdoor Kiosk,"Tablet Internet -phone , Free 1 GB Wi-FI Service",Brooklyn,LinkNYC Free Wi-Fi,LINK-021933,01/05/2018,3,Brooklyn,BK79,Ocean Hill,37,11233,316,367,367,3042307,3015540000,4737,"(40.67784547, -73.9059013106)"
10304,3,Free,LinkNYC - Citybridge,bk-07-145901,875 4 AVENUE,40.656384,-74.0020530005,983680.369894,178414.782656,Outdoor Kiosk,"Tablet Internet -phone , Free 1 GB Wi-FI Service",Brooklyn,LinkNYC Free Wi-Fi,LINK-021526,09/05/2017,3,Brooklyn,BK32,Sunset Park West,38,11232,307,101,101,3010094,3006810000,4709,"(40.656384, -74.0020530005)"
12285,3,Free,LinkNYC - Citybridge,bk-09-126559,597 FLATBUSH AVE,40.6589110001,-73.9604260003,995229.874026,179337.9127,Outdoor Kiosk,"Tablet Internet -phone , Free 1 GB Wi-FI Service",Brooklyn,LinkNYC Free Wi-Fi,LINK-001080,05/11/2018,3,Brooklyn,BK60,Prospect Lefferts Gardens-Wingate,40,11225,309,798,798,3115044,3050340000,3468,"(40.6589110001, -73.9604260003)"
12023,3,Free,LinkNYC - Citybridge,bk-01-140788,326 AVENUE OF PUERTO RICO,40.7139130004,-73.944206,999717.376862,199379.189218,Outdoor Kiosk,"Tablet Internet -phone , Free 1 GB Wi-FI Service",Brooklyn,LinkNYC Free Wi-Fi,LINK-012117,04/28/2017,3,Brooklyn,BK90,East Williamsburg,34,11211,301,497,497,3322922,3027650000,4110,"(40.7139130004, -73.944206)"
11934,3,Free,LinkNYC - Citybridge,bk-08-145993,792 Franklin Ave,40.6713549996,-73.9577929997,995958.22001,183871.952844,Outdoor Kiosk,"Tablet Internet -phone , Free 1 GB Wi-FI Service",Brooklyn,LinkNYC Free Wi-Fi,LINK-018092,09/09/9999,3,Brooklyn,BK61,Crown Heights North,35,11238,308,217,217,3029659,3011810050,4482,"(40.6713549996, -73.9577929997)"
10175,3,Free,LinkNYC - Citybridge,bk-06-145918,281 COURT STREET,40.6845525198,-73.9947654703,985701.771035,188677.411409,Outdoor Kiosk,"Tablet Internet -phone , Free 1 GB Wi-FI Service",Brooklyn,LinkNYC Free Wi-Fi,LINK-020783,11/21/2017,3,Brooklyn,BK38,DUMBO-Vinegar Hill-Downtown Brooklyn-Boerum Hill,33,11231,306,69,69,3006482,3004080000,4631,"(40.6845525198, -73.9947654703)"
12638,3,Free,LinkNYC - Citybridge,bk-02-126838,275 LIVINGSTON ST,40.6884494303,-73.98247226,989110.948271,190097.612309,Outdoor Kiosk,"Tablet Internet -phone , Free 1 GB Wi-FI Service",Brooklyn,LinkNYC Free Wi-Fi,LINK-002526,01/30/2017,3,Brooklyn,BK38,DUMBO-Vinegar Hill-Downtown Brooklyn-Boerum Hill,33,11201,302,37,37,3000461,3001610000,3638,"(40.6884494303, -73.98247226)"
12887,3,Free,LinkNYC - Citybridge,bk-08-146008,437 PARK PLACE,40.6756590004,-73.9635529999,994359.743876,185439.30568,Outdoor Kiosk,"Tablet Internet -phone , Free 1 GB Wi-FI Service",Brooklyn,LinkNYC Free Wi-Fi,LINK-005782,02/12/2018,3,Brooklyn,BK64,Prospect Heights,35,11238,308,205,205,3028883,3011600050,3741,"(40.6756590004, -73.9635529999)"
9650,3,Free,LinkNYC - Citybridge,bk-01-146092,361 BROADWAY,40.7075810003,-73.9553164898,996638.471274,197070.483862,Outdoor Kiosk,"Tablet Internet -phone , Free 1 GB Wi-FI Service",Brooklyn,LinkNYC Free Wi-Fi,LINK-021241,01/22/2019,3,Brooklyn,BK73,North Side-South Side,34,11211,301,527,527,3331238,3024630040,4849,"(40.7075810003, -73.9553164898)"
12909,3,Free,LinkNYC - Citybridge,bk-08-125707,718 WASHINGTON AVE,40.6764075102,-73.9636101801,994343.769827,185712.002642,Outdoor Kiosk,"Tablet Internet -phone , Free 1 GB Wi-FI Service",Brooklyn,LinkNYC Free Wi-Fi,LINK-006140,01/05/2018,3,Brooklyn,BK64,Prospect Heights,35,11238,308,205,205,3028877,3011600040,3763,"(40.6764075102, -73.9636101801)"
10272,3,Free,LinkNYC - Citybridge,bk-01-146011,63 GUERNSEY STREET,40.7232900898,-73.9526030897,997387.662689,202794.178451,Outdoor Kiosk,"Tablet Internet -phone , Free 1 GB Wi-FI Service",Brooklyn,LinkNYC Free Wi-Fi,LINK-021284,04/10/2018,3,Brooklyn,BK76,Greenpoint,33,11222,301,569,569,3065960,3026430030,4677,"(40.7232900898, -73.9526030897)"
11924,3,Free,LinkNYC - Citybridge,bk-02-145793,464 GRAND AVENUE,40.6821995703,-73.9616482003,994887.057782,187822.44888,Outdoor Kiosk,"Tablet Internet -phone , Free 1 GB Wi-FI Service",Brooklyn,LinkNYC Free Wi-Fi,LINK-018071,05/19/2017,3,Brooklyn,BK69,Clinton Hill,35,11238,302,201,201,3057641,3020140030,4472,"(40.6821995703, -73.9616482003)"
10306,3,Free,LinkNYC - Citybridge,bk-07-145865,941 4 AVENUE,40.6541332296,-74.0044037595,983028.081828,177594.788561,Outdoor Kiosk,"Tablet Internet -phone , Free 1 GB Wi-FI Service",Brooklyn,LinkNYC Free Wi-Fi,LINK-021528,08/23/2017,3,Brooklyn,BK32,Sunset Park West,38,11232,307,84,84,3010335,3006970010,4711,"(40.6541332296, -74.0044037595)"
10257,3,Free,LinkNYC - Citybridge,bk-01-146002,203 BERRY STREET,40.7164305696,-73.9612865298,994981.857133,200293.861929,Outdoor Kiosk,"Tablet Internet -phone , Free 1 GB Wi-FI Service",Brooklyn,LinkNYC Free Wi-Fi,LINK-021162,02/01/2018,3,Brooklyn,BK73,North Side-South Side,34,11249,301,553,553,3398167,3023517500,4662,"(40.7164305696, -73.9612865298)"
10259,3,Free,LinkNYC - Citybridge,bk-08-145903,550 Vanderbilt Ave,40.6804256203,-73.9679993802,993125.763405,187175.440332,Outdoor Kiosk,"Tablet Internet -phone , Free 1 GB Wi-FI Service",Brooklyn,LinkNYC Free Wi-Fi,LINK-021224,01/08/2018,3,Brooklyn,BK64,Prospect Heights,35,11238,308,163,163,3418187,3011297500,4664,"(40.6804256203, -73.9679993802)"
11124,3,Free,LinkNYC - Citybridge,bk-03-145830,517 NOSTRAND AVENUE,40.6794854302,-73.9495224996,998250.749218,186835.314699,Outdoor Kiosk,"Tablet Internet -phone , Free 1 GB Wi-FI Service",Brooklyn,LinkNYC Free Wi-Fi,LINK-019363,04/28/2017,3,Brooklyn,BK61,Crown Heights North,36,11216,303,247,247,3000000,3018670020,4567,"(40.6794854302, -73.9495224996)"
12087,3,Free,LinkNYC - Citybridge,bk-02-127278,126 SMITH STREET,40.6874965997,-73.9900226196,987017.05515,189750.139578,Outdoor Kiosk,"Tablet Internet -phone , Free 1 GB Wi-FI Service",Brooklyn,LinkNYC Free Wi-Fi,LINK-000054,09/18/2017,3,Brooklyn,BK38,DUMBO-Vinegar Hill-Downtown Brooklyn-Boerum Hill,33,11201,302,43,43,3001047,3001870030,3042,"(40.6874965997, -73.9900226196)"
11952,3,Free,LinkNYC - Citybridge,bk-16-145761,2069 FULTON STREET,40.6783118499,-73.9102526605,1009143.30781,186416.463831,Outdoor Kiosk,"Tablet Internet -phone , Free 1 GB Wi-FI Service",Brooklyn,LinkNYC Free Wi-Fi,LINK-018134,04/20/2017,3,Brooklyn,BK79,Ocean Hill,37,11233,316,369,369,3000000,3015420010,4500,"(40.6783118499, -73.9102526605)"
11930,3,Free,LinkNYC - Citybridge,bk-14-145814,1016 FLATBUSH AVENUE,40.6461791804,-73.9582034701,995848.73204,174699.645729,Outdoor Kiosk,"Tablet Internet -phone , Free 1 GB Wi-FI Service",Brooklyn,LinkNYC Free Wi-Fi,LINK-018086,09/15/2017,3,Brooklyn,BK42,Flatbush,40,11226,314,510,510,3117654,3051250050,4478,"(40.6461791804, -73.9582034701)"
11032,3,Free,LinkNYC - Citybridge,bk-17-127012,1380 NOSTRAND AVENUE,40.6527710002,-73.9498700006,998159.93411,177102.440136,Outdoor Kiosk,"Tablet Internet -phone , Free 1 GB Wi-FI Service",Brooklyn,LinkNYC Free Wi-Fi,LINK-012825,06/09/2017,3,Brooklyn,BK60,Prospect Lefferts Gardens-Wingate,40,11226,317,820,820,3116689,3050850070,4229,"(40.6527710002, -73.9498700006)"
10291,3,Free,LinkNYC - Citybridge,bk-06-145896,667 WARREN STREET,40.6803229996,-73.9780340004,990342.54817,187137.195329,Outdoor Kiosk,"Tablet Internet -phone , Free 1 GB Wi-FI Service",Brooklyn,LinkNYC Free Wi-Fi,LINK-021505,09/05/2017,3,Brooklyn,BK37,Park Slope-Gowanus,39,11217,306,129,129,3018671,3009340050,4696,"(40.6803229996, -73.9780340004)"
12627,3,Free,LinkNYC - Citybridge,bk-03-145808,1422 FULTON STREET,40.6800149999,-73.943843,999825.926185,187029.210965,Outdoor Kiosk,"Tablet Internet -phone , Free 1 GB Wi-FI Service",Brooklyn,LinkNYC Free Wi-Fi,LINK-002337,06/12/2017,3,Brooklyn,BK61,Crown Heights North,36,11216,303,271,271,3251519,3018630010,3627,"(40.6800149999, -73.943843)"
10329,3,Free,LinkNYC - Citybridge,bk-05-145945,2493 FULTON STREET,40.6775400004,-73.9019513697,1011446.15885,186137.725215,Outdoor Kiosk,"Tablet Internet -phone , Free 1 GB Wi-FI Service",Brooklyn,LinkNYC Free Wi-Fi,LINK-021930,01/08/2018,3,Brooklyn,BK79,Ocean Hill,37,11207,305,367,367,3339272,3015470030,4734,"(40.6775400004, -73.9019513697)"
12642,3,Free,LinkNYC - Citybridge,bk-06-125912,500 5 AVENUE,40.6673049996,-73.9879789994,987584.827636,182393.831128,Outdoor Kiosk,"Tablet Internet -phone , Free 1 GB Wi-FI Service",Brooklyn,LinkNYC Free Wi-Fi,LINK-002668,04/03/2017,3,Brooklyn,BK37,Park Slope-Gowanus,39,11215,306,139,139,3023160,3010280040,3642,"(40.6673049996, -73.9879789994)"
10295,3,Free,LinkNYC - Citybridge,bk-06-145894,337 5 AVENUE,40.6722418096,-73.9836268501,988791.850813,184192.646756,Outdoor Kiosk,"Tablet Internet -phone , Free 1 GB Wi-FI Service",Brooklyn,LinkNYC Free Wi-Fi,LINK-021512,10/27/2017,3,Brooklyn,BK37,Park Slope-Gowanus,39,11215,306,135,135,3021058,3009820000,4700,"(40.6722418096, -73.9836268501)"
9907,3,Free,LinkNYC - Citybridge,bk-01-145860,308 Driggs Avenue,40.722328,-73.9496710001,998200.592166,202444.112878,Outdoor Kiosk,"Tablet Internet -phone , Free 1 GB Wi-FI Service",Brooklyn,LinkNYC Free Wi-Fi,LINK-020764,09/09/9999,3,Brooklyn,BK76,Greenpoint,33,11222,301,569,569,3066749,3026800030,4623,"(40.722328, -73.9496710001)"
10263,3,Free,LinkNYC - Citybridge,bk-01-145988,561-571 METROPOLITAN AVENUE,40.7141296403,-73.95028299,998032.651229,199457.103104,Outdoor Kiosk,"Tablet Internet -phone , Free 1 GB Wi-FI Service",Brooklyn,LinkNYC Free Wi-Fi,LINK-021230,06/13/2018,3,Brooklyn,BK90,East Williamsburg,34,11211,301,501,501,3068656,3027560040,4668,"(40.7141296403, -73.95028299)"
10173,3,Free,LinkNYC - Citybridge,bk-01-145855,103 SEIGEL STREET,40.7044959999,-73.9429890002,1000056.99003,195948.509728,Outdoor Kiosk,"Tablet Internet -phone , Free 1 GB Wi-FI Service",Brooklyn,LinkNYC Free Wi-Fi,LINK-020776,04/26/2018,3,Brooklyn,BK90,East Williamsburg,34,11206,301,491,491,3071403,3030880020,4629,"(40.7044959999, -73.9429890002)"
11948,3,Free,LinkNYC - Citybridge,bk-03-145749,1628 FULTON STREET,40.6795606797,-73.9354997296,1002140.16992,186865.282815,Outdoor Kiosk,"Tablet Internet -phone , Free 1 GB Wi-FI Service",Brooklyn,LinkNYC Free Wi-Fi,LINK-018119,03/20/2017,3,Brooklyn,BK61,Crown Heights North,36,11213,303,271,271,3000000,3016990040,4496,"(40.6795606797, -73.9354997296)"
9660,3,Free,LinkNYC - Citybridge,bk-07-125840,4201 4 AVENUE,40.6503901703,-74.00828534,981950.924534,176231.166616,Outdoor Kiosk,"Tablet Internet -phone , Free 1 GB Wi-FI Service",Brooklyn,LinkNYC Free Wi-Fi,LINK-011802,06/25/2018,3,Brooklyn,BK32,Sunset Park West,38,11232,307,82,82,3010833,3007240000,4859,"(40.6503901703, -74.00828534)"
12076,3,Free,LinkNYC - Citybridge,bk-06-125910,462 5 AVENUE,40.6685332303,-73.9869562905,987868.477659,182841.350903,Outdoor Kiosk,"Tablet Internet -phone , Free 1 GB Wi-FI Service",Brooklyn,LinkNYC Free Wi-Fi,LINK-000040,04/03/2017,3,Brooklyn,BK37,Park Slope-Gowanus,39,11215,306,139,139,3000000,3010160040,3031,"(40.6685332303, -73.9869562905)"
11993,3,Free,LinkNYC - Citybridge,bk-14-126532,1133 FLATBUSH AVENUE,40.6428750299,-73.9575743895,996023.887858,173495.937507,Outdoor Kiosk,"Tablet Internet -phone , Free 1 GB Wi-FI Service",Brooklyn,LinkNYC Free Wi-Fi,LINK-011704,02/14/2018,3,Brooklyn,BK95,Erasmus,40,11226,314,792,792,3396547,3051650060,4080,"(40.6428750299, -73.9575743895)"
12349,3,Free,LinkNYC - Citybridge,bk-02-134976,519 FULTON ST,40.6905880002,-73.9844810002,988553.728585,190876.650777,Outdoor Kiosk,"Tablet Internet -phone , Free 1 GB Wi-FI Service",Brooklyn,LinkNYC Free Wi-Fi,LINK-001032,03/07/2017,3,Brooklyn,BK38,DUMBO-Vinegar Hill-Downtown Brooklyn-Boerum Hill,33,11201,302,15,15,3413889,3001457500,3459,"(40.6905880002, -73.9844810002)"
10325,3,Free,LinkNYC - Citybridge,bk-05-145932,62 PENNSYLVANIA AVENUE,40.6764746696,-73.8971674505,1012773.54957,185751.116409,Outdoor Kiosk,"Tablet Internet -phone , Free 1 GB Wi-FI Service",Brooklyn,LinkNYC Free Wi-Fi,LINK-021926,02/06/2018,3,Brooklyn,BK82,East New York,37,11207,305,198,198,3083275,3036690030,4730,"(40.6764746696, -73.8971674505)"
11493,3,Free,LinkNYC - Citybridge,bk-08-126832,777 NOSTRAND AVENUE,40.6706468699,-73.95035244,998022.376971,183615.043253,Outdoor Kiosk,"Tablet Internet -phone , Free 1 GB Wi-FI Service",Brooklyn,LinkNYC Free Wi-Fi,LINK-014052,02/23/2017,3,Brooklyn,BK61,Crown Heights North,35,11216,308,317,317,3032653,3012620000,4388,"(40.6706468699, -73.95035244)"
11051,3,Free,LinkNYC - Citybridge,bk-09-126475,340 EMPIRE BOULEVARD,40.6638268899,-73.9507746506,997906.650824,181130.26607,Outdoor Kiosk,"Tablet Internet -phone , Free 1 GB Wi-FI Service",Brooklyn,LinkNYC Free Wi-Fi,LINK-013023,04/13/2017,3,Brooklyn,BK60,Prospect Lefferts Gardens-Wingate,40,11225,309,329,329,3034835,3013160010,4248,"(40.6638268899, -73.9507746506)"
12278,3,Free,LinkNYC - Citybridge,bk-07-141621,784 4 AVENUE,40.6599019996,-73.9988219998,984576.833324,179696.483505,Outdoor Kiosk,"Tablet Internet -phone , Free 1 GB Wi-FI Service",Brooklyn,LinkNYC Free Wi-Fi,LINK-001045,04/13/2017,3,Brooklyn,BK32,Sunset Park West,38,11232,307,101,101,3009658,3006570040,3461,"(40.6599019996, -73.9988219998)"
11787,3,Free,LinkNYC - Citybridge,bk-06-108348,311 SMITH STREET,40.6813456401,-73.9940469403,985901.1312,187509.064992,Outdoor Kiosk,"Tablet Internet -phone , Free 1 GB Wi-FI Service",Brooklyn,LinkNYC Free Wi-Fi,LINK-014247,02/12/2018,3,Brooklyn,BK33,Carroll Gardens-Columbia Street-Red Hook,39,11231,306,75,75,3007265,3004360010,4407,"(40.6813456401, -73.9940469403)"
10256,3,Free,LinkNYC - Citybridge,bk-01-145998,7 NASSAU AVENUE,40.7225326303,-73.9546886905,996809.710433,202517.906694,Outdoor Kiosk,"Tablet Internet -phone , Free 1 GB Wi-FI Service",Brooklyn,LinkNYC Free Wi-Fi,LINK-021156,01/31/2018,3,Brooklyn,BK76,Greenpoint,33,11222,301,569,569,3337774,3026390010,4661,"(40.7225326303, -73.9546886905)"
10251,3,Free,LinkNYC - Citybridge,bk-01-146081,458 UNION AVENUE,40.7141908796,-73.9515524099,997680.72772,199479.217233,Outdoor Kiosk,"Tablet Internet -phone , Free 1 GB Wi-FI Service",Brooklyn,LinkNYC Free Wi-Fi,LINK-021123,06/13/2018,3,Brooklyn,BK90,East Williamsburg,34,11211,301,501,501,3068630,3027560000,4656,"(40.7141908796, -73.9515524099)"
10336,3,Free,LinkNYC - Citybridge,bk-17-145979,2606 Snyder Avenue,40.6487330002,-73.9524139996,997454.831518,175630.891898,Outdoor Kiosk,"Tablet Internet -phone , Free 1 GB Wi-FI Service",Brooklyn,LinkNYC Free Wi-Fi,LINK-022140,02/28/2018,3,Brooklyn,BK95,Erasmus,40,11226,317,794,794,3117383,3051100040,4741,"(40.6487330002, -73.9524139996)"
10268,3,Free,LinkNYC - Citybridge,bk-01-146010,145 WYTHE AVENUE,40.7194043316,-73.9604743139,995206.524663,201377.394867,Outdoor Kiosk,"Tablet Internet -phone , Free 1 GB Wi-FI Service",Brooklyn,LinkNYC Free Wi-Fi,LINK-021263,02/14/2018,3,Brooklyn,BK73,North Side-South Side,33,11249,301,555,555,3062048,3023260010,4673,"(40.7194043316, -73.9604743139)"
10300,3,Free,LinkNYC - Citybridge,bk-07-145887,615 4 AVENUE,40.6644060002,-73.9937149997,985993.64053,181337.477598,Outdoor Kiosk,"Tablet Internet -phone , Free 1 GB Wi-FI Service",Brooklyn,LinkNYC Free Wi-Fi,LINK-021520,08/15/2017,3,Brooklyn,BK37,Park Slope-Gowanus,38,11215,307,143,143,3008966,3006310000,4705,"(40.6644060002, -73.9937149997)"
10305,3,Free,LinkNYC - Citybridge,bk-07-145862,899 4 AVENUE,40.6554376004,-74.0030503197,983403.639476,178069.991023,Outdoor Kiosk,"Tablet Internet -phone , Free 1 GB Wi-FI Service",Brooklyn,LinkNYC Free Wi-Fi,LINK-021527,08/22/2017,3,Brooklyn,BK32,Sunset Park West,38,11232,307,84,84,3010172,3006850000,4710,"(40.6554376004, -74.0030503197)"
10315,3,Free,LinkNYC - Citybridge,bk-08-145920,751 Bergen Street,40.6785400002,-73.9637300005,994310.212479,186488.916114,Outdoor Kiosk,"Tablet Internet -phone , Free 1 GB Wi-FI Service",Brooklyn,LinkNYC Free Wi-Fi,LINK-021689,01/05/2018,3,Brooklyn,BK64,Prospect Heights,35,11238,308,203,203,3027979,3011400060,4720,"(40.6785400002, -73.9637300005)"
11175,3,Free,LinkNYC - Citybridge,bk-01-126207,268 BROADWAY,40.7087798504,-73.9591825697,995566.399927,197506.73791,Outdoor Kiosk,"Tablet Internet -phone , Free 1 GB Wi-FI Service",Brooklyn,LinkNYC Free Wi-Fi,LINK-013485,01/31/2018,3,Brooklyn,BK73,North Side-South Side,33,11211,301,525,525,3334852,3021410000,4300,"(40.7087798504, -73.9591825697)"
12281,3,Free,LinkNYC - Citybridge,bk-07-125846,968 4 AVENUE,40.6537111097,-74.00525819,982790.992407,177441.011638,Outdoor Kiosk,"Tablet Internet -phone , Free 1 GB Wi-FI Service",Brooklyn,LinkNYC Free Wi-Fi,LINK-001049,06/09/2017,3,Brooklyn,BK32,Sunset Park West,38,11232,307,84,84,3010388,3007000030,3464,"(40.6537111097, -74.00525819)"
12633,3,Free,LinkNYC - Citybridge,bk-05-114742,3418 FULTON STREET,40.684317,-73.8696359995,1020405.928,188618.465333,Outdoor Kiosk,"Tablet Internet -phone , Free 1 GB Wi-FI Service",Brooklyn,LinkNYC Free Wi-Fi,LINK-002351,03/12/2018,3,Brooklyn,BK83,Cypress Hills-City Line,37,11208,305,184,184,3092916,3041490030,3633,"(40.684317, -73.8696359995)"
11920,3,Free,LinkNYC - Citybridge,bk-02-145752,710 FULTON STREET,40.6857869996,-73.9733200004,991649.429415,189128.251715,Outdoor Kiosk,"Tablet Internet -phone , Free 1 GB Wi-FI Service",Brooklyn,LinkNYC Free Wi-Fi,LINK-018062,03/24/2017,3,Brooklyn,BK68,Fort Greene,35,11217,302,181,181,3059289,3021150010,4468,"(40.6857869996, -73.9733200004)"
11925,3,Free,LinkNYC - Citybridge,bk-09-145751,897 FRANKLIN AVENUE,40.6681559998,-73.9588009997,995679.149046,182706.333456,Outdoor Kiosk,"Tablet Internet -phone , Free 1 GB Wi-FI Service",Brooklyn,LinkNYC Free Wi-Fi,LINK-018080,04/20/2017,3,Brooklyn,BK63,Crown Heights South,35,11225,309,325,325,3033446,3012800000,4473,"(40.6681559998, -73.9588009997)"
11940,3,Free,LinkNYC - Citybridge,bk-03-145796,540 FRANKLIN AVENUE,40.6809512605,-73.9557035628,996536.061702,187368.431415,Outdoor Kiosk,"Tablet Internet -phone , Free 1 GB Wi-FI Service",Brooklyn,LinkNYC Free Wi-Fi,LINK-018102,03/24/2017,3,Brooklyn,BK69,Clinton Hill,36,11238,303,227,227,3339279,3020160040,4488,"(40.6809512605, -73.9557035628)"
11944,3,Free,LinkNYC - Citybridge,bk-03-145756,1407 FULTON STREET,40.6801973802,-73.9449029294,999531.89823,187095.470675,Outdoor Kiosk,"Tablet Internet -phone , Free 1 GB Wi-FI Service",Brooklyn,LinkNYC Free Wi-Fi,LINK-018110,03/20/2017,3,Brooklyn,BK75,Bedford,36,11216,303,269,269,3338749,3018540060,4492,"(40.6801973802, -73.9449029294)"
12063,3,Free,LinkNYC - Citybridge,bk-01-143982,32 GRAHAM AVENUE,40.7019303441,-73.9422392381,1000265.48699,195013.901033,Outdoor Kiosk,"Tablet Internet -phone , Free 1 GB Wi-FI Service",Brooklyn,LinkNYC Free Wi-Fi,LINK-000004,08/02/2017,3,Brooklyn,BK90,East Williamsburg,34,11206,301,491,491,3071609,3031200000,3018,"(40.7019303441, -73.9422392381)"
12066,3,Free,LinkNYC - Citybridge,bk-17-126527,1339 FLATBUSH AVENUE,40.6385596088,-73.9536032378,997126.788211,171924.271359,Outdoor Kiosk,"Tablet Internet -phone , Free 1 GB Wi-FI Service",Brooklyn,LinkNYC Free Wi-Fi,LINK-000022,05/11/2018,3,Brooklyn,BK95,Erasmus,45,11226,317,790,790,3120360,3052110060,3021,"(40.6385596088, -73.9536032378)"
12083,3,Free,LinkNYC - Citybridge,bk-02-108355,402 Atlantic Avenue,40.6868115694,-73.9849696135,988418.462452,189500.763109,Outdoor Kiosk,"Tablet Internet -phone , Free 1 GB Wi-FI Service",Brooklyn,LinkNYC Free Wi-Fi,LINK-000047,02/01/2018,3,Brooklyn,BK38,DUMBO-Vinegar Hill-Downtown Brooklyn-Boerum Hill,33,11217,302,41,41,3255607,3001837500,3038,"(40.6868115694, -73.9849696135)"
