the_geom,BoroCode,BoroName,BoroCD,CounDist,AssemDist,StSenDist,CongDist,SiteID,BenchID,Category,BenchType,Installati,Address,GeocodeAdd,Street,CrossStree,Borough,ComDist,BusRoute,BID,Latitude,Longitude,FEMAFldz,FEMAFldT,HrcEvac
POINT (-73.84677860407454 40.6856577435641),4,Queens,409,32,38,15,7,3946,339,Bus Route,backed 2,11/13/2017,97-27 Woodhaven Blvd,97-27 Woodhaven Blvd,Woodhaven Blvd,101st Avenue & 97th Avenue,Queens,0,Q52,Not Applicable,40.685666,-73.84678,X,AREA OF MINIMAL FLOOD HAZARD,6
POINT (-73.83050360793445 40.71367773686963),4,Queens,409,29,28,14,6,2366,1123,Senior Center,backed,02/10/2014,80-02 Kew Gardens Road,80-02 Kew Gardens Road,80th Road,Queens Blvd & 80th Road,Queens,409,Not Applicable,Not Applicable,40.713686,-73.830505,X,AREA OF MINIMAL FLOOD HAZARD,
POINT (-73.70139064724336 40.73881272795706),4,Queens,413,23,33,11,3,2019,1077,General,backless,10/29/2013,267-17 Hillside Avenue,267-17 Hillside Avenue,Hillside Avenue,267th & 268th Street,Queens,413,Q43,Not Applicable,40.738821,-73.701392,X,AREA OF MINIMAL FLOOD HAZARD,
POINT (-73.78379661918026 40.776372723321614),4,Queens,407,19,26,11,3,3071,1837,General,backed,06/02/2015,208-11 26th Avenue,208-11 26th Avenue,208-11 26th Avenue,Celarview Expwy & Corporal Kennedy Street,Queens,407,Not Applicable,Not Applicable,40.776381,-73.783798,X,AREA OF MINIMAL FLOOD HAZARD,
POINT (-73.90714026140618 40.77306814059568),4,Queens,401,22,36,13,14,3382,2460,Municipal Facilities,backed,12/03/2016,22-11 38th Street,22-11 38th Street,38th Street,38th Street & Steinway Street,Queens,401,Not Applicable,Not Applicable,40.7730681406,-73.9071402614,X,AREA OF MINIMAL FLOOD HAZARD,
POINT (-73.87812059140951 40.736393734684995),4,Queens,404,25,35,16,6,664,426,General,backless,02/14/2013,87-09 Grand Avenue,87-09 Grand Avenue,Grand Avenue,Queens Boulevard & Seabury Street,Queens,404,Q58,Not Applicable,40.736402,-73.878122,X,AREA OF MINIMAL FLOOD HAZARD,6
POINT (-73.7388326347776 40.75553672555852),4,Queens,411,23,25,11,3,1947,576,General,backed,07/03/2013,242-02 61st Avenue,242-02 61st Avenue,Douglaston Parkway,61st Avenue & 65th Avenue,Queens,411,Q30,Not Applicable,40.755545,-73.738834,X,AREA OF MINIMAL FLOOD HAZARD,
POINT (-73.82609060733185 40.75149972937553),4,Queens,407,20,25,16,6,3359,330,General,backed,07/13/2016,43-50 Main Street,43-50 Main Street,Main Street,Elder Avenue & Peck Avenue,Queens,407,Not Applicable,Not Applicable,40.751508,-73.826092,X,AREA OF MINIMAL FLOOD HAZARD,5
POINT (-73.75265263363269 40.69827073733982),4,Queens,412,27,33,14,5,3321,202,Municipal Facilities,backed,07/06/2016,201-15 115th Avenue,201-15 115th Avenue,115th Avenue,201st Street & 202nd Street,Queens,412,Not Applicable,Not Applicable,40.698279,-73.752654,X,AREA OF MINIMAL FLOOD HAZARD,
POINT (-73.75318163904649 40.60298875595709),4,Queens,414,31,23,10,5,2446,1852,Plaza,backed,12/09/2015,10-31 Beach 20th Street,10-31 Beach 20th Street,Plaza,Beach 20th & Beach 21st Street,Queens,414,Not Applicable,Not Applicable,40.602997,-73.753183,X,AREA OF MINIMAL FLOOD HAZARD,1
POINT (-73.71913063186288 40.74327903962931),4,Queens,413,23,24,11,3,2387,970,General,backed,05/07/2014,251-15 Union Turnpike,251-15 Union Turnpike,252nd Street,"Union Turnpike, 80th Avenue & 251st Street",Queens,413,Not Applicable,Not Applicable,40.7432790396,-73.7191306319,X,AREA OF MINIMAL FLOOD HAZARD,
POINT (-73.92164374163025 40.7634723205554),4,Queens,401,22,36,12,12,1808,527,General,backed 2,06/11/2013,33-21 31st Avenue,33-21 31st Avenue,31st Avenue,34th Street & 33rd Street,Queens,401,Not Applicable,Not Applicable,40.7634723206,-73.9216437416,X,AREA OF MINIMAL FLOOD HAZARD,
POINT (-73.77942562350887 40.71369273538245),4,Queens,412,27,29,11,5,3677,104,Senior Safety,backed 2,05/13/2017,182-46 Hillside Avenue,182-46 Hillside Avenue,Hillside Avenue,182nd Place & 183rd Street,Queens,412,Not Applicable,Not Applicable,40.713701,-73.779427,X,AREA OF MINIMAL FLOOD HAZARD,
POINT (-73.92907457462115 40.74350073458311),4,Queens,402,26,37,12,14,1937,661,General,backed,07/03/2013,45-30 36th Street,45-30 36th Street,36th Street,Queens Blvd & 47th Avenue,Queens,402,Not Applicable,Not Applicable,40.743509,-73.929076,X,AREA OF MINIMAL FLOOD HAZARD,
POINT (-73.8443546029465 40.721613736037995),4,Queens,406,29,28,16,6,1655,2030,Senior Center,backless,03/05/2013,107-55 Queens Boulevard,107-55 Queens Blvd,Queens Blvd,71st Avenue & 70th Road,Queens,406,Q60,Not Applicable,40.721622,-73.844356,X,AREA OF MINIMAL FLOOD HAZARD,
POINT (-73.78044262160627 40.753202727550175),4,Queens,411,20,25,11,6,489,533,Bus Route,backless,04/12/2013,47-01 Francis Lewis Boulevard,47-01 Francis Lewis Boulevard,47th Avenue & Weeks Lane,Francis Lewis Boulevard,Queens,411,Q27,Not Applicable,40.753211,-73.780444,X,AREA OF MINIMAL FLOOD HAZARD,
POINT (-73.8625749634915 40.74953406636619),4,Queens,404,21,39,13,14,1342,0,Plaza,backed 2,06/01/2018,103-12 Roosevelt Avenue,103-12 Roosevelt Avenue,Roosevelt Avenue,104th and National Streets,Queens,404,Q20A,Not Applicable,40.7495340664,-73.8625749635,X,AREA OF MINIMAL FLOOD HAZARD,
POINT (-73.88048858851508 40.75607273112447),4,Queens,403,25,34,13,14,2002,792,General,backless,07/08/2013,87-15 Northern Boulevard,87-15 Northern Boulevard,Northern Boulevard,87th Street & 88th Street,Queens,403,Q66,Not Applicable,40.756081,-73.88049,X,AREA OF MINIMAL FLOOD HAZARD,
POINT (-73.86358059596542 40.728131735806514),4,Queens,406,29,28,16,6,1791,676,General,backed,06/19/2013,93-06 63rd Drive,93-06 63rd Drive,63rd Drive,Queens Boulevard & Wetherole Street,Queens,406,Not Applicable,Not Applicable,40.72814,-73.863582,X,AREA OF MINIMAL FLOOD HAZARD,
POINT (-73.86832959323891 40.75735273037386),4,Queens,403,21,35,13,14,2543,816,Municipal Facilities,backed,06/11/2014,100-01 Northern Boulevard,100-01 Northern Boulevard,Northern Bouleverd,100th Street and 101st Street,Queens,403,Not Applicable,Not Applicable,40.757361,-73.868331,X,AREA OF MINIMAL FLOOD HAZARD,
POINT (-73.88136158880542 40.75004073234791),4,Queens,403,21,34,13,14,3940,515,Senior Safety,backed,02/06/2018,8502 37th Avenue,8502 37th Avenue,37th Avenue,85th Street & 86th Street,Queens,403,Not Applicable,Not Applicable,40.750049,-73.881363,X,AREA OF MINIMAL FLOOD HAZARD,
POINT (-73.87157659341877 40.73383973455544),4,Queens,404,25,35,16,6,2613,1296,General,backed,08/04/2014,90-15 Queens Boulevard,90-15 Queens Boulevard,59th Avenue,57th & 59th Avenue,Queens,404,Not Applicable,Not Applicable,40.733848,-73.871578,X,AREA OF MINIMAL FLOOD HAZARD,6
POINT (-73.85200860179808 40.693341741821264),4,Queens,409,32,38,15,7,3943,340,Bus Route,backed 2,11/13/2017,87-14 Woodhaven Blvd,87-14 Woodhaven Blvd,Woodhaven Blvd,Jamaica Avenue & 88th Avenue,Queens,0,Q52,Not Applicable,40.69335,-73.85201,X,AREA OF MINIMAL FLOOD HAZARD,
POINT (-73.91836657592165 40.767658730060695),4,Queens,401,22,36,12,12,2303,1170,General,backed,12/12/2013,33-02 28th Avenue,33-02 28th Avenue,28th Avenue,33rd & 34th Street,Queens,401,Not Applicable,Not Applicable,40.767667,-73.918368,X,AREA OF MINIMAL FLOOD HAZARD,
POINT (-73.8625749634915 40.74953406636619),4,Queens,404,21,39,13,14,1342,399,Plaza,backless 2,06/01/2018,103-12 Roosevelt Avenue,103-12 Roosevelt Avenue,Roosevelt Avenue,104th and National Streets,Queens,404,Q20A,Not Applicable,40.7495340664,-73.8625749635,X,AREA OF MINIMAL FLOOD HAZARD,
POINT (-73.9184215776869 40.743123734345616),4,Queens,402,26,37,12,14,2516,1243,BID,backed,07/25/2014,46-21 Queens Boulevard,46-21 Queens Boulevard,Queens Boulevard,46th Street & 47th Street,Queens,402,Not Applicable,Sunnyside Shines,40.743132,-73.918423,X,AREA OF MINIMAL FLOOD HAZARD,
POINT (-73.9059705834822 40.71288374036419),4,Queens,405,30,37,15,6,1503,486,General,backless,06/12/2013,5802 Metropolitan Avenue,5802 Metropolitan Avenue,Metropolitan Avenue,Forest Avenue & 60th Street,Queens,405,Q54,Not Applicable,40.712892,-73.905972,X,AREA OF MINIMAL FLOOD HAZARD,
POINT (-73.93035657339631 40.7568687321989),4,Queens,401,26,30,12,12,4137,0,Other,backless,05/01/2018,30-13 36th Avenue,30-13 36th Avenue,31st Street,35th & 36th Avenue,Queens,401,Not Applicable,Not Applicable,40.756877,-73.930358,X,AREA OF MINIMAL FLOOD HAZARD,
POINT (-73.76766978796856 40.69238113233924),4,Queens,412,27,29,14,5,3619,121,General,backed 2,05/13/2017,179-24 Linden Blvd,179-24 Linden Blvd,Linden Blvd,Newburg Street & 180th Street,Queens,412,Not Applicable,Not Applicable,40.6923811323,-73.767669788,X,AREA OF MINIMAL FLOOD HAZARD,6
POINT (-73.89063858623742 40.74908173233256),4,Queens,403,25,39,13,14,4106,792,General,backed 2,02/07/2019,75-07 37th Avenue,75-07 37th Avenue,37th Avenue,75th Street & 76th Street,Queens,403,Not Applicable,Not Applicable,40.74909,-73.89064,X,AREA OF MINIMAL FLOOD HAZARD,
POINT (-73.93179557174751 40.765090731075055),4,Queens,401,22,36,12,12,2945,1781,Municipal Facilities,backless,11/06/2014,32-09 21st Street,21-10 Broadway,Broadway,21st Street & 23rd Street,Queens,401,Q104,Not Applicable,40.765099,-73.931797,X,0.2 PCT ANNUAL CHANCE FLOOD HAZARD,4
POINT (-73.81059861649621 40.67955174363187),4,Queens,410,28,31,10,5,3242,2380,Municipal Facilities,backed,05/18/2016,130-02 115th Avenue,130-02 115th Avenue,115th Avenue,130th Street & 131st Street,Queens,410,Not Applicable,Not Applicable,40.67956,-73.8106,X,AREA OF MINIMAL FLOOD HAZARD,
POINT (-73.8783485905863 40.739783734147736),4,Queens,404,25,35,16,6,3013,1440,General,backed,02/02/2015,84-20 Broadway,84-20 Broadway,Broadway,St. James Avenue and Corona Avenue,Queens,404,Not Applicable,Not Applicable,40.739792,-73.87835,X,AREA OF MINIMAL FLOOD HAZARD,6
POINT (-73.70281564613394 40.751867725267005),4,Queens,413,23,26,11,3,2213,1097,General,backed,12/09/2013,271-11 Union Turnpike,271-11 Union Turnpike,Union Turnpike,271st Street and Hewlett Street,Queens,413,Q46,Not Applicable,40.751876,-73.702817,X,AREA OF MINIMAL FLOOD HAZARD,
POINT (-73.91855557791779 40.74313973484147),4,Queens,402,26,37,12,14,1074,184,BID,backed,09/11/2012,46-01 Queens Blvd,46-01 Queens Blvd,46th Street,46th Street and Carolyn Avenue,Queens,402,Not Applicable,Sunnyside Shines,40.743148,-73.918557,X,AREA OF MINIMAL FLOOD HAZARD,
POINT (-73.75320563560811 40.65611774615174),4,Queens,413,31,31,10,5,3240,3240,Municipal Facilities,backed,05/25/2016,148-15 230th Street,148-15 230th Street,230th Street,148th Avenue & 149th Avenue,Queens,413,Not Applicable,Not Applicable,40.656126,-73.753207,X,AREA OF MINIMAL FLOOD HAZARD,3
POINT (-73.87364059195588 40.74872373230536),4,Queens,403,21,34,13,14,2492,1179,General,backed,06/10/2014,93-01 Roosevelt Avenue,93-01 Roosevelt Avenue,93rd Street,93rd Street and 94th Street,Queens,403,Not Applicable,Not Applicable,40.748732,-73.873642,X,AREA OF MINIMAL FLOOD HAZARD,
POINT (-73.93401657152123 40.77164572997865),4,Queens,401,22,37,12,12,4009,4444,Municipal Facilities,backed 2,02/13/2018,30-01 Vernon Blvd,30-01 Vernon Blvd,Vernon Blvd,Wellington Court & 30th Road,Queens,401,Not Applicable,Not Applicable,40.771654,-73.934018,X,0.2 PCT ANNUAL CHANCE FLOOD HAZARD,3
POINT (-73.82040361328791 40.67201374530561),4,Queens,410,32,31,10,5,587,131,Bus Route,backless,06/29/2012,133-55 Lefferts Boulevard,133-55 Lefferts Boulevard,Lefferts Boulevard,135th Avenues and 133rd Avenues,Queens,410,Q10,Not Applicable,40.672022,-73.820405,X,AREA OF MINIMAL FLOOD HAZARD,6
POINT (-73.8622025954163 40.75086273118623),4,Queens,403,21,39,13,14,2544,945,Municipal Facilities,backed,06/11/2014,38-23 104th Street,38-23 104th Street,104th Street,38th Avenue and 39th Avenue,Queens,403,Not Applicable,Not Applicable,40.750871,-73.862204,X,AREA OF MINIMAL FLOOD HAZARD,
POINT (-73.81522561379285 40.702474738977905),4,Queens,412,24,24,14,5,2071,709,Community Health Centers,backed,08/05/2013,137-50 Jamaica Avenue,137-50 Jamaica Avenue,138th Street,90th Avenue and Jamaica Avenue,Queens,412,Not Applicable,Not Applicable,40.702483,-73.815227,X,AREA OF MINIMAL FLOOD HAZARD,
POINT (-73.77892162547182 40.69170373975961),4,Queens,412,27,29,14,5,3616,101,General,backed 2,05/13/2017,171-10 Linden Blvd,171-10 Linden Blvd,Linden Blvd,Merrick Blvd & 172nd Street,Queens,412,Not Applicable,Not Applicable,40.691712,-73.778923,X,AREA OF MINIMAL FLOOD HAZARD,5
POINT (-73.74387963217843 40.76537772411083),4,Queens,411,19,26,11,3,3057,1890,General,backed,02/03/2015,242-24 Northern Boulevard,242-24 Northern Boulevard,Northern Boulevard,Douglaston Parkway and 243rd Street,Queens,411,Not Applicable,Not Applicable,40.765386,-73.743881,X,AREA OF MINIMAL FLOOD HAZARD,
POINT (-73.82561960654155 40.760693728236774),4,Queens,407,20,40,16,6,3807,203,Senior Safety,backed 2,06/21/2017,142-41 Roosevelt Avenue,142-41 Roosevelt Avenue,Bowne Street,Bowne Street & Union Street,Queens,407,Not Applicable,Not Applicable,40.760702,-73.825621,X,AREA OF MINIMAL FLOOD HAZARD,
POINT (-73.7399646371219 40.704917736141006),4,Queens,413,27,33,14,5,3324,1207,Municipal Facilities,backed,07/08/2016,112-18 Springfield Boulevard,112-18 Springfield Boulevard,Springfield Boulevard,112th Road & 112th Avenue,Queens,413,Not Applicable,Not Applicable,40.704926,-73.739966,X,AREA OF MINIMAL FLOOD HAZARD,
POINT (-73.91106357753016 40.77583272769586),4,Queens,401,22,36,12,14,3514,0,General,backed,11/30/2016,22-16 31st Street,22-16 31st Street,31st Street,Ditmars Blvd & 23rd Avenue,Queens,401,Not Applicable,Not Applicable,40.775841,-73.911065,X,AREA OF MINIMAL FLOOD HAZARD,
POINT (-73.80975261155477 40.76398972641037),4,Queens,407,20,40,16,6,2545,879,Municipal Facilities,backed,06/11/2014,155-06 Roosevelt Avenue,155-06 Roosevelt Avenue,Roosevelt Avenue,155th Street and 156th Street,Queens,407,Not Applicable,Not Applicable,40.763998,-73.809754,X,AREA OF MINIMAL FLOOD HAZARD,
POINT (-73.74221063675785 40.69577473756703),4,Queens,413,27,33,14,5,3622,414,General,backed 2,05/13/2017,217-20 Linden Blvd,217-20 Linden Blvd,Linden Blvd,Springfield Blvd & 219th Street,Queens,413,Not Applicable,Not Applicable,40.695783,-73.742212,X,AREA OF MINIMAL FLOOD HAZARD,
POINT (-73.86761459566355 40.722592736778836),4,Queens,405,30,30,15,6,4221,794,Bus Route,backless 2,01/29/2019,63-76 Woodhaven Blvd,63-76 Woodhaven Blvd,Woodhaven Blvd,Penelope Avenue & Fleet Court,Queens,405,Q52,Not Applicable,40.722601,-73.867616,X,AREA OF MINIMAL FLOOD HAZARD,
POINT (-73.84912005022689 40.7320249016044),4,Queens,406,29,27,16,6,1387,523,General,backed,06/11/2013,64-51 108th Street,64-51 108th Street,108th Street,64th Road & 65th Avenue,Queens,406,Not Applicable,Not Applicable,40.7320249016,-73.8491200502,X,AREA OF MINIMAL FLOOD HAZARD,
POINT (-73.7497974948695 40.768480734395595),4,Queens,411,19,26,11,3,2466,644,Plaza,backless,08/19/2014,23421 41st Avenue,23421 41st Avenue,41st Avenue,235th Street,Queens,411,Not Applicable,Not Applicable,40.7684807344,-73.7497974949,X,AREA OF MINIMAL FLOOD HAZARD,3
POINT (-73.91877057679729 40.75885073148869),4,Queens,401,26,30,12,12,829,206,General,backed,09/12/2012,40-20 Broadway,40-20 Broadway,Broadway,Steinway and 41st Streets,Queens,401,Not Applicable,Not Applicable,40.758859,-73.918772,X,AREA OF MINIMAL FLOOD HAZARD,
POINT (-73.75537763255473 40.70640673608759),4,Queens,412,27,33,14,5,1811,431,General,backed,02/20/2013,202-13 Hollis Avenue,202-13 Hollis Avenue,Hollis Avenue,202nd & 203rd Avenue,Queens,412,Q20,Not Applicable,40.706415,-73.755379,X,AREA OF MINIMAL FLOOD HAZARD,
POINT (-73.91850357731812 40.74416673459119),4,Queens,402,26,37,12,14,1086,315,BID,backed,02/13/2013,43-44 46th Street,43-44 46th Street,46th Street,Queens Blvd & 43rd Street,Queens,402,Not Applicable,Sunnyside Shines,40.744175,-73.918505,X,AREA OF MINIMAL FLOOD HAZARD,
POINT (-73.88236158892624 40.755874730538345),4,Queens,403,25,34,13,14,2000,699,General,backless,09/27/2013,85-13 Northern Boulevard,85-13 Northern Boulevard,Northern Boulevard,86th & 87th Street,Queens,403,Q66,Not Applicable,40.755883,-73.882363,X,AREA OF MINIMAL FLOOD HAZARD,
POINT (-73.89863589618182 40.712610550205596),4,Queens,405,30,28,15,6,2527,701,General,backless,11/19/2014,62-16 Metropolitan Avenue,62-16 Metropolitan Avenue,Metropolitan Avenue,Fresh Pond Road and 62nd Street,Queens,405,Q54,Not Applicable,40.7126105502,-73.8986358962,X,AREA OF MINIMAL FLOOD HAZARD,
POINT (-73.9142255783472 40.7620947311577),4,Queens,401,22,36,12,14,2747,1435,Municipal Facilities,backed,11/12/2014,30-45 42nd Street,30-45 42nd Street,42nd Street,30th Avenue & Newtown Road,Queens,401,Not Applicable,Not Applicable,40.762103,-73.914227,X,AREA OF MINIMAL FLOOD HAZARD,
POINT (-73.88243258869534 40.74677573217727),4,Queens,404,25,39,13,14,3966,499,Bus Route,backless 2,02/14/2018,4008 Hampton Street,4008 Hampton Street,Hampton Street,Baxter Avenue & Britton Avenue,Queens,404,Q29,Not Applicable,40.746784,-73.882434,X,AREA OF MINIMAL FLOOD HAZARD,
POINT (-73.81776761966893 40.58543876200571),4,Queens,414,32,23,10,5,4231,530,Bus Route,backed 2,01/31/2019,95-20 Rockaway Beach Blvd,95-20 Rockaway Beach Blvd,Rockaway Beach Blvd,Beach 95th Street & Beach 96th Street,Queens,414,Q52,Not Applicable,40.585447,-73.817769,X,AREA OF MINIMAL FLOOD HAZARD,1
POINT (-73.84189860006629 40.78527172342466),4,Queens,407,19,27,11,14,1415,526,General,backed,04/19/2013,126-11 14th Avenue,126-11 15th Ave,15th Avenue,127th Street & 15th Avenue,Queens,407,Not Applicable,Not Applicable,40.78528,-73.8419,X,AREA OF MINIMAL FLOOD HAZARD,
POINT (-73.77984162539602 40.69141473946405),4,Queens,412,27,32,14,5,4045,84,Bus Route,backless 2,05/09/2018,170-05 Linden Boulevard,170-05 Linden Boulevard,Linden Boulevard,Merrick Boulevard & 169th Street,Queens,412,X63,Not Applicable,40.691423,-73.779843,X,AREA OF MINIMAL FLOOD HAZARD,5
POINT (-73.7802016235254 40.71352173527941),4,Queens,408,24,29,14,5,3679,2455,Senior Safety,backed,05/13/2017,182-15 Hillside Avenue,182-15 Hillside Avenue,Hillside Avenue,Avon Street & Dalny Road,Queens,408,Q01,Not Applicable,40.71353,-73.780203,X,AREA OF MINIMAL FLOOD HAZARD,
POINT (-73.8625749634915 40.74953406636619),4,Queens,404,21,39,13,14,1342,0,Plaza,backed,06/01/2018,103-12 Roosevelt Avenue,103-12 Roosevelt Avenue,Roosevelt Avenue,104th and National Streets,Queens,404,Q20A,Not Applicable,40.7495340664,-73.8625749635,X,AREA OF MINIMAL FLOOD HAZARD,
POINT (-73.84579959820351 40.78462072357396),4,Queens,407,19,27,11,14,1412,314,General,backed,04/19/2013,14-60 College Point Blvd,14-60 College Point Blvd,College Point Blvd,14th Avenue & 15th Avenue,Queens,407,Not Applicable,Not Applicable,40.784629,-73.845801,X,AREA OF MINIMAL FLOOD HAZARD,
POINT (-73.78564270054105 40.77078722427099),4,Queens,411,19,26,11,6,4086,588,General,backed 2,08/02/2018,204-6 32nd Avenue,204-6 32nd Avenue,32nd Avenue,204th Street & 205th Street,Queens,411,Q28,Not Applicable,40.7707872243,-73.7856427005,X,AREA OF MINIMAL FLOOD HAZARD,
POINT (-73.83771361308835 40.58070876379811),4,Queens,414,32,23,15,5,1955,1569,BID,backed,12/01/2014,264 Beach 116th Street,264 Beach 116th Street,Beach 116th Street,Rockaway Beach Blvd & Newport Avenue,Queens,414,Not Applicable,Beach 116th Street Partnership,40.580717,-73.837715,AE,,1
POINT (-73.93000957229228 40.76427673054406),4,Queens,401,22,36,12,12,2364,847,Senior Center,backed,02/05/2014,23-56 Broadway,23-56 Broadway,Crescent Street,Broadway & 33rd Avenue,Queens,401,Not Applicable,Not Applicable,40.764285,-73.930011,X,AREA OF MINIMAL FLOOD HAZARD,5
POINT (-73.7701246239492 40.760115725845424),4,Queens,411,19,25,11,6,3351,806,Municipal Facilities,backed,07/07/2016,213-03 Northern Boulevard,213-03 Northern Boulevard,Northern Boulevard,Bell Boulevard & 213th Street,Queens,411,Not Applicable,Not Applicable,40.760124,-73.770126,X,AREA OF MINIMAL FLOOD HAZARD,
POINT (-73.87401459104301 40.76277172904532),4,Queens,403,21,35,13,14,2542,1171,Municipal Facilities,backed,06/10/2014,95-06 Astoria Boulevard,95-06 Astoria Boulevard,Astoria Boulevard,95th Street and 96th Street,Queens,403,Not Applicable,Not Applicable,40.76278,-73.874016,X,AREA OF MINIMAL FLOOD HAZARD,
POINT (-73.90322458281706 40.741338733987),4,Queens,402,26,30,12,14,2314,839,General,backed,02/05/2014,61-10 Queens Boulevard,61-10 Queens Boulevard,Queens Boulevard,60th & 61st Street,Queens,402,Not Applicable,Not Applicable,40.741347,-73.903226,X,AREA OF MINIMAL FLOOD HAZARD,
POINT (-73.79918361947406 40.692794740634305),4,Queens,412,28,32,14,5,3256,1907,Municipal Facilities,backed,06/07/2016,108-10 Sutphin Boulevard,108-10 Sutphin Boulevard,Suthpin Boulevard,108th Avenue & Arlington Terrace,Queens,412,Not Applicable,Not Applicable,40.692803,-73.799185,X,AREA OF MINIMAL FLOOD HAZARD,6
POINT (-73.92251857498191 40.76740372963341),4,Queens,401,22,36,12,12,3422,685,General,backed,07/12/2016,29-34 30th Avenue,29-34 30th Avenue,30th Avenue,29th Street & 30th Street,Queens,401,Not Applicable,Not Applicable,40.767412,-73.92252,X,AREA OF MINIMAL FLOOD HAZARD,
POINT (-73.91075457815478 40.76880572954496),4,Queens,401,22,36,12,12,2468,1249,General,backed,06/10/2014,40-06 Astoria Boulevard South,40-06 Astoria Boulevard South,Astoria Boulevard South,Steinway Street & 41st Street,Queens,401,Not Applicable,Not Applicable,40.768814,-73.910756,X,AREA OF MINIMAL FLOOD HAZARD,
POINT (-73.76011063163054 40.69227573867472),4,Queens,412,27,33,14,5,2603,814,Municipal Facilities,backed,07/10/2014,191-05 Linden Boulevard,191-05 Linden Boulevard,Linden Boulevard,191st Street and 192nd Street,Queens,412,Not Applicable,Not Applicable,40.692284,-73.760112,X,AREA OF MINIMAL FLOOD HAZARD,
POINT (-73.83210860789174 40.70101374023239),4,Queens,409,29,27,10,5,556,144,Bus Route,backless,12/09/2013,118-14 Hillside Avenue,86-05 Lefferts Boulevard,Lefferts Boulevard,Hillside Avenue and Babbage Street,Queens,409,Q10,Not Applicable,40.701022,-73.83211,X,AREA OF MINIMAL FLOOD HAZARD,
POINT (-73.91051757847416 40.77598872776326),4,Queens,401,22,36,13,14,3516,1809,General,backless,10/17/2016,31-04 Ditmars Blvd,31-04 Ditmars Blvd,Ditmars Blvd,31st Street & 33rd Street,Queens,401,Not Applicable,Not Applicable,40.775997,-73.910519,X,AREA OF MINIMAL FLOOD HAZARD,
POINT (-73.82421961083271 40.70291173940224),4,Queens,409,29,27,14,5,2800,1570,Municipal Facilities,backed,11/21/2014,86-02 127th Street,86-02 127th Street,127th Street,Hillside Avenue & Jamaica Avenue,Queens,409,Not Applicable,Not Applicable,40.70292,-73.824221,X,AREA OF MINIMAL FLOOD HAZARD,
POINT (-73.78029462027489 40.77174672443662),4,Queens,411,19,26,11,6,2981,1496,Municipal Facilities,backless,01/30/2015,32-24 Corporal Kennedy Street,32-24 Corporal Kennedy Street,Corporal Kennedy Street,32nd Avenue and 33rd Avenue,Queens,411,Q28,Not Applicable,40.771755,-73.780296,X,AREA OF MINIMAL FLOOD HAZARD,
POINT (-73.91965357549608 40.7660947305741),4,Queens,401,22,36,12,12,2848,1671,General,backed,12/16/2014,33-01 30th Avenue,33-01 30th Avenue,30th Avenue,33rd Street and 34th Street,Queens,401,Not Applicable,Not Applicable,40.766103,-73.919655,X,AREA OF MINIMAL FLOOD HAZARD,
POINT (-73.84567760285317 40.72048973682025),4,Queens,406,29,28,16,6,1899,628,General,backed,06/18/2013,70-35 Austin Street,70-35 Austin Street,70th Road,Austin Street & Queens Blvd,Queens,406,Not Applicable,Not Applicable,40.720498,-73.845679,X,AREA OF MINIMAL FLOOD HAZARD,
POINT (-73.82834360542797 40.75557672900702),4,Queens,407,20,40,16,6,497,136,Bus Route,backless,06/20/2012,41-99 Main Street,41-99 Main Street,Main Street,Maple and Sanford Avenues,Queens,407,Q44,Not Applicable,40.755585,-73.828345,X,AREA OF MINIMAL FLOOD HAZARD,
POINT (-73.921704576461 40.74144073512378),4,Queens,402,26,37,12,14,1071,358,BID,backed,02/20/2013,43-06 47th Avenue,43-06 47th Avenue,47th Avenue,43rd & 44th Street,Queens,402,Not Applicable,Sunnyside Shines,40.741449,-73.921706,X,AREA OF MINIMAL FLOOD HAZARD,
POINT (-73.86772959545735 40.722745736897444),4,Queens,406,29,28,15,6,4222,310,Bus Route,backless,01/29/2019,63-65 Woodhaven Blvd,63-65 Woodhaven Blvd,Woodhaven Blvd,Everton Street & Penelope Avenue,Queens,406,Q52,Not Applicable,40.722754,-73.867731,X,AREA OF MINIMAL FLOOD HAZARD,
POINT (-73.92309457603925 40.74365673497484),4,Queens,402,26,37,12,14,1078,275,BID,backed,09/11/2012,41-16 Queens Blvd,41-16 Queens Blvd,Queens Blvd,41st and 42nd Streets,Queens,402,Not Applicable,Sunnyside Shines,40.743665,-73.923096,X,AREA OF MINIMAL FLOOD HAZARD,
POINT (-73.8888155868495 40.74925773267641),4,Queens,403,25,39,13,14,1827,0,General,backed,06/18/2013,77-02 37th Avenue,77-02 37th Avenue,37th Avenue,77th Street & 78th Street,Queens,403,Not Applicable,Not Applicable,40.749266,-73.888817,X,AREA OF MINIMAL FLOOD HAZARD,
POINT (-73.91156557876435 40.762262730799506),4,Queens,401,22,36,12,14,3416,1722,General,backed,07/12/2016,44-20 30th Avenue,44-20 30th Avenue,30th Avenue,44th Street & 45th Street,Queens,401,Not Applicable,Not Applicable,40.762271,-73.911567,X,AREA OF MINIMAL FLOOD HAZARD,
POINT (-73.73187363949855 40.712271734464274),4,Queens,413,27,33,14,5,2440,1112,Health Care Facilities,backless,05/07/2014,222-02 Hempstead Avenue,222-02 Hempstead Avenue,Hempstead Avenue,222nd Street and 223rd Street,Queens,413,Not Applicable,Not Applicable,40.71228,-73.731875,X,AREA OF MINIMAL FLOOD HAZARD,
POINT (-73.75318163904649 40.60298875595709),4,Queens,414,31,23,10,5,2446,1644,Plaza,backed,12/09/2015,10-31 Beach 20th Street,10-31 Beach 20th Street,Plaza,Beach 20th & Beach 21st Street,Queens,414,Not Applicable,Not Applicable,40.602997,-73.753183,X,AREA OF MINIMAL FLOOD HAZARD,1
POINT (-73.84246460538915 40.68037874398751),4,Queens,410,32,38,15,8,2953,647,Municipal Facilities,backless,12/22/2014,96-05 Rockaway Boulevard,96-05 Rockaway Boulevard,Rockaway Boulevard,97th Street & Liberty Avenue,Queens,410,Q7,Not Applicable,40.680387,-73.842466,X,AREA OF MINIMAL FLOOD HAZARD,6
POINT (-73.7627006294882 40.71336873507958),4,Queens,412,27,29,14,5,4043,308,Bus Route,backless 2,05/09/2018,197-00 Jamaica Avenue,197-00 Jamaica Avenue,Jamaica Avenue,Woodhull Avenue & Carpenter Avenue,Queens,412,Q111,Not Applicable,40.713377,-73.762702,X,AREA OF MINIMAL FLOOD HAZARD,
POINT (-73.90981858077356 40.745515733812084),4,Queens,402,26,30,12,14,2540,899,Municipal Facilities,backed,06/17/2014,54-22 Skillman Avenue,54-22 Skillman Avenue,Skillman Avenue,54th Street and 55th Street,Queens,402,Not Applicable,Not Applicable,40.745524,-73.90982,X,AREA OF MINIMAL FLOOD HAZARD,
POINT (-73.8625749634915 40.74953406636619),4,Queens,404,21,39,13,14,1342,0,Plaza,backless,06/01/2018,103-12 Roosevelt Avenue,103-12 Roosevelt Avenue,Roosevelt Avenue,104th and National Streets,Queens,404,Q20A,Not Applicable,40.7495340664,-73.8625749635,X,AREA OF MINIMAL FLOOD HAZARD,
POINT (-73.76719763566578 40.59377075843391),4,Queens,414,31,23,15,5,2854,1456,Municipal Facilities,backed,12/02/2014,180 Beach 35th Street,180 Beach 35th Street,Beach 35th Street,Edgemere Avenue and Boardwalk,Queens,414,Not Applicable,Not Applicable,40.593779,-73.767199,AE,,1
POINT (-73.73128663691688 40.760556724680995),4,Queens,411,23,26,11,3,2979,1485,Municipal Facilities,backless,01/28/2015,249-04 Horace Harding Expressway,249-04 Horace Harding Expressway,Horace Harding Expressway,Marathon Parkway and 251st Street,Queens,411,Q30,Not Applicable,40.760565,-73.731288,X,AREA OF MINIMAL FLOOD HAZARD,
POINT (-73.83656661394733 40.57868176402579),4,Queens,414,32,23,15,5,1952,0,BID,backed,,137 Beach 116th Street,137 Beach 116th Street,Beach 116th Street,Boardwalk & Rockaway Beach Blvd,Queens,414,Not Applicable,Beach 116th Street Partnership,40.57869,-73.836568,X,AREA OF MINIMAL FLOOD HAZARD,1
POINT (-73.91220658171267 40.718926739402065),4,Queens,405,30,37,12,7,2750,1567,Municipal Facilities,backed,11/14/2014,58-74 57th Street,58-74 57th Street,57th Street,Grand Avenue & Flushing Avenue,Queens,405,Not Applicable,Not Applicable,40.718935,-73.912208,X,AREA OF MINIMAL FLOOD HAZARD,6
POINT (-73.8625749634915 40.74953406636619),4,Queens,404,21,39,13,14,1342,388,Plaza,backed 2,06/01/2018,103-12 Roosevelt Avenue,103-12 Roosevelt Avenue,Roosevelt Avenue,104th and National Streets,Queens,404,Q20A,Not Applicable,40.7495340664,-73.8625749635,X,AREA OF MINIMAL FLOOD HAZARD,
POINT (-73.84795860261467 40.697952741074),4,Queens,409,32,38,15,7,3251,2080,Municipal Facilities,backed,05/17/2016,84-40 101 Street,84-40 101 st Street,101 st Street,85th Road & Park Lane South,Queens,409,Not Applicable,Not Applicable,40.697961,-73.84796,X,AREA OF MINIMAL FLOOD HAZARD,
POINT (-73.83210860789174 40.70101374023239),4,Queens,409,29,27,10,5,2295,1106,General,backed,12/09/2013,118-14 Hillside Avenue,118-14 Hillside Avenue,Hillside Avenue,Lefferts Blvd & Babbage Street,Queens,409,Not Applicable,Not Applicable,40.701022,-73.83211,X,AREA OF MINIMAL FLOOD HAZARD,
POINT (-73.92023857687118 40.74487073460982),4,Queens,402,26,37,12,14,1939,689,BID,backed,07/26/2013,44-01 44th Street,44-01 44th Street,44th Street,Greenpoint Avenue & 47th Avenue,Queens,402,Not Applicable,Sunnyside Shines,40.744879,-73.92024,X,AREA OF MINIMAL FLOOD HAZARD,
POINT (-73.91085357799209 40.77600872812172),4,Queens,401,22,36,12,14,3512,2244,General,backed,11/30/2016,22-04 31st Street,22-04 31st Street,31st Street,Ditmars Blvd & 23rd Avenue,Queens,401,Not Applicable,Not Applicable,40.776017,-73.910855,X,AREA OF MINIMAL FLOOD HAZARD,
POINT (-73.81695661039437 40.74863072974436),4,Queens,407,20,25,16,6,4046,241,Bus Route,backless 2,05/09/2018,48-15 Kissena Boulevard,48-15 Kissena Boulevard,Kissena Boulevard,Negundo Avenue & Mulberry Avenue,Queens,407,Q17,Not Applicable,40.748639,-73.816958,X,AREA OF MINIMAL FLOOD HAZARD,
POINT (-73.88589558752469 40.749581732189995),4,Queens,403,25,39,13,14,1965,797,General,backed,07/08/2013,80-21 37th Avenue,80-21 37th Avenue,37th Avenue,80th & 81st Street,Queens,403,Not Applicable,Not Applicable,40.74959,-73.885897,X,AREA OF MINIMAL FLOOD HAZARD,
POINT (-73.73199563925124 40.72061073292886),4,Queens,413,23,33,14,5,2799,1425,Municipal Facilities,backed,11/20/2014,222-14 Jamaica Avenue,222-14 Jamaica Avenue,Jamaica Avenue,222nd Street & 224th Street,Queens,413,Not Applicable,Not Applicable,40.720619,-73.731997,X,AREA OF MINIMAL FLOOD HAZARD,
POINT (-73.87252859285356 40.73578373470087),4,Queens,404,25,35,16,6,2974,1135,Municipal Facilities,backless,11/24/2014,90-02 56th Avenue,56-89 90th Street,90th Street,56th Avenue & 57th Avenue,Queens,404,Q59,Not Applicable,40.735792,-73.87253,X,AREA OF MINIMAL FLOOD HAZARD,6
POINT (-73.8838443201576 40.747057010640525),4,Queens,404,25,39,16,14,1520,478,BID,backed,12/11/2012,40-20 82nd Street,40-20 82nd Street,82nd Street,Roosevelt Avenue and Ithaca Street,Queens,404,Not Applicable,82nd Street,40.7470570106,-73.8838443202,X,AREA OF MINIMAL FLOOD HAZARD,
POINT (-73.9119135823409 40.703500742096814),4,Queens,405,34,38,12,7,2752,1421,Municipal Facilities,backed,11/14/2014,599 Cypress Avenue,599 Cypress Avenue,Cypress Avenue,Bleecker Street & Menahan Street,Queens,405,Not Applicable,Not Applicable,40.703509,-73.911915,X,AREA OF MINIMAL FLOOD HAZARD,
POINT (-73.87376759094352 40.7542327312668),4,Queens,403,25,34,13,14,2746,1431,Municipal Facilities,backed,11/12/2014,34-20 94th Street,34-20 94th Street,94th Street,East 184th Street & East 185th Street,Queens,403,Not Applicable,Not Applicable,40.754241,-73.873769,X,AREA OF MINIMAL FLOOD HAZARD,
POINT (-73.81507074277788 40.730292715496574),4,Queens,408,24,27,16,6,3036,1991,General,backless,02/03/2015,70-62 Kissena Boulevard,70-62 Kissena Boulevard,Kissena Boulevard,70th Road and 71st Avenue,Queens,408,Q25,Not Applicable,40.7302927155,-73.8150707428,X,AREA OF MINIMAL FLOOD HAZARD,
POINT (-73.79836661902708 40.70538673738231),4,Queens,412,24,32,14,5,2073,0,Community Health Centers,,,89-56 162nd Street,89-56 162nd Street,162nd Street,69th Avenue and Jamaica Avenue,Queens,412,Not Applicable,Not Applicable,40.705395,-73.798368,X,AREA OF MINIMAL FLOOD HAZARD,
POINT (-73.88370158836896 40.75153973199658),4,Queens,403,25,39,13,14,2362,1341,Senior Center,backed,02/07/2014,35-24 83rd Street,35-24 83rd Street,83rd Street,35th & 37th Avenue,Queens,403,Not Applicable,Not Applicable,40.751548,-73.883703,X,AREA OF MINIMAL FLOOD HAZARD,
POINT (-73.82672761049666 40.68974574167789),4,Queens,409,28,24,10,5,3249,0,Municipal Facilities,,,118-01 101st Avenue,118-01 101st Avenue,118th Street,101st Avenue & 97th Avenue,Queens,409,Not Applicable,Not Applicable,40.689754,-73.826729,X,AREA OF MINIMAL FLOOD HAZARD,
POINT (-73.8292506055745 40.75777572875057),4,Queens,407,20,40,16,6,440,833,Bus Route,backless,09/23/2013,41-17 Main Street,41-08 Kissena Boulevard,Kissena Boulevard,Main Street,Queens,407,Q27,Not Applicable,40.757784,-73.829252,X,AREA OF MINIMAL FLOOD HAZARD,
POINT (-73.87229359470719 40.71325973867457),4,Queens,405,30,28,15,6,2966,1670,General,backed,01/29/2015,79-62 Metropolitan Avenue,79-62 Metropolitan Avenue,80th Street,79th Place and 80th Street,Queens,405,Q47,Not Applicable,40.713268,-73.872295,X,AREA OF MINIMAL FLOOD HAZARD,
POINT (-73.82765560979558 40.693732741550086),4,Queens,409,28,24,10,5,563,127,Bus Route,backless,06/29/2012,119-02 94th Avenue,94-13 Lefferts Boulevard,Lefferts Boulevard,94th and 95th Avenues,Queens,409,Q10,Not Applicable,40.693741,-73.827657,X,AREA OF MINIMAL FLOOD HAZARD,
POINT (-73.89745458513146 40.7247667378501),4,Queens,405,30,30,15,6,646,587,Bus Route,backless,04/16/2013,66-62 Grand Avenue,66-62 Grand Avenue,Grand Avenue,Queens Midtown Expressway & Hamilton Place,Queens,405,Q58,Not Applicable,40.724775,-73.897456,X,AREA OF MINIMAL FLOOD HAZARD,
POINT (-73.88325058938581 40.74309573296302),4,Queens,404,25,39,16,6,3011,1922,General,backed,01/29/2015,81-25 Broadway,81-25 Broadway,Broadway,Pettit Avenue and Britton Avenue,Queens,404,Not Applicable,Not Applicable,40.743104,-73.883252,X,AREA OF MINIMAL FLOOD HAZARD,
POINT (-73.83909560009208 40.78566572303992),4,Queens,407,19,27,11,14,2026,823,General,backed,07/31/2013,129-21 14th Avenue,129-21 14th Avenue,14th Avenue,129th & 130th Street,Queens,407,Q20B,Not Applicable,40.785674,-73.839097,X,AREA OF MINIMAL FLOOD HAZARD,4
POINT (-73.91642018934142 40.757751346864964),4,Queens,401,26,30,12,14,4152,581,General,backed 2,06/28/2019,43-12 Broadway,43-12 Broadway,Broadway,43 Street & 44 Street,Queens,401,Not Applicable,Not Applicable,40.7577513469,-73.9164201893,X,AREA OF MINIMAL FLOOD HAZARD,
POINT (-73.88401158902951 40.73325673541511),4,Queens,404,25,30,16,6,1805,427,General,backless,02/14/2013,83-07 Grand Avenue,83-07 Grand Avenue,Grand Avenue,Calamus Avenue and 83rd Street,Queens,404,Q58,Not Applicable,40.733265,-73.884013,X,AREA OF MINIMAL FLOOD HAZARD,
POINT (-73.8625749634915 40.74953406636619),4,Queens,404,21,39,13,14,1342,375,Plaza,backed 2,06/01/2018,103-12 Roosevelt Avenue,103-12 Roosevelt Avenue,Roosevelt Avenue,104th and National Streets,Queens,404,Q20A,Not Applicable,40.7495340664,-73.8625749635,X,AREA OF MINIMAL FLOOD HAZARD,
POINT (-73.87860358917453 40.75626873091829),4,Queens,403,25,34,13,14,2003,923,General,backless,09/27/2013,89-19 Northern Boulevard,89-19 Northern Boulevard,Northern Boulevard,89th & 90th Street,Queens,403,Q66,Not Applicable,40.756277,-73.878605,X,AREA OF MINIMAL FLOOD HAZARD,
POINT (-73.9324475733938 40.744762734606475),4,Queens,402,26,37,12,12,3314,527,Municipal Facilities,backed,07/06/2016,32-23 Queens Boulevard,32-23 Queens Boulevard,Queens Boulevard,32nd Place & 33rd Street,Queens,402,Not Applicable,Not Applicable,40.744771,-73.932449,X,AREA OF MINIMAL FLOOD HAZARD,
POINT (-73.91855757679308 40.76201573098392),4,Queens,401,22,36,12,12,3364,1735,General,backed,07/19/2016,37-01 31st Avenue,37-01 31st Avenue,37th Street,37th Street & 38th Street,Queens,401,Not Applicable,Not Applicable,40.762024,-73.918559,X,AREA OF MINIMAL FLOOD HAZARD,
POINT (-73.84300460588953 40.67136074617469),4,Queens,410,32,23,15,8,4226,793,Bus Route,backed 2,01/24/2019,137-20 CROSS BAY BLVD,137-20 CROSS BAY BLVD,CROSS BAY BLVD,Pitkin Avenue & Van Wicklen Road,Queens,410,Q52,Not Applicable,40.671369,-73.843006,X,AREA OF MINIMAL FLOOD HAZARD,5
POINT (-73.95153956730736 40.74312873585459),4,Queens,402,26,37,12,12,2814,1413,General,backed,10/29/2014,10-93 Jackson Avenue,10-93 Jackson Avenue,11th Street,11th Street and 49th Avenue,Queens,402,B62,Not Applicable,40.743137,-73.951541,X,AREA OF MINIMAL FLOOD HAZARD,3
POINT (-73.82888160530916 40.756913728564705),4,Queens,407,20,40,16,6,495,145,Bus Route,backless,06/20/2012,41-51 Main Street (136-05 Sanford Avenue),41-57 Main Street,Main Street,Sanford Avenue and 41st Road,Queens,407,Q44,Not Applicable,40.756922,-73.828883,X,AREA OF MINIMAL FLOOD HAZARD,
POINT (-73.87261259404808 40.718428738076305),4,Queens,405,30,30,15,6,3174,2011,General,backed,04/13/2016,64-59 Dry Harbor Road,64-59 Dry Harbor Road,Dry Harbor Road,64th Road & Furmanville Avenue,Queens,405,Q29,Not Applicable,40.718437,-73.872614,X,AREA OF MINIMAL FLOOD HAZARD,
POINT (-73.78548862917616 40.595008759091215),4,Queens,414,31,31,10,5,4236,466,Bus Route,backless,02/05/2019,5422 Beach Channel Drive,5422 Beach Channel Drive,Beach Channel Drive,Beach 54th Street & Beach 55th Street,Queens,414,Q53,Not Applicable,40.595017,-73.78549,AE,,1
POINT (-73.84733360128226 40.72211173592063),4,Queens,406,29,28,16,6,1174,323,Senior Center,backed,12/12/2012,106-06 Queens Boulevard,106-06 Queens Boulevard,69th Road,Austin Street and Queens Boulevard,Queens,406,Not Applicable,Not Applicable,40.72212,-73.847335,X,AREA OF MINIMAL FLOOD HAZARD,
POINT (-73.84562460463918 40.68905174220298),4,Queens,409,32,38,10,7,4035,675,Bus Route,backless,04/27/2018,97-04 Atlantic Avenue,97-04 Atlantic Avenue,Atlantic Avenue,96th Street & 100th Street,Queens,409,Q24,Not Applicable,40.68906,-73.845626,X,AREA OF MINIMAL FLOOD HAZARD,
POINT (-73.90861258299182 40.70153074283947),4,Queens,405,34,38,12,7,3501,117,Bus Route,backless 2,04/20/2017,712 Cypress Avenue,712 Cypress Avenue,Cypress Avenue,Palmetto Street & Woodbine Street,Queens,405,Q58,Not Applicable,40.701539,-73.908614,X,AREA OF MINIMAL FLOOD HAZARD,
POINT (-73.92092257553966 40.77081172939757),4,Queens,401,22,36,12,12,3084,1865,General,backed,09/10/2015,27-02 Astoria Boulevard,27-02 Astoria Boulevard,Astoria Boulevard,Crescent Street & 28th Street,Queens,401,Not Applicable,Not Applicable,40.77082,-73.920924,X,AREA OF MINIMAL FLOOD HAZARD,
POINT (-73.86068659525448 40.756061729779226),4,Queens,403,21,35,13,14,3362,1382,Municipal Facilities,backless,09/07/2016,34-10 108th Street,34-10 108th Street,108th Street,34th Avenue & 35th Avenue,Queens,403,Q48,Not Applicable,40.75607,-73.860688,X,AREA OF MINIMAL FLOOD HAZARD,
POINT (-73.75655762943882 40.7496797275528),4,Queens,411,23,25,16,6,4162,669,General,backed 2,03/14/2019,221-15 Horace Harding Expressway,221-15 Horace Harding Expressway,Horace Harding Expressway,Springfield Boulevard & 223rd Place,Queens,411,Not Applicable,Not Applicable,40.749688,-73.756559,X,AREA OF MINIMAL FLOOD HAZARD,
POINT (-73.89863589618182 40.712610550205596),4,Queens,405,30,28,15,6,2527,691,General,backless,11/19/2014,62-16 Metropolitan Avenue,62-16 Metropolitan Avenue,Metropolitan Avenue,Fresh Pond Road and 62nd Street,Queens,405,Q54,Not Applicable,40.7126105502,-73.8986358962,X,AREA OF MINIMAL FLOOD HAZARD,
POINT (-73.9074835800415 40.771665728560365),4,Queens,401,22,36,13,14,4030,238,Bus Route,backless 2,04/26/2018,22-73 Steinway Street,22-73 Steinway Street,Steinway Street,23rd Avenue & Ditmars Boulevard,Queens,401,Q101,Not Applicable,40.771674,-73.907485,X,AREA OF MINIMAL FLOOD HAZARD,
POINT (-73.75318163904649 40.60298875595709),4,Queens,414,31,23,10,5,2446,1736,Plaza,backed,12/09/2015,10-31 Beach 20th Street,10-31 Beach 20th Street,Plaza,Beach 20th & Beach 21st Street,Queens,414,Not Applicable,Not Applicable,40.602997,-73.753183,X,AREA OF MINIMAL FLOOD HAZARD,1
POINT (-73.75798962874175 40.74016672946497),4,Queens,411,23,24,11,6,3347,212,Municipal Facilities,backed,07/07/2016,73-28 Bell Boulevard,73-28 Bell Boulevard,Bell Boulevard,73rd Avenue & 73rd Road,Queens,411,Not Applicable,Not Applicable,40.740175,-73.757991,X,AREA OF MINIMAL FLOOD HAZARD,
POINT (-73.88039159034955 40.741366733890096),4,Queens,404,25,39,16,6,4218,647,Bus Route,backed 2,01/24/2019,8290 Broadway,8290 Broadway,Broadway,Whitney Avenue & 45th Avenue,Queens,404,Q52,Not Applicable,40.741375,-73.880393,X,AREA OF MINIMAL FLOOD HAZARD,
POINT (-73.85824659608207 40.750851730681426),4,Queens,404,21,39,13,14,2360,938,Senior Center,backed,02/07/2014,108-74 Roosevelt Avenue,108-74 Roosevelt Avenue,Roosevelt Avenue,108th & 11th Street,Queens,404,Not Applicable,Not Applicable,40.75086,-73.858248,X,AREA OF MINIMAL FLOOD HAZARD,
POINT (-73.74407863226409 40.765377724177746),4,Queens,411,19,26,11,3,1536,420,General,backless,02/05/2013,242-03 Northern Boulevard,242 - 03 Northern Boulevard,Northern Boulevard,Douglaston Parkway and 243rd Street,Queens,411,Q12,Not Applicable,40.765386,-73.74408,X,AREA OF MINIMAL FLOOD HAZARD,
POINT (-73.82136061152356 40.69573274068258),4,Queens,409,28,24,10,5,4034,472,Bus Route,backless,04/27/2018,126-98 Atlantic Avenue,126-98 Atlantic Avenue,Atlantic Avenue,125th Street & 127th Street,Queens,409,Q24,Not Applicable,40.695741,-73.821362,X,AREA OF MINIMAL FLOOD HAZARD,
POINT (-73.83143560738655 40.70603273845518),4,Queens,409,29,27,14,6,3627,73,General,backed 2,05/13/2017,119-20 Metropolitan Avenue,119-20 Metropolitan Avenue,Metropolitan Avenue,Lefferts Blvd & Brevoort Street,Queens,409,Not Applicable,Not Applicable,40.706041,-73.831437,X,AREA OF MINIMAL FLOOD HAZARD,
POINT (-73.89392658596421 40.739908734751545),4,Queens,402,26,34,12,6,3543,2331,Bus Route,backless,12/09/2016,70-01 Queens Boulevard,70-01 Queens Boulevard,Queens Boulevard,70th Street & 74th Street,Queens,402,Q60,Not Applicable,40.739917,-73.893928,X,AREA OF MINIMAL FLOOD HAZARD,
POINT (-73.9149405761265 40.77912972714888),4,Queens,401,22,36,12,14,1908,663,General,backed,06/18/2013,24-17 Ditmars Boulevard,24-17 Ditmars Boulevard,Ditmars Boulevard,Crescent Street & 24th Street,Queens,401,Not Applicable,Not Applicable,40.779138,-73.914942,X,AREA OF MINIMAL FLOOD HAZARD,
POINT (-73.77090762327842 40.76344472566204),4,Queens,411,19,26,11,6,1514,329,BID,backed,01/28/2013,41-06 Bell Blvd,41-06 Bell Blvd,Bell Blvd,41st and 42nd Avenues,Queens,411,Not Applicable,Bell Blvd BBA,40.763453,-73.770909,X,AREA OF MINIMAL FLOOD HAZARD,
POINT (-73.9052845835307 40.71119474020672),4,Queens,405,30,37,15,6,3308,2343,Municipal Facilities,backed,05/27/2016,62-85 Forest Avenue,62-85 Forest Avenue,Forest Avenue,Bleecker Street & Metropolitan Avenue,Queens,405,Not Applicable,Not Applicable,40.711203,-73.905286,X,AREA OF MINIMAL FLOOD HAZARD,
POINT (-73.93201457306992 40.752233733153915),4,Queens,401,26,37,12,12,2068,766,Community Health Centers,backed,08/05/2013,32-03 39th Avenue,32-03 39th Avenue,32nd Street,38th and 39th Avenues,Queens,401,Not Applicable,Not Applicable,40.752242,-73.932016,X,AREA OF MINIMAL FLOOD HAZARD,5
POINT (-73.82854061628088 40.582290762907725),4,Queens,414,32,23,15,5,2977,1655,Municipal Facilities,backless,02/02/2015,10640 Rockaway Beach Boulevard,10640 Rockaway Beach Boulevard,Rockaway Beach Boulevard,Beach 107th Street and Beach 108th Street,Queens,414,Q53,Not Applicable,40.582299,-73.828542,X,AREA OF MINIMAL FLOOD HAZARD,1
POINT (-73.7848956196836 40.75787772705761),4,Queens,411,19,26,11,6,2546,944,Municipal Facilities,backed,06/11/2014,196-30 Northern Boulevard,196-30 Northern Boulevard,Northern Boulevard,Francis Lewis Boulevard and 196th Street,Queens,411,Not Applicable,Not Applicable,40.757886,-73.784897,X,AREA OF MINIMAL FLOOD HAZARD,
POINT (-73.83154560960912 40.67957574368895),4,Queens,410,28,31,10,5,3245,1764,Municipal Facilities,backed,05/18/2016,108-10 109th Avenue,108-10 109th Avenue,109th Avenue,108th Street & 109th Street,Queens,410,Not Applicable,Not Applicable,40.679584,-73.831547,X,AREA OF MINIMAL FLOOD HAZARD,
POINT (-73.8406186080741 40.66221974751463),4,Queens,410,32,23,15,8,4228,449,Bus Route,backless,01/31/2019,157-05 Cross Bay Blvd,157-05 Cross Bay Blvd,Cross Bay Blvd,157th Avenue & 158th Avenue,Queens,410,Q52,Not Applicable,40.662228,-73.84062,X,0.2 PCT ANNUAL CHANCE FLOOD HAZARD,1
POINT (-73.78314562410621 40.69004574037373),4,Queens,412,27,32,14,5,2324,1029,Senior Center,backed,02/10/2014,166-01 Linden Blvd,166-01 Linden Blvd,Linden Blvd,166th & 167th Street,Queens,412,Not Applicable,Not Applicable,40.690054,-73.783147,X,AREA OF MINIMAL FLOOD HAZARD,5
POINT (-73.83210860789174 40.70101374023239),4,Queens,409,29,27,10,5,2295,1105,General,backed,12/09/2013,118-14 Hillside Avenue,118-14 Hillside Avenue,Hillside Avenue,Lefferts Blvd & Babbage Street,Queens,409,Not Applicable,Not Applicable,40.701022,-73.83211,X,AREA OF MINIMAL FLOOD HAZARD,
POINT (-73.837322613975 40.58000276346626),4,Queens,414,32,23,15,5,1949,1493,BID,backed,12/02/2014,211 Beach 116th Street,211 Beach 116th Street,Beach 116th Street,Rockaway Beach Blvd & Newport Avenue,Queens,414,Not Applicable,Beach 116th Street Partnership,40.580011,-73.837324,X,AREA OF MINIMAL FLOOD HAZARD,1
POINT (-73.72312063951264 40.761568724598405),4,Queens,411,23,26,11,3,3170,1996,General,backed,09/14/2015,58-20 Little Neck Parkway,58-20 Little Neck Parkway,Little Neck Parkway,58th Avenue & 60th Avenue,Queens,411,Not Applicable,Not Applicable,40.761577,-73.723122,X,AREA OF MINIMAL FLOOD HAZARD,
POINT (-73.75318163904649 40.60298875595709),4,Queens,414,31,23,10,5,2446,1812,Plaza,backed,12/09/2015,10-31 Beach 20th Street,10-31 Beach 20th Street,Plaza,Beach 20th & Beach 21st Street,Queens,414,Not Applicable,Not Applicable,40.602997,-73.753183,X,AREA OF MINIMAL FLOOD HAZARD,1
POINT (-73.8625749634915 40.74953406636619),4,Queens,404,21,39,13,14,1342,379,Plaza,backless 2,06/01/2018,103-12 Roosevelt Avenue,103-12 Roosevelt Avenue,Roosevelt Avenue,104th and National Streets,Queens,404,Q20A,Not Applicable,40.7495340664,-73.8625749635,X,AREA OF MINIMAL FLOOD HAZARD,
POINT (-73.88742758771748 40.73770973455666),4,Queens,404,25,39,16,6,3307,2347,Municipal Facilities,backed,06/07/2016,50-40 Jacobus Street,50-40 Jacobus Street,Jacobus Street,51st Avenue & Queens Boulevard,Queens,404,Not Applicable,Not Applicable,40.737718,-73.887429,X,AREA OF MINIMAL FLOOD HAZARD,6
POINT (-73.75410763964777 40.59600275744432),4,Queens,414,31,23,10,5,3599,2332,General,backless,12/09/2016,233 Beach 20th Street,233 Beach 20th Street,Beach 20th Street,Plainview Avenue & Seagirt Blvd,Queens,414,Q22,Not Applicable,40.596011,-73.754109,X,AREA OF MINIMAL FLOOD HAZARD,1
POINT (-73.75318163904649 40.60298875595709),4,Queens,414,31,23,10,5,2446,1866,Plaza,backed,12/09/2015,10-31 Beach 20th Street,10-31 Beach 20th Street,Plaza,Beach 20th & Beach 21st Street,Queens,414,Not Applicable,Not Applicable,40.602997,-73.753183,X,AREA OF MINIMAL FLOOD HAZARD,1
POINT (-73.87241959216391 40.75316873142538),4,Queens,403,21,34,13,14,3942,691,Senior Safety,backed 2,02/06/2018,95-12A 35th Avenue,95-12A 35th Avenue,35th Avenue,95th Street & Junction Blvd,Queens,403,Not Applicable,Not Applicable,40.753177,-73.872421,X,AREA OF MINIMAL FLOOD HAZARD,
POINT (-73.8625749634915 40.74953406636619),4,Queens,404,21,39,13,14,1342,0,Plaza,backed 2,06/01/2018,103-12 Roosevelt Avenue,103-12 Roosevelt Avenue,Roosevelt Avenue,104th and National Streets,Queens,404,Q20A,Not Applicable,40.7495340664,-73.8625749635,X,AREA OF MINIMAL FLOOD HAZARD,
POINT (-73.92414957450808 40.76818472970373),4,Queens,401,22,36,12,12,2441,925,Health Care Facilities,backless,05/07/2014,27-15 30th Avenue,27-15 30th Avenue,30th Avenue,27th Street and 29th Street,Queens,401,Q102,Not Applicable,40.768193,-73.924151,X,AREA OF MINIMAL FLOOD HAZARD,
POINT (-73.93966057010427 40.750083734076306),4,Queens,402,26,37,12,12,3585,77,General,backless 2,01/23/2017,27-10 Queens Plaza South,27-10 Queens Plaza South,Queens Plaza South,27th Street & 28th Street,Queens,402,Q100,Long Island City,40.750092,-73.939662,X,AREA OF MINIMAL FLOOD HAZARD,5
POINT (-73.92673157379048 40.757300732523845),4,Queens,401,26,36,12,12,2748,1557,Municipal Facilities,backed,11/06/2014,33-09 35th Avenue,33-09 35th Avenue,35th Avenue,33rd Street & 34th Street,Queens,401,Not Applicable,Not Applicable,40.757309,-73.926733,X,AREA OF MINIMAL FLOOD HAZARD,
POINT (-73.91947157706485 40.7432477347187),4,Queens,402,26,37,12,14,2514,1294,BID,backed,07/25/2014,45-03 Queens Boulevard,45-03 Queens Boulevard,Queens Boulevard,45th Street & 46th Street,Queens,402,Not Applicable,Sunnyside Shines,40.743256,-73.919473,X,AREA OF MINIMAL FLOOD HAZARD,
POINT (-73.86576459550267 40.73648673405212),4,Queens,404,25,35,16,6,3969,508,Senior Safety,backless 2,02/14/2018,57-10 Junction Blvd,57-10 Junction Blvd,Junction Blvd,57th Street & 58th Street,Queens,404,Q72,Not Applicable,40.736495,-73.865766,X,AREA OF MINIMAL FLOOD HAZARD,6
POINT (-73.88244158816465 40.75586673106597),4,Queens,403,25,34,13,14,1998,955,General,backed,09/30/2013,85-01 Northern Boulevard,85-01 Northern Boulevard,Northern Boulevard,85th & 86th Street,Queens,403,Not Applicable,Not Applicable,40.755875,-73.882443,X,AREA OF MINIMAL FLOOD HAZARD,
POINT (-73.81351460920341 40.788072722226666),4,Queens,407,19,26,11,3,2167,815,General,backed,09/23/2013,14-31 150th Street,14-31 150th Street,150th Street,Cross Island Parkway and 14th Avenue,Queens,407,Not Applicable,Not Applicable,40.788081,-73.813516,X,AREA OF MINIMAL FLOOD HAZARD,
POINT (-73.80441961837965 40.67460574362088),4,Queens,410,28,31,10,5,3244,2371,Municipal Facilities,backed,05/18/2016,134-02 Rockaway Boulevard,134-02 Rockaway Boulevard,Rockaway Boulevard,134th Street & 135th Street,Queens,410,Not Applicable,Not Applicable,40.674614,-73.804421,X,AREA OF MINIMAL FLOOD HAZARD,6
POINT (-73.82074861232886 40.69142774126193),4,Queens,409,28,24,10,5,3204,1707,AAR,backless,05/19/2016,125-06 101st Avenue,125-06 101st Avenue,101st Avenue,126th Street & 125th Street,Queens,409,Not Applicable,Not Applicable,40.691436,-73.82075,X,AREA OF MINIMAL FLOOD HAZARD,
POINT (-73.75835863424574 40.665276744130125),4,Queens,413,31,31,10,5,3751,442,General,backless,02/13/2018,144-47 Springfield Boulevard,144-47 Springfield Boulevard,Springfield Boulevard,145th Avenue & S Conduit Avenue,Queens,413,Q77,Not Applicable,40.665285,-73.75836,X,AREA OF MINIMAL FLOOD HAZARD,4
POINT (-73.78607262133225 40.72758573304877),4,Queens,408,24,24,11,5,740,569,Bus Route,backless,04/17/2013,182-10 & 182-08 Union Turnpike,182-10 Union Turnpike,Union Turnpike,Kent Street & 183rd Street,Queens,408,Q46,Not Applicable,40.727594,-73.786074,X,AREA OF MINIMAL FLOOD HAZARD,
POINT (-73.92404957576565 40.744804734448174),4,Queens,402,26,37,12,14,2515,1191,BID,backed,07/25/2014,43-45 40th Street,43-45 40th Street,40th Street,Queens Boulevard & 43rd Avenue,Queens,402,Not Applicable,Sunnyside Shines,40.744813,-73.924051,X,AREA OF MINIMAL FLOOD HAZARD,
POINT (-73.84318559998924 40.7785927246375),4,Queens,407,19,27,11,14,2839,1704,Municipal Facilities,backed,11/24/2014,125-10 23rd Avenue,125-10 23rd Avenue,23rd Avenue,125th Street and 126th Street,Queens,407,Not Applicable,Not Applicable,40.778601,-73.843187,X,AREA OF MINIMAL FLOOD HAZARD,
POINT (-73.8625749634915 40.74953406636619),4,Queens,404,21,39,13,14,1342,389,Plaza,backed 2,06/01/2018,103-12 Roosevelt Avenue,103-12 Roosevelt Avenue,Roosevelt Avenue,104th and National Streets,Queens,404,Q20A,Not Applicable,40.7495340664,-73.8625749635,X,AREA OF MINIMAL FLOOD HAZARD,
POINT (-73.89063858623742 40.74908173233256),4,Queens,403,25,39,13,14,4106,0,General,backed 2,02/07/2019,75-07 37th Avenue,75-07 37th Avenue,37th Avenue,75th Street & 76th Street,Queens,403,Not Applicable,Not Applicable,40.74909,-73.89064,X,AREA OF MINIMAL FLOOD HAZARD,
POINT (-73.7900816180116 40.765124725795694),4,Queens,411,19,26,11,6,2980,2051,Municipal Facilities,backed,01/30/2015,34-65 192nd Street,34-65 192nd Street,Francis Lewis Boulevard,34th Avenue and 35th Avenue,Queens,411,Q28,Not Applicable,40.765133,-73.790083,X,AREA OF MINIMAL FLOOD HAZARD,
POINT (-73.88004458923749 40.76380972907838),4,Queens,403,22,34,13,14,3352,2162,General,backed,07/13/2016,89-01 Astoria Boulevard,89-01 Astoria Boulevard,Astoria Boulevard,89th Street & 25th Avenue,Queens,403,Not Applicable,Not Applicable,40.763818,-73.880046,X,AREA OF MINIMAL FLOOD HAZARD,6
POINT (-73.78124562548419 40.686789740949195),4,Queens,412,27,32,14,5,2843,1541,Municipal Facilities,backed,12/11/2014,166-01 116th Avenue,166-01 116th Avenue,166th Street,166th Street and 167th Street,Queens,412,Not Applicable,Not Applicable,40.686798,-73.781247,X,AREA OF MINIMAL FLOOD HAZARD,5
POINT (-73.71633664326316 40.73559572947717),4,Queens,413,23,33,11,3,2606,704,Municipal Facilities,backless,07/11/2014,251-10 Hillside Avenue,251-10 Hillside Avenue,Hillside Avenue,251st Street and 252nd Street,Queens,413,Q43,Not Applicable,40.735604,-73.716338,X,AREA OF MINIMAL FLOOD HAZARD,
POINT (-73.8625749634915 40.74953406636619),4,Queens,404,21,39,13,14,1342,0,Plaza,backed 2,06/01/2018,103-12 Roosevelt Avenue,103-12 Roosevelt Avenue,Roosevelt Avenue,104th and National Streets,Queens,404,Q20A,Not Applicable,40.7495340664,-73.8625749635,X,AREA OF MINIMAL FLOOD HAZARD,
POINT (-73.91096257830532 40.77589272765658),4,Queens,401,22,36,13,14,3518,2457,General,backed,12/03/2016,22-11 31st Street,22-11 31st Street,31st Street,Ditmars Blvd & 23rd Avenue,Queens,401,Not Applicable,Not Applicable,40.775901,-73.910964,X,AREA OF MINIMAL FLOOD HAZARD,
POINT (-73.89020658597116 40.746163732767606),4,Queens,404,25,39,16,14,4215,859,Bus Route,backless 2,01/24/2019,75-01 Broadway,75-01 Broadway,Broadway,75th Street & 76th Street,Queens,404,Q53,Not Applicable,40.746172,-73.890208,X,AREA OF MINIMAL FLOOD HAZARD,
POINT (-73.91977357774837 40.74188073496673),4,Queens,402,26,37,12,14,1079,165,BID,backed,08/01/2012,45-01 Greenpoint Avenue,45-01 Greenpoint Avenue,Greenpoint Avenue,45th and 46th Streets,Queens,402,Not Applicable,Sunnyside Shines,40.741889,-73.919775,X,AREA OF MINIMAL FLOOD HAZARD,
POINT (-73.93502057273378 40.74489373488193),4,Queens,402,26,37,12,12,3313,680,Municipal Facilities,backed,07/06/2016,31-10 Thomson Avenue,31-10 Thomson Avenue,Thomson Avenue,31st Street & 31st Place,Queens,402,Not Applicable,Not Applicable,40.744902,-73.935022,X,AREA OF MINIMAL FLOOD HAZARD,4
POINT (-73.73948664055413 40.66014374484977),4,Queens,413,31,31,10,5,3172,1904,General,backed,05/25/2016,144-20 243rd Street,144-20 243rd Street,243rd Street,144th Avenue & 145th Avenue,Queens,413,Not Applicable,Not Applicable,40.660152,-73.739488,X,AREA OF MINIMAL FLOOD HAZARD,4
POINT (-73.71732064168785 40.7441697270035),4,Queens,413,23,24,11,3,2202,1052,General,backed,12/09/2013,253-22 Union Turnpike,253-22 Union Turnpike,Union Turnpike,Little Neck Parkway and 254th Street,Queens,413,Not Applicable,Not Applicable,40.744178,-73.717322,X,AREA OF MINIMAL FLOOD HAZARD,
POINT (-73.87157659341877 40.73383973455544),4,Queens,404,25,35,16,6,2613,1617,General,backed,08/04/2014,90-15 Queens Boulevard,90-15 Queens Boulevard,59th Avenue,57th & 59th Avenue,Queens,404,Not Applicable,Not Applicable,40.733848,-73.871578,X,AREA OF MINIMAL FLOOD HAZARD,6
POINT (-73.8732145917641 40.74876673165488),4,Queens,404,21,34,13,14,2493,1260,General,backed,06/10/2014,93-19 Roosevelt Avenue,93-19 Roosevelt Avenue,94th Street,93rd Street and 94th Street,Queens,403,Not Applicable,Not Applicable,40.748775,-73.873216,X,AREA OF MINIMAL FLOOD HAZARD,
POINT (-73.85929659826023 40.711773738824554),4,Queens,406,29,28,15,6,4224,303,Bus Route,backless 2,01/29/2019,90-13 Metropolitan Avenue,90-13 Metropolitan Avenue,Woodhaven Blvd,Pole Place & Metropolitan Avenue,Queens,406,Q52,Not Applicable,40.711782,-73.859298,X,AREA OF MINIMAL FLOOD HAZARD,
POINT (-73.88469658791716 40.74586173316765),4,Queens,404,25,39,16,6,3812,143,Senior Safety,backed 2,06/28/2017,80-98 41st Avenue,80-98 41st Avenue,41st Avenue,80th Street & 81st Street,Queens,404,Not Applicable,Not Applicable,40.74587,-73.884698,X,AREA OF MINIMAL FLOOD HAZARD,
POINT (-73.91511757697533 40.775931727624176),4,Queens,401,22,36,12,14,2020,824,General,backed,08/01/2013,27-04 23rd Avenue,27-04 23rd Avenue,23rd Avenue,27th & 28th Street,Queens,401,Not Applicable,Not Applicable,40.77594,-73.915119,X,AREA OF MINIMAL FLOOD HAZARD,
POINT (-73.88037258889537 40.75014473195133),4,Queens,403,21,34,13,14,3360,735,General,backed,07/19/2016,86-12 37th Avenue,86-12 37th Avenue,37th Avenue,86th Avenue & 87th Avenue,Queens,403,Not Applicable,Not Applicable,40.750153,-73.880374,X,AREA OF MINIMAL FLOOD HAZARD,
POINT (-73.7779886231995 40.736913730811224),4,Queens,408,23,25,11,6,3349,76,Municipal Facilities,backed 2,07/11/2016,195-02 69th Avenue,195-02 69th Avenue,69th Avenue,195th Lane & 197th Street,Queens,408,Not Applicable,Not Applicable,40.736922,-73.77799,X,AREA OF MINIMAL FLOOD HAZARD,
POINT (-73.8625749634915 40.74953406636619),4,Queens,404,21,39,13,14,1342,396,Plaza,backed 2,06/01/2018,103-12 Roosevelt Avenue,103-12 Roosevelt Avenue,Roosevelt Avenue,104th and National Streets,Queens,404,Q20A,Not Applicable,40.7495340664,-73.8625749635,X,AREA OF MINIMAL FLOOD HAZARD,
POINT (-73.77314962293455 40.767757724890906),4,Queens,411,19,26,11,6,1505,328,BID,backed,01/25/2013,36-41 Bell Blvd,36-41 Bell Blvd,Bell Blvd,36th and 38th Avenues,Queens,411,Not Applicable,Bell Blvd BBA,40.767766,-73.773151,X,AREA OF MINIMAL FLOOD HAZARD,
POINT (-73.80418061599346 40.72015773554416),4,Queens,408,24,25,14,6,3206,2026,General,backed,05/05/2016,81-15 164th Street,81-15 164th Street,164th Street,81st Avenue & Goethals Avenue,Queens,408,Not Applicable,Not Applicable,40.720166,-73.804182,X,AREA OF MINIMAL FLOOD HAZARD,
POINT (-73.80712961759285 40.67485174441025),4,Queens,410,28,31,10,5,2181,807,General,backed,09/23/2013,131-14 Rockaway Boulevard,131-14 Rockaway Boulevard,Rockaway Boulevard,131st Street and 132th Street,Queens,410,Not Applicable,Not Applicable,40.67486,-73.807131,X,AREA OF MINIMAL FLOOD HAZARD,6
POINT (-73.86026559542525 40.75360773051276),4,Queens,403,21,35,13,14,3963,452,Senior Safety,backed 2,02/09/2018,37-16 108th Street,37-16 108th Street,108th Street,37th Street & 38th Street,Queens,403,Not Applicable,Not Applicable,40.753616,-73.860267,X,AREA OF MINIMAL FLOOD HAZARD,
POINT (-73.77099262881697 40.67255974320879),4,Queens,412,28,32,10,5,955,1582,Senior Center,backed,02/05/2013,169-09 137th Avenue,169-09 137th Avenue,137th Avenue,169th & 170th Street,Queens,412,Not Applicable,Not Applicable,40.672568,-73.770994,X,AREA OF MINIMAL FLOOD HAZARD,4
POINT (-73.95153956730736 40.74312873585459),4,Queens,402,26,37,12,12,2814,1889,General,backed,10/29/2014,10-93 Jackson Avenue,10-93 Jackson Avenue,11th Street,11th Street and 49th Avenue,Queens,402,B62,Not Applicable,40.743137,-73.951541,X,AREA OF MINIMAL FLOOD HAZARD,3
POINT (-73.84402960563962 40.684810743111015),4,Queens,409,32,38,15,7,2955,641,Municipal Facilities,backless,12/22/2014,97-08 101st Avenue,97-08 101st Avenue,101st Avenue,97th Street & 98th Street,Queens,409,Q8,Not Applicable,40.684819,-73.844031,X,AREA OF MINIMAL FLOOD HAZARD,
POINT (-73.8625749634915 40.74953406636619),4,Queens,404,21,39,13,14,1342,380,Plaza,backed 2,06/01/2018,103-12 Roosevelt Avenue,103-12 Roosevelt Avenue,Roosevelt Avenue,104th and National Streets,Queens,404,Q20A,Not Applicable,40.7495340664,-73.8625749635,X,AREA OF MINIMAL FLOOD HAZARD,
POINT (-73.94597056751803 40.75764073305082),4,Queens,401,26,37,12,12,4031,511,Bus Route,backed 2,04/26/2018,40-13 Vernon Boulevard,9-99 41st Avenue,41st Avenue,Vernon Boulevard & 10th Street,Queens,401,Q102,Not Applicable,40.757649,-73.945972,X,0.2 PCT ANNUAL CHANCE FLOOD HAZARD,4
POINT (-73.90719057998216 40.75698973187338),4,Queens,401,26,30,13,14,2946,1063,Municipal Facilities,backed,11/12/2014,54-06 31st Avenue,31-05 54th Street,54th Street,31st Avenue & 32nd Avenue,Queens,401,Q18,Not Applicable,40.756998,-73.907192,X,AREA OF MINIMAL FLOOD HAZARD,
POINT (-73.88404758783902 40.749755732246044),4,Queens,403,21,39,13,14,2425,996,General,backed,05/12/2014,82-18 37th Avenue,82-18 37th Avenue,37th Avenue,82nd Street and 83rd Street,Queens,403,Not Applicable,82nd Street,40.749764,-73.884049,X,AREA OF MINIMAL FLOOD HAZARD,
POINT (-73.75318163904649 40.60298875595709),4,Queens,414,31,23,10,5,2446,1859,Plaza,backed,12/09/2015,10-31 Beach 20th Street,10-31 Beach 20th Street,Plaza,Beach 20th & Beach 21st Street,Queens,414,Not Applicable,Not Applicable,40.602997,-73.753183,X,AREA OF MINIMAL FLOOD HAZARD,1
POINT (-73.91499658127162 40.707112741378005),4,Queens,405,34,37,12,7,2751,1426,Municipal Facilities,backed,11/14/2014,378 Seneca Avenue,378 Seneca Avenue,Seneca Avenue,Stockholm Street & Stanhope Street,Queens,405,Not Applicable,Not Applicable,40.707121,-73.914998,X,AREA OF MINIMAL FLOOD HAZARD,
POINT (-73.92590757495346 40.74518173433494),4,Queens,402,26,37,12,14,3315,1740,Municipal Facilities,backed,07/06/2016,43-31 39th Street,43-31 39th Street,39th Street,Queens Boulevard & 43rd Avenue,Queens,402,Not Applicable,Sunnyside Shines,40.74519,-73.925909,X,AREA OF MINIMAL FLOOD HAZARD,
POINT (-73.77124862399248 40.76413172572892),4,Queens,411,19,26,11,6,1511,327,BID,backed,01/28/2013,40-07 Bell Blvd,40-07 Bell Blvd,Bell Blvd,40th and 41st Avenues,Queens,411,Not Applicable,Bell Blvd BBA,40.76414,-73.77125,X,AREA OF MINIMAL FLOOD HAZARD,
POINT (-73.80499561420363 40.73269173264893),4,Queens,408,24,25,16,6,3202,2348,General,backed,06/07/2016,69-21 164th Street,69-21 164th Street,164th Street,Jewel Avenue and 69th Avenue,Queens,408,Not Applicable,Not Applicable,40.7327,-73.804997,X,AREA OF MINIMAL FLOOD HAZARD,
POINT (-73.92036557650955 40.74435473470586),4,Queens,402,26,37,12,14,1081,203,BID,backed,09/11/2012,43-46 44th Street,43-46 44th Street,44th Street,Queens Boulevard and 43rd Avenue,Queens,402,Not Applicable,Sunnyside Shines,40.744363,-73.920367,X,AREA OF MINIMAL FLOOD HAZARD,
POINT (-73.77997962279322 40.72953373233863),4,Queens,408,23,25,11,6,747,563,Bus Route,backless,04/16/2013,189-19 & 189-23 Union Turnpike,189-23 Union Turnpike,Union Turnpike,189th & 190th Street,Queens,408,Q46,Not Applicable,40.729542,-73.779981,X,AREA OF MINIMAL FLOOD HAZARD,
POINT (-73.82165561127958 40.690789741571656),4,Queens,409,28,24,10,5,3247,1853,Municipal Facilities,backed,05/19/2016,101-33 124th Street,101-33 124th Street,124th Street,101st Avenue & 108th Avenue,Queens,409,Not Applicable,Not Applicable,40.690798,-73.821657,X,AREA OF MINIMAL FLOOD HAZARD,
POINT (-73.88696058739394 40.749467732640774),4,Queens,403,25,39,13,14,3577,3,General,backed 2,01/20/2017,79-01 37th Avenue,79-01 37th Avenue,37th Avenue,79th Street & 78th Street,Queens,403,Not Applicable,Not Applicable,40.749476,-73.886962,X,AREA OF MINIMAL FLOOD HAZARD,
POINT (-73.76858662461972 40.76035472563622),4,Queens,411,19,25,11,6,2547,601,Municipal Facilities,backed,06/11/2014,214-20 Northern Boulevard,214-20 Northern Boulevard,Northern Boulevard,214th Place and Bell Boulevard,Queens,411,Not Applicable,Not Applicable,40.760363,-73.768588,X,AREA OF MINIMAL FLOOD HAZARD,
POINT (-73.94022557068557 40.74786873451837),4,Queens,402,26,37,12,12,4141,526,Other,backed 2,03/14/2019,27-20 Jackson Avenue,27-20 Jackson Avenue,Dutch Kills Street,Dutch Kills Street,Queens,402,Not Applicable,Not Applicable,40.747877,-73.940227,X,AREA OF MINIMAL FLOOD HAZARD,3
POINT (-73.88419258765929 40.755684731223404),4,Queens,403,25,34,13,14,1980,959,General,backed,09/26/2013,83-17 Northern Boulevard,83-17 Northern Boulevard,Northern Boulevard,83rd & 84th Street,Queens,403,Not Applicable,Not Applicable,40.755693,-73.884194,X,AREA OF MINIMAL FLOOD HAZARD,
POINT (-73.8625749634915 40.74953406636619),4,Queens,404,21,39,13,14,1342,0,Plaza,backless,06/01/2018,103-12 Roosevelt Avenue,103-12 Roosevelt Avenue,Roosevelt Avenue,104th and National Streets,Queens,404,Q20A,Not Applicable,40.7495340664,-73.8625749635,X,AREA OF MINIMAL FLOOD HAZARD,
POINT (-73.88070558974294 40.74162473359375),4,Queens,404,25,39,16,6,4219,513,Bus Route,backed,01/31/2019,8277 Broadway,8277 Broadway,Broadway,Whitney Avenue & 45th Avenue,Queens,404,Q52,Not Applicable,40.741633,-73.880707,X,AREA OF MINIMAL FLOOD HAZARD,
POINT (-73.94956456783977 40.740358736500156),4,Queens,402,26,37,12,12,2066,779,Community Health Centers,backed,08/14/2013,21-10 Borden Avenue,21-10 Borden Avenue,Borden Avenue,21st and 23rd Streets,Queens,402,Not Applicable,Not Applicable,40.740367,-73.949566,AE,,1
POINT (-73.86276659679952 40.72939873490624),4,Queens,406,29,28,16,6,2290,1154,General,backed,12/11/2013,95-02 63rd Drive,95-02 63rd Drive,63rd Drive,Queens Blvd & Saunders Street,Queens,406,Not Applicable,Not Applicable,40.729407,-73.862768,X,AREA OF MINIMAL FLOOD HAZARD,
POINT (-73.83331560644864 40.71595173714161),4,Queens,406,29,27,14,6,2162,0,General,backed 2,09/24/2013,116-55 Queens Boulevard,116-55 Queens Boulevard,Queens Boulevard,77th and 78th Avenues,Queens,406,Q60,Not Applicable,40.71596,-73.833317,X,AREA OF MINIMAL FLOOD HAZARD,
POINT (-73.8869952699802 40.75539594889567),4,Queens,403,25,34,13,14,1981,981,General,backed,09/26/2013,80-15 Northern Boulevard,80-15 Northern Boulevard,Northern Boulevard,80th & 81st Street,Queens,403,Not Applicable,Not Applicable,40.7553959489,-73.88699527,X,AREA OF MINIMAL FLOOD HAZARD,
POINT (-73.8625749634915 40.74953406636619),4,Queens,404,21,39,13,14,1342,387,Plaza,backed 2,06/01/2018,103-12 Roosevelt Avenue,103-12 Roosevelt Avenue,Roosevelt Avenue,104th and National Streets,Queens,404,Q20A,Not Applicable,40.7495340664,-73.8625749635,X,AREA OF MINIMAL FLOOD HAZARD,
POINT (-73.8715365928856 40.7338117345384),4,Queens,404,25,35,16,6,3581,4,General,backed 2,01/21/2017,90-20 Queens Boulevard,90-20 Queens Boulevard,Queens Boulevard,57th Avenue & Woodhaven Boulevard,Queens,404,Not Applicable,Not Applicable,40.73382,-73.871538,X,AREA OF MINIMAL FLOOD HAZARD,6
POINT (-73.9259795741532 40.76225373083878),4,Queens,401,22,36,12,12,4139,0,Other,backless,05/01/2018,3015 Broadway,3015 Broadway,31st Street,Broadway & 31st Avenue,Queens,401,Q102,Not Applicable,40.762262,-73.925981,X,AREA OF MINIMAL FLOOD HAZARD,
POINT (-73.7339425678159 40.72757297594305),4,Queens,413,23,33,11,5,1583,300,General,backed,02/05/2013,223-88 91st Road,223-88 91st Road,Plaza,"Braddock Avenue, Moline Street and 91st Road",Queens,413,Not Applicable,Not Applicable,40.7275729759,-73.7339425678,X,AREA OF MINIMAL FLOOD HAZARD,
POINT (-73.79202862157585 40.68030974214645),4,Queens,412,28,32,10,5,2602,119,Municipal Facilities,backed 2,04/20/2017,117-11 Sutphin Boulevard,117-11 Sutphin Boulevard,Sutphin Boulevard,Foch Boulevard and 118th Avenue,Queens,412,Not Applicable,Not Applicable,40.680318,-73.79203,X,AREA OF MINIMAL FLOOD HAZARD,5
POINT (-73.91085357799209 40.77600872812172),4,Queens,401,22,36,12,14,3512,2454,General,backed,11/30/2016,22-04 31st Street,22-04 31st Street,31st Street,Ditmars Blvd & 23rd Avenue,Queens,401,Not Applicable,Not Applicable,40.776017,-73.910855,X,AREA OF MINIMAL FLOOD HAZARD,
POINT (-73.92993857371776 40.75632773244688),4,Queens,401,26,30,12,12,4136,0,Other,backless,05/01/2018,3601 31st Street,3601 31st Street,31st Street,36th Avenue & 37th Avenue,Queens,401,Q102,Not Applicable,40.756336,-73.92994,X,AREA OF MINIMAL FLOOD HAZARD,
POINT (-73.88682958981732 40.701431741313336),4,Queens,405,30,38,15,6,3541,2235,General,backed,12/09/2016,66-40 Myrtle Avenue,66-40 Myrtle Avenue,Myrtle Avenue,66th Place & 67th Street,Queens,405,Not Applicable,Not Applicable,40.70144,-73.886831,X,AREA OF MINIMAL FLOOD HAZARD,
POINT (-73.9505615668042 40.74361673535931),4,Queens,402,26,37,12,12,1577,350,General,backed,12/12/2012,12-01 Jackson Avenue,12-01 Jackson Avenue,Jackson Avenue,48th Avenue & 47th Road,Queens,402,Not Applicable,Not Applicable,40.743625,-73.950563,X,AREA OF MINIMAL FLOOD HAZARD,3
POINT (-73.84450860299104 40.72061773671267),4,Queens,406,29,28,16,6,3423,2305,General,backed,07/13/2016,107-37 71st Avenue,107-37 71st Aveue,71st Avenue,Austin Street & Queens Boulevard,Queens,406,Not Applicable,Not Applicable,40.720626,-73.84451,X,AREA OF MINIMAL FLOOD HAZARD,
POINT (-73.87574659360965 40.70314074096412),4,Queens,405,30,38,15,6,2529,1244,Municipal Facilities,backed,06/17/2014,78-60 73rd Place,78-60 73rd Place,73rd Place,78th Avenue & Myrtle Avenue,Queens,405,Not Applicable,Not Applicable,40.703149,-73.875748,X,AREA OF MINIMAL FLOOD HAZARD,
POINT (-73.7497974948695 40.768480734395595),4,Queens,411,19,26,11,3,2466,1119,Plaza,backless,08/19/2014,23421 41st Avenue,23421 41st Avenue,41st Avenue,235th Street,Queens,411,Not Applicable,Not Applicable,40.7684807344,-73.7497974949,X,AREA OF MINIMAL FLOOD HAZARD,3
POINT (-73.74317163824048 40.67306074225112),4,Queens,413,31,29,14,5,3241,2031,Municipal Facilities,backed,05/17/2016,229-02 137th Avenue,229-02 137th Avenue,137th Avenue,229th Street & 230th Street,Queens,413,Not Applicable,Not Applicable,40.673069,-73.743173,X,AREA OF MINIMAL FLOOD HAZARD,5
POINT (-73.82612660696776 40.75157972988131),4,Queens,407,20,25,16,6,502,80,Bus Route,backless,06/20/2012,43-45 Main Street,,Main Street,Elder and Cherry Avenues,Queens,407,Q44,Not Applicable,40.751588,-73.826128,X,AREA OF MINIMAL FLOOD HAZARD,5
POINT (-73.91761357805096 40.74302973426665),4,Queens,402,26,37,12,14,3336,1176,General,backed,07/07/2016,47-01 Queens Boulevard,47-01 Queens Boulevard,Queens Boulevard,47th Street & 48th Street,Queens,402,Not Applicable,Sunnyside Shines,40.743038,-73.917615,X,AREA OF MINIMAL FLOOD HAZARD,
POINT (-73.8870195875431 40.75536873154103),4,Queens,403,25,34,13,14,1975,602,General,backed,09/25/2013,80-10 Northern Boulevard,80-10 Northern Boulevard,Northern Boulevard,80th & 81st Street,Queens,403,Not Applicable,Not Applicable,40.755377,-73.887021,X,AREA OF MINIMAL FLOOD HAZARD,
POINT (-73.82609060733185 40.75149972937553),4,Queens,407,20,25,16,6,3359,2167,General,backed,07/13/2016,43-50 Main Street,43-50 Main Street,Main Street,Elder Avenue & Peck Avenue,Queens,407,Not Applicable,Not Applicable,40.751508,-73.826092,X,AREA OF MINIMAL FLOOD HAZARD,5
POINT (-73.89447758434065 40.75458573148589),4,Queens,403,25,34,13,14,3159,1814,General,backed,09/10/2015,72-06 Northern Boulevard,72-06 Northern Boulevard,Northern Boulevard,72nd Street & 73rd Street,Queens,403,Q66,Not Applicable,40.754594,-73.894479,X,AREA OF MINIMAL FLOOD HAZARD,6
POINT (-73.88388959111523 40.70167574173325),4,Queens,405,30,38,15,6,3304,0,Municipal Facilities,,,68-20 Myrtle Avenue,72-21 68th Street,68th Street,Myrtle Avenue & Cooper Avenue,Queens,405,Not Applicable,Not Applicable,40.701684,-73.883891,X,AREA OF MINIMAL FLOOD HAZARD,
POINT (-73.86186259897788 40.692189742971735),4,Queens,409,30,38,15,7,2271,1095,BID,backed,12/05/2013,80-19 Jamaica Avenue,80-19 Jamaica Avenue,Jamaica Avenue,80th Street & Forest Pkwy,Queens,409,Not Applicable,Woodhaven,40.692198,-73.861864,X,AREA OF MINIMAL FLOOD HAZARD,
POINT (-73.77228862347266 40.76608172496984),4,Queens,411,19,26,11,6,1508,351,BID,backed,01/28/2013,38-33 Bell Blvd,38-33 Bell Blvd,Bell Blvd,38th and 39th Avenues,Queens,411,Not Applicable,Bell Blvd BBA,40.76609,-73.77229,X,AREA OF MINIMAL FLOOD HAZARD,
POINT (-73.8752615917033 40.74853073213052),4,Queens,404,21,34,13,14,2864,1436,General,backed,11/12/2014,91-08 Roosevelt Avenue,91-08 Roosevelt Avenue,Roosevelt Avenue,Aske Street & Benham Street,Queens,404,Not Applicable,Not Applicable,40.748539,-73.875263,X,AREA OF MINIMAL FLOOD HAZARD,
POINT (-73.86436959543266 40.7269827356669),4,Queens,406,29,28,16,6,2539,1242,Municipal Facilities,backed,06/17/2014,91-41 63rd Drive,91-41 63rd Drive,Austin Street,Austin Street and 63rd Avenue,Queens,406,Not Applicable,Not Applicable,40.726991,-73.864371,X,AREA OF MINIMAL FLOOD HAZARD,
POINT (-73.92681657441263 40.76262773097007),4,Queens,401,22,36,12,12,2823,0,General,backed,11/06/2014,29-10 Broadway,29-10 Broadway,Broadway,29th Street & 30th Street,Queens,401,Not Applicable,Not Applicable,40.762636,-73.926818,X,AREA OF MINIMAL FLOOD HAZARD,
POINT (-73.88969658663173 40.74916873255832),4,Queens,403,25,39,13,14,2198,1054,General,backed,10/29/2013,76-10 37th Avenue,76-10 37th Avenue,37th Avenue,76th & 77th Street,Queens,403,Not Applicable,Not Applicable,40.749177,-73.889698,X,AREA OF MINIMAL FLOOD HAZARD,
POINT (-73.77040005036534 40.76240283767085),4,Queens,411,19,26,11,6,1515,324,BID,backed,01/30/2013,42-10 Bell Blvd,42-10 Bell Blvd,Bell Blvd,42nd and 43rd Avenues,Queens,411,Not Applicable,Bell Blvd BBA,40.7624028377,-73.7704000504,X,AREA OF MINIMAL FLOOD HAZARD,
POINT (-73.95796956527101 40.74474473601727),4,Queens,402,26,37,12,12,2766,1651,Municipal Facilities,backed,11/14/2014,48-09 Center Boulevard,48-09 Center Boulevard,Center Boulevard,48th Avenue & 49th Avenue,Queens,402,Not Applicable,Not Applicable,40.744753,-73.957971,AE,,2
POINT (-73.7395716369628 40.70590473558842),4,Queens,413,27,33,14,5,4042,307,Bus Route,backless 2,05/09/2018,111-27 Springfield Boulevard,111-27 Springfield Boulevard,Springfield Boulevard,112th Avenue & 110th Avenue,Queens,413,Q27,Not Applicable,40.705913,-73.739573,X,AREA OF MINIMAL FLOOD HAZARD,
POINT (-73.83691761342699 40.57933776351468),4,Queens,414,32,23,15,5,1953,1596,BID,backed,12/02/2014,186 Beach 116th Street,186 Beach 116th Street,Beach 116th Street,Flight 587 Park Memorial Rockaway Beach Blvd,Queens,414,Not Applicable,Beach 116th Street Partnership,40.579346,-73.836919,X,AREA OF MINIMAL FLOOD HAZARD,1
POINT (-73.9180305766466 40.76530073018736),4,Queens,401,22,36,12,12,2850,1608,General,backless,12/16/2014,35-08 30th Avenue,35-08 30th Avenue,30th Avenue,35th Street and 36th Street,Queens,401,Q18,Not Applicable,40.765309,-73.918032,X,AREA OF MINIMAL FLOOD HAZARD,
POINT (-73.88492858839531 40.74968273187502),4,Queens,403,25,39,13,14,2053,801,General,backless,09/24/2013,81-27 37th Avenue,81-27 37th Avenue,82nd Street,35th & 37th Avenue,Queens,403,Q32,Not Applicable,40.749691,-73.88493,X,AREA OF MINIMAL FLOOD HAZARD,
POINT (-73.9012605844277 40.715033739110204),4,Queens,405,30,30,15,6,633,532,Bus Route,backless,04/12/2013,60-77 Fresh Pond Road,6077 Fresh Pond Road,Fresh Pond Road,Eliot Avenue & 60th Drive,Queens,405,Q58,Not Applicable,40.715042,-73.901262,X,AREA OF MINIMAL FLOOD HAZARD,
POINT (-73.87157659341877 40.73383973455544),4,Queens,404,25,35,16,6,3185,517,AAR,backless 2,08/04/2014,90-15 Queens Boulevard,90-15 Queens Boulevard,Queens Boulevard,59th Avenue & 90th Street,Queens,404,Q11,Not Applicable,40.733848,-73.871578,X,AREA OF MINIMAL FLOOD HAZARD,6
POINT (-73.74336923986594 40.6968968227297),4,Queens,413,27,33,14,5,2604,703,Municipal Facilities,backless,07/11/2014,116-32 Springfield Boulevard,116-32 Springfield Boulevard,Springfield Boulevard,Linden Boulevard & 116th Road,Queens,413,Q27,Not Applicable,40.6968968227,-73.7433692399,X,AREA OF MINIMAL FLOOD HAZARD,
POINT (-73.84462960424851 40.693597741971324),4,Queens,409,32,38,10,7,2856,1428,Municipal Facilities,backed,11/21/2014,88-07 102nd Street,88-07 102nd Street,102nd Street,88th Avenue and 89th Avenue,Queens,409,Not Applicable,Not Applicable,40.693606,-73.844631,X,AREA OF MINIMAL FLOOD HAZARD,
POINT (-73.94263483639988 40.74718912721228),4,Queens,402,26,37,12,12,4109,568,General,backless,08/02/2018,25-29 44th Drive,25-29 44th Drive,44th Drive,Hunter Street & Jackson Avenue,Queens,402,Not Applicable,Long Island City,40.7471891272,-73.9426348364,X,AREA OF MINIMAL FLOOD HAZARD,4
POINT (-73.80767562304652 40.587960760918456),4,Queens,414,32,23,15,5,4232,510,Bus Route,backless,02/05/2019,81-04 Rockaway Beach Blvd,81-04 Rockaway Beach Blvd,Rockaway Beach Blvd,Beach 84th street & Beach 81st street,Queens,414,Q53,Not Applicable,40.587969,-73.807677,X,AREA OF MINIMAL FLOOD HAZARD,1
POINT (-73.89785358663445 40.69945474275486),4,Queens,405,34,38,12,7,2365,843,Senior Center,backed,02/05/2014,59-03 Summerfield Street,59-03 Summerfield Street,Summerfield Street,Myrtle Avenue & Forest Avenue,Queens,405,Not Applicable,Not Applicable,40.699463,-73.897855,X,AREA OF MINIMAL FLOOD HAZARD,
POINT (-73.79031562143135 40.695303739289656),4,Queens,412,27,32,14,5,2598,844,Municipal Facilities,backed,07/10/2014,108-91 Guy R. Brewer Boulevard,108-91 Guy R. Brewer Boulevard,Guy R. Brewer Boulevard,108th Avenue and 109th Avenue,Queens,412,Not Applicable,Not Applicable,40.695312,-73.790317,X,AREA OF MINIMAL FLOOD HAZARD,6
POINT (-73.91326658121717 40.706109741381105),4,Queens,405,34,37,12,7,2458,51,Health Care Facilities,backless,05/07/2014,461 Seneca Avenue,461 Seneca Avenue,Seneca Avenue,Harman Street and Himrod Street,Queens,405,B38,Not Applicable,40.706118,-73.913268,X,AREA OF MINIMAL FLOOD HAZARD,
POINT (-73.82067961249439 40.69146374171548),4,Queens,409,28,24,10,5,3246,1947,Municipal Facilities,backed,05/19/2016,125-19 101st Avenue,125-19 101st Avenue,101st Avenue,126th Street & 125th Street,Queens,409,Not Applicable,Not Applicable,40.691472,-73.820681,X,AREA OF MINIMAL FLOOD HAZARD,
POINT (-73.75655462954299 40.7487687279352),4,Queens,411,23,25,16,6,3348,621,Municipal Facilities,backed,07/11/2016,61-58 Springfield Boulevard,220-1 64th Avenue,64th Avenue,Springfield Boulevard & 220th Street,Queens,411,Not Applicable,Not Applicable,40.748777,-73.756556,X,AREA OF MINIMAL FLOOD HAZARD,
POINT (-73.78904962807083 40.59289375929129),4,Queens,414,31,31,10,5,4235,4657,Bus Route,backed,02/05/2019,219 Beach 59th St,219 Beach 59th St,Arverne Blvd,Beach 59th Street & Beach 62nd Street,Queens,414,Q53,Not Applicable,40.592902,-73.789051,AE,,1
POINT (-73.86317378439352 40.6793895819968),4,Queens,409,32,23,12,8,2375,2326,Plaza,backless,01/07/2014,7402 101st Avenue,7402 101st Avenue,Drew Street & 101st Street,Drew Street & 101st Street,Queens,409,Not Applicable,Not Applicable,40.679389582,-73.8631737844,X,AREA OF MINIMAL FLOOD HAZARD,4
POINT (-73.82788860531991 40.765157726720254),4,Queens,407,20,40,16,6,3806,198,Senior Safety,backed 2,06/21/2017,35-01 Union Street,138-99 Northern Blvd,Northern Blvd,Northern Blvd & 35th Avenue,Queens,407,Not Applicable,Not Applicable,40.765166,-73.82789,X,AREA OF MINIMAL FLOOD HAZARD,
POINT (-73.78029462027489 40.77174672443662),4,Queens,411,19,26,11,6,2981,1659,Municipal Facilities,backless,01/30/2015,32-24 Corporal Kennedy Street,32-24 Corporal Kennedy Street,Corporal Kennedy Street,32nd Avenue and 33rd Avenue,Queens,411,Q28,Not Applicable,40.771755,-73.780296,X,AREA OF MINIMAL FLOOD HAZARD,
POINT (-73.83210860789174 40.70101374023239),4,Queens,409,29,27,10,5,2295,1101,General,backed,12/09/2013,118-14 Hillside Avenue,118-14 Hillside Avenue,Hillside Avenue,Lefferts Blvd & Babbage Street,Queens,409,Not Applicable,Not Applicable,40.701022,-73.83211,X,AREA OF MINIMAL FLOOD HAZARD,
POINT (-73.95487956668302 40.74139773598106),4,Queens,402,26,37,12,12,4004,500,Municipal Facilities,backless 2,02/13/2018,5-49 Borden Avenue,51-98 Vernon Blvd,Vernon Blvd,Borden Avenue & 51st Street,Queens,402,Q103,Not Applicable,40.741406,-73.954881,X,0.2 PCT ANNUAL CHANCE FLOOD HAZARD,2
POINT (-73.9240645759031 40.74482873474503),4,Queens,402,26,37,12,14,1080,210,BID,backed,09/11/2012,43-42 40th Street,43-42 40th Street,40th Street,Queens Boulevard and 43rd Avenue,Queens,402,Not Applicable,Sunnyside Shines,40.744837,-73.924066,X,AREA OF MINIMAL FLOOD HAZARD,
POINT (-73.91051757847416 40.77598872776326),4,Queens,401,22,36,13,14,3517,2441,General,backed,10/17/2016,31-04 Ditmars Blvd,22-01 31st Street,31st Street,Ditmars Blvd & 23rd Avenue,Queens,401,Not Applicable,Not Applicable,40.775997,-73.910519,X,AREA OF MINIMAL FLOOD HAZARD,
POINT (-73.79623262562669 40.59066175986877),4,Queens,414,31,31,15,5,4234,0,Bus Route,backed,01/31/2019,6720 Rockaway Beach Blvd,6720 Rockaway Beach Blvd,Rockaway Beach Blvd,Beach 67th St & Beach 69th St,Queens,414,Q53,Not Applicable,40.59067,-73.796234,AE,,1
POINT (-73.92497457604526 40.74387773472701),4,Queens,402,26,37,12,14,2512,1503,BID,backed,07/25/2014,39-32 Queens Boulevard,39-32 Queens Boulevard,Queens Boulevard,39th Place & 40th Street,Queens,402,Not Applicable,Sunnyside Shines,40.743886,-73.924976,X,AREA OF MINIMAL FLOOD HAZARD,
POINT (-73.88456358892604 40.743725733227194),4,Queens,404,25,39,16,6,3009,1710,General,backed,01/29/2015,80-19 Broadway,80-19 Broadway,Broadway,Pettit Avenue and Britton Avenue,Queens,404,Not Applicable,Not Applicable,40.743734,-73.884565,X,AREA OF MINIMAL FLOOD HAZARD,
POINT (-73.87574659360965 40.70314074096412),4,Queens,405,30,38,15,6,2529,81,Municipal Facilities,backed 2,06/17/2014,78-60 73rd Place,78-60 73rd Place,73rd Place,78th Avenue & Myrtle Avenue,Queens,405,Not Applicable,Not Applicable,40.703149,-73.875748,X,AREA OF MINIMAL FLOOD HAZARD,
POINT (-73.76925062930641 40.67281174317762),4,Queens,412,31,32,10,5,2844,360,Municipal Facilities,backed,12/11/2014,171-05 137th Avenue,171-05 137th Avenue,137th Avenue,171st Street and 172nd Street,Queens,412,Not Applicable,Not Applicable,40.67282,-73.769252,X,AREA OF MINIMAL FLOOD HAZARD,4
POINT (-73.86319359631113 40.72876873582981),4,Queens,406,29,28,16,6,1792,1103,General,backed,02/10/2014,94-05 63rd Drive,94-05 63rd Drive,63rd Drive,Booth Street & Saunders Street,Queens,406,Not Applicable,Not Applicable,40.728777,-73.863195,X,AREA OF MINIMAL FLOOD HAZARD,6
POINT (-73.76246863176807 40.68013974117297),4,Queens,412,27,29,14,5,3618,78,General,backed 2,05/13/2017,130-35 Merrick Blvd,130-35 Merrick Blvd,Farmers Blvd,Farmers Blvd & Sideway Place,Queens,412,Not Applicable,Not Applicable,40.680148,-73.76247,X,AREA OF MINIMAL FLOOD HAZARD,5
POINT (-73.88237258828559 40.75585773121188),4,Queens,403,25,34,13,14,2004,929,General,backless,09/27/2013,85-10 Northern Boulevard,85-10 Northern Boulevard,Northern Boulevard,85th & 86th Street,Queens,403,Q66,Not Applicable,40.755866,-73.882374,X,AREA OF MINIMAL FLOOD HAZARD,
POINT (-73.93953557038706 40.75701973279574),4,Queens,401,26,37,12,12,2541,504,Municipal Facilities,backed 2,02/09/2018,38-44 21st Street,38-44 21st Street,21st Street,37th Avenue and 38th Avenue,Queens,401,Not Applicable,Not Applicable,40.757028,-73.939537,X,AREA OF MINIMAL FLOOD HAZARD,4
POINT (-73.81373360901344 40.788671721663945),4,Queens,407,19,26,11,3,2183,1152,General,backed,12/09/2013,14-01 150th Street,14-01 150th Street,150th Street,14th Avenue & Cross Island Parkway,Queens,407,Not Applicable,Not Applicable,40.78868,-73.813735,X,AREA OF MINIMAL FLOOD HAZARD,
POINT (-73.92016957530842 40.76671072975652),4,Queens,401,22,36,12,12,2304,1356,General,backed,12/12/2013,32-11 Newtown Avenue,32-11 Newtown Avenue,Newtown Avenue,32nd Street & 33rd Street,Queens,401,Not Applicable,Not Applicable,40.766719,-73.920171,X,AREA OF MINIMAL FLOOD HAZARD,
POINT (-73.90256458238304 40.74567773326606),4,Queens,402,26,34,12,14,4214,460,Bus Route,backed 2,01/24/2019,61-24 Roosevelt Avenue,61-24 Roosevelt Avenue,Roosevelt Avenue,61st Street & 62nd Street,Queens,402,Q52,Not Applicable,40.745686,-73.902566,X,AREA OF MINIMAL FLOOD HAZARD,
POINT (-73.86430759613137 40.734374734324945),4,Queens,404,21,35,16,14,2608,1393,General,backed,08/04/2014,96-05 Horace Harding Expressway,96-05 Horace Harding Expressway,Horace Harding Expresssway,Junction Boulevard & 99th Street,Queens,404,Not Applicable,Not Applicable,40.734383,-73.864309,X,AREA OF MINIMAL FLOOD HAZARD,6
POINT (-73.83274460951074 40.661415747737294),4,Queens,410,32,23,15,8,3262,1805,Municipal Facilities,backless,05/19/2016,158-20 101st Street,158-20 101st Street,101st Street,158th Avenue & 159th Avenue,Queens,410,Q11,Not Applicable,40.661424,-73.832746,AE,,1
POINT (-73.85382359871836 40.732280734608366),4,Queens,406,29,27,16,6,3210,1768,General,backed,05/05/2016,63-55 102nd Street,63-55 102nd Street,64th Avenue,102nd Street & 103rd Street,Queens,406,Not Applicable,Not Applicable,40.732289,-73.853825,X,AREA OF MINIMAL FLOOD HAZARD,
POINT (-73.8625749634915 40.74953406636619),4,Queens,404,21,39,13,14,1342,0,Plaza,backless,06/01/2018,103-12 Roosevelt Avenue,103-12 Roosevelt Avenue,Roosevelt Avenue,104th and National Streets,Queens,404,Q20A,Not Applicable,40.7495340664,-73.8625749635,X,AREA OF MINIMAL FLOOD HAZARD,
POINT (-73.89058858576854 40.74908673218888),4,Queens,403,25,39,13,14,4107,592,General,backed 2,02/07/2019,75-15 37th Avenue,75-15 37th Avenue,37th Avenue,75th Street & 76th Street,Queens,403,Not Applicable,Not Applicable,40.749095,-73.89059,X,AREA OF MINIMAL FLOOD HAZARD,
POINT (-73.75318163904649 40.60298875595709),4,Queens,414,31,23,10,5,2446,1849,Plaza,backed,12/09/2015,10-31 Beach 20th Street,10-31 Beach 20th Street,Plaza,Beach 20th & Beach 21st Street,Queens,414,Not Applicable,Not Applicable,40.602997,-73.753183,X,AREA OF MINIMAL FLOOD HAZARD,1
POINT (-73.84710960469675 40.681274744451734),4,Queens,410,32,23,15,8,2600,850,Municipal Facilities,backed,07/10/2014,92-24 Rockaway Boulevard,92-24 Rockaway Boulevard,Rockaway Boulevard,92nd Street and 93rd Street,Queens,410,Not Applicable,Not Applicable,40.681283,-73.847111,X,AREA OF MINIMAL FLOOD HAZARD,5
POINT (-73.83831260669028 40.6797917438129),4,Queens,410,32,38,10,5,2954,1216,Municipal Facilities,backless,12/22/2014,101-21 Rockaway Boulevard,101-21 Rockaway Boulevard,Rockaway Boulevard,101st Street & 102nd Street,Queens,410,Q7,Not Applicable,40.6798,-73.838314,X,AREA OF MINIMAL FLOOD HAZARD,
POINT (-73.75598862972154 40.75232472696045),4,Queens,411,23,26,16,6,2978,1640,Municipal Facilities,backless,01/28/2015,5700 223rd Street,5700 223rd Street,Springfield Boulevard,58th Avenue and 56th Avenue,Queens,411,Q27,Not Applicable,40.752333,-73.75599,X,AREA OF MINIMAL FLOOD HAZARD,
POINT (-73.88369458902135 40.74329173372283),4,Queens,404,25,39,16,6,3010,1729,General,backed,02/02/2015,81-04 Broadway,81-04 Broadway,Broadway,81st Street and 82nd Street,Queens,404,Not Applicable,Not Applicable,40.7433,-73.883696,X,AREA OF MINIMAL FLOOD HAZARD,
POINT (-73.78246862520297 40.68335774135726),4,Queens,412,27,32,10,5,2074,710,Community Health Centers,backed,08/05/2013,118-11 Guy R. Brewer Boulevard,118-11 Guy R. Brewer Boulevard,Guy R. Brewer Boulevard,Foch Boulevard and 119th Avenue,Queens,412,Not Applicable,Not Applicable,40.683366,-73.78247,X,AREA OF MINIMAL FLOOD HAZARD,5
POINT (-73.91152057766824 40.776713728160104),4,Queens,401,22,36,13,14,3515,2458,General,backed,12/03/2016,29-25 Ditmars Blvd,29-25 Ditmars Blvd,Ditmars Blvd,31st Street & 29th Street,Queens,401,Not Applicable,Not Applicable,40.776722,-73.911522,X,AREA OF MINIMAL FLOOD HAZARD,
POINT (-73.78342162271367 40.71061573623008),4,Queens,412,27,29,14,5,2801,1437,Municipal Facilities,backed,11/20/2014,179-01 90th Avenue,179-01 90th Avenue,179th Street,90th Avenue & Hillside Avenue,Queens,412,Not Applicable,Not Applicable,40.710624,-73.783423,X,AREA OF MINIMAL FLOOD HAZARD,
POINT (-73.75318163904649 40.60298875595709),4,Queens,414,31,23,10,5,2446,940,Plaza,backed,12/09/2015,10-31 Beach 20th Street,10-31 Beach 20th Street,Plaza,Beach 20th & Beach 21st Street,Queens,414,Not Applicable,Not Applicable,40.602997,-73.753183,X,AREA OF MINIMAL FLOOD HAZARD,1
POINT (-73.81403161329932 40.702522738720205),4,Queens,412,24,24,14,5,3628,75,General,backed 2,03/25/2017,138-42 Jamaica Avenue,138-42 Jamaica Avenue,Jamaica Avenue,Queens Blvd & 139th Street,Queens,412,Q24,Not Applicable,40.702531,-73.814033,X,AREA OF MINIMAL FLOOD HAZARD,
POINT (-73.94134157013612 40.750819734167194),4,Queens,402,26,37,12,12,1875,798,General,backed 2,09/24/2013,24-02 Queens Plaza South,24-02 Queens Plaza South,24th Street,24th Street & Crescent Street,Queens,402,Not Applicable,Long Island City,40.750828,-73.941343,X,AREA OF MINIMAL FLOOD HAZARD,5
POINT (-73.7887756225149 40.69315773986434),4,Queens,412,28,32,10,5,3519,2335,General,backed,12/09/2016,110-04 Guy R Brewer Blvd,110-04 Guy R Brewer Blvd,Guy R Brewer Blvd,Brinkenhoff Avenue & 110th Road,Queens,412,Q111,Not Applicable,40.693166,-73.788777,X,AREA OF MINIMAL FLOOD HAZARD,6
POINT (-73.75318163904649 40.60298875595709),4,Queens,414,31,23,10,5,2446,1674,Plaza,backed,12/09/2015,10-31 Beach 20th Street,10-31 Beach 20th Street,Plaza,Beach 20th & Beach 21st Street,Queens,414,Not Applicable,Not Applicable,40.602997,-73.753183,X,AREA OF MINIMAL FLOOD HAZARD,1
POINT (-73.82097061296476 40.67026274577826),4,Queens,410,32,31,15,5,588,149,Bus Route,backless,06/29/2012,135-08 Lefferts Boulevard,,Lefferts Boulevard,135th and 149th Avenues,Queens,410,Q10,Not Applicable,40.670271,-73.820972,X,AREA OF MINIMAL FLOOD HAZARD,6
POINT (-73.8645805954646 40.73700173378069),4,Queens,404,21,35,13,14,2976,598,Municipal Facilities,backless,11/24/2014,96-15 57th Avenue,96-17 57th Avenue,57th Avenue,96th Street & 97th Street,Queens,404,Q38,Not Applicable,40.73701,-73.864582,X,AREA OF MINIMAL FLOOD HAZARD,6
POINT (-73.90949457845012 40.77709672795894),4,Queens,401,22,36,13,14,1024,276,Senior Center,backed,04/19/2013,21-45 31st Street,21-45 31st Street,31st Street,21st Avenue & Ditmars,Queens,401,Not Applicable,Not Applicable,40.777105,-73.909496,X,AREA OF MINIMAL FLOOD HAZARD,
POINT (-73.78791662250556 40.69925473870805),4,Queens,412,27,32,14,5,3615,63,Senior Center,backed 2,05/13/2017,107-36 Merrick Blvd,107-36 Merrick Blvd,Merrick Blvd,107th Avenue & Hendrickson Place,Queens,412,Not Applicable,Not Applicable,40.699263,-73.787918,X,AREA OF MINIMAL FLOOD HAZARD,6
POINT (-73.84733360128226 40.72211173592063),4,Queens,406,29,28,16,6,1174,357,Senior Center,backed,12/12/2012,106-06 Queens Boulevard,106-06 Queens Boulevard,69th Road,Austin Street and Queens Boulevard,Queens,406,Not Applicable,Not Applicable,40.72212,-73.847335,X,AREA OF MINIMAL FLOOD HAZARD,
POINT (-73.8699045933403 40.73599173454273),4,Queens,404,25,35,16,6,3965,443,Bus Route,backless 2,02/14/2018,56-50 92nd Street,56-50 92nd Street,92nd Street,56th Avenue & 57th Avenue,Queens,404,Q29,Not Applicable,40.736,-73.869906,X,AREA OF MINIMAL FLOOD HAZARD,6
POINT (-73.77316662280319 40.76779672508475),4,Queens,411,19,26,11,6,1504,355,BID,backed,01/25/2013,36-01 Bell Blvd,36-01 Bell Blvd,Bell Blvd,36th and 38th Avenues,Queens,411,Not Applicable,Bell Blvd BBA,40.767805,-73.773168,X,AREA OF MINIMAL FLOOD HAZARD,
POINT (-73.82167960800082 40.75297272889758),4,Queens,407,20,40,16,6,3814,476,Senior Safety,backed 2,06/28/2017,44-39 Kissena Blvd,44-39 Kissena Blvd,Kissena Blvd,Cherry Avenue & 45th Avenue,Queens,407,Not Applicable,Not Applicable,40.752981,-73.821681,X,AREA OF MINIMAL FLOOD HAZARD,
POINT (-73.88308358841878 40.74987573186412),4,Queens,403,25,39,13,14,2169,890,General,backed,09/24/2013,83-25 37th Avenue,83-25 37th Avenue,37th Avenue,83rd and 84th Streets,Queens,403,Not Applicable,Not Applicable,40.749884,-73.883085,X,AREA OF MINIMAL FLOOD HAZARD,
POINT (-73.84353660300366 40.71995173641992),4,Queens,406,29,28,16,6,1897,529,General,backed,04/26/2013,107-06 71st Road,107-06 71st Road,71st Road,Austin Street & Queens Blvd,Queens,406,Not Applicable,Not Applicable,40.71996,-73.843538,X,AREA OF MINIMAL FLOOD HAZARD,
POINT (-73.88079958943884 40.741668733381765),4,Queens,404,25,39,16,6,3062,1973,General,backless,05/25/2016,82-66 Broadway,82-66 Broadway,Broadway,45th Avenue and Whitney Avenue,Queens,404,Q53,Not Applicable,40.741677,-73.880801,X,AREA OF MINIMAL FLOOD HAZARD,
POINT (-73.8625749634915 40.74953406636619),4,Queens,404,21,39,13,14,1342,0,Plaza,backed 2,06/01/2018,103-12 Roosevelt Avenue,103-12 Roosevelt Avenue,Roosevelt Avenue,104th and National Streets,Queens,404,Q20A,Not Applicable,40.7495340664,-73.8625749635,X,AREA OF MINIMAL FLOOD HAZARD,
POINT (-73.91896457714854 40.74495773387572),4,Queens,402,26,37,12,14,3868,1871,Senior Safety,backed,,45-26 43rd Avenue,45-26 43rd Avenue,43rd Avenue,46th Street & 45th Street,Queens,402,Not Applicable,Not Applicable,40.744966,-73.918966,X,AREA OF MINIMAL FLOOD HAZARD,
POINT (-73.83334760619695 40.715976736651186),4,Queens,406,29,27,14,6,3797,594,General,backed 2,06/28/2017,116-15 Queens Blvd,116-15 Queens Blvd,Queens Blvd,77th Avenue & 78th Avenue,Queens,406,Not Applicable,Not Applicable,40.715985,-73.833349,X,AREA OF MINIMAL FLOOD HAZARD,
POINT (-73.82032960820027 40.75175672981016),4,Queens,407,20,25,16,6,933,204,Senior Center,backed,09/12/2012,45-25 Kissena Boulevard,45-25 Kissena Boulevard,Kissena Boulevard,45th Avenue and Geranium Avenue,Queens,407,Not Applicable,Not Applicable,40.751765,-73.820331,X,AREA OF MINIMAL FLOOD HAZARD,
POINT (-73.8805135893791 40.75605373116828),4,Queens,403,25,34,13,14,3813,1694,Senior Safety,backless,06/21/2017,87-10 Northern Boulevard,87-10 Northern Boulevard,Northern Boulevard,87th Street & 88th Street,Queens,403,Not Applicable,Not Applicable,40.756062,-73.880515,X,AREA OF MINIMAL FLOOD HAZARD,
POINT (-73.84477059900412 40.78617072359389),4,Queens,407,19,27,11,14,1434,290,General,backed,04/19/2013,13-28 123rd Street,13-28 123rd Street,123rd Street,13th & 14th Avenue,Queens,407,Not Applicable,Not Applicable,40.786179,-73.844772,X,AREA OF MINIMAL FLOOD HAZARD,
POINT (-73.73517464090621 40.65971974432524),4,Queens,413,31,29,10,5,3325,615,Municipal Facilities,backed,07/08/2016,251-11 Weller Avenue,251-11 Weller Avenue,Weller Avenue,Caney Lane & 253rd Street,Queens,413,Not Applicable,Not Applicable,40.659728,-73.735176,X,AREA OF MINIMAL FLOOD HAZARD,4
POINT (-73.82775360533887 40.757510728669374),4,Queens,407,20,40,16,6,3810,90,Senior Safety,backless 2,08/17/2017,41-61 Kissena Blvd,41-61 Kissena Blvd,Kissena Blvd,Barclay Avenue & Sanford Avenue,Queens,407,Q65,Downtown Flushing Transit Hub,40.757519,-73.827755,X,AREA OF MINIMAL FLOOD HAZARD,
POINT (-73.8979405864088 40.6991357421409),4,Queens,405,34,38,12,7,2922,1120,Municipal Facilities,backless,11/19/2014,74-02 Forest Avenue,74-02 Forest Avenue,Forest Avenue,Summerfield Street & Decatur Street,Queens,405,Q39,Not Applicable,40.699144,-73.897942,X,AREA OF MINIMAL FLOOD HAZARD,
POINT (-73.85041360319896 40.69041374297431),4,Queens,409,32,38,15,7,3945,350,Bus Route,backed 2,11/13/2017,89-44 Woodhaven Blvd,89-44 Woodhaven Blvd,Woodhaven Blvd,91st Avenue and 89th Avenue,Queens,0,Q52,Not Applicable,40.690422,-73.850415,X,AREA OF MINIMAL FLOOD HAZARD,
POINT (-73.90808758167475 40.74193573426723),4,Queens,402,26,30,12,14,3544,752,General,backless,09/07/2016,57-17 Queens Boulevard,57-17 Queens Boulevard,Queens Boulevard,57th Street & 58th Street,Queens,402,Not Applicable,Not Applicable,40.741944,-73.908089,X,AREA OF MINIMAL FLOOD HAZARD,
POINT (-73.84192776319728 40.66406843906251),4,Queens,410,32,23,15,8,4080,591,General,backed 2,08/02/2018,92-06 156th Avenue,92-06 156th Avenue,156th Avenue,92nd Street & Cross Bay Boulevard,Queens,0,Not Applicable,Not Applicable,40.6640684391,-73.8419277632,X,0.2 PCT ANNUAL CHANCE FLOOD HAZARD,2
POINT (-73.7172646429186 40.735394729024875),4,Queens,413,23,33,11,3,2607,1348,Municipal Facilities,backed,07/11/2014,250-06 Hillside Avenue,250-06 Hillside Avenue,Hillside Avenue,250th Street and 251st Street,Queens,413,Not Applicable,Not Applicable,40.735403,-73.717266,X,AREA OF MINIMAL FLOOD HAZARD,
POINT (-73.82700760597942 40.7527037298076),4,Queens,407,20,25,16,6,501,132,Bus Route,backless,06/20/2012,42-95 Main Street,,Main Street,Cherry and Blossom Avenues,Queens,407,Q44,Not Applicable,40.752712,-73.827009,X,AREA OF MINIMAL FLOOD HAZARD,
POINT (-73.88749158721522 40.74499173284783),4,Queens,404,25,39,16,6,4217,799,Bus Route,backed 2,01/24/2019,7800 Broadway,7800 Broadway,Broadway,77th Street & Baxter Avenue,Queens,404,Q52,Not Applicable,40.745,-73.887493,X,AREA OF MINIMAL FLOOD HAZARD,
POINT (-73.79458361793166 40.73342273237732),4,Queens,408,24,25,11,6,3345,183,Municipal Facilities,backed,07/11/2016,68-05 Fresh Meadow Lane,68-05 Fresh Meadow Lane,Fresh Meadow Lane,68th Avenue & 69th Avenue,Queens,408,Not Applicable,Not Applicable,40.733431,-73.794585,X,AREA OF MINIMAL FLOOD HAZARD,
POINT (-73.82252060779685 40.76255572720438),4,Queens,407,20,40,16,6,3809,200,Senior Safety,backed 2,06/21/2017,38-30 Parsons Blvd,143-99 Roosevelt Avenue,Roosevelt Avenue,Roosevelt Avenue & 38th Avenue,Queens,407,Not Applicable,Not Applicable,40.762564,-73.822522,X,AREA OF MINIMAL FLOOD HAZARD,
POINT (-73.83760261290949 40.58051976405845),4,Queens,414,32,23,15,5,1954,1075,BID,backless,12/01/2014,222 Beach 116th Street,222 Beach 116th Street,Beach 116th Street,Rockaway Beach Blvd & Newport Avenue,Queens,414,Q53,Beach 116th Street Partnership,40.580528,-73.837604,X,AREA OF MINIMAL FLOOD HAZARD,1
POINT (-73.88522992824944 40.75558084695663),4,Queens,403,25,34,13,14,1979,963,General,backed,09/26/2013,82-01 Northern Boulevard,82-01 Northern Boulevard,Northern Boulevard,82nd & 83rd Street,Queens,403,Not Applicable,Not Applicable,40.755580847,-73.8852299282,X,AREA OF MINIMAL FLOOD HAZARD,
POINT (-73.91850157781292 40.74313473484766),4,Queens,402,26,37,12,14,1077,200,BID,backed,09/11/2012,46-09 Queens Blvd,46-09 Queens Blvd,Queens Blvd,46th Street and Carolyn Avenue,Queens,402,Not Applicable,Sunnyside Shines,40.743143,-73.918503,X,AREA OF MINIMAL FLOOD HAZARD,
POINT (-73.8625749634915 40.74953406636619),4,Queens,404,21,39,13,14,1342,384,Plaza,backed 2,06/01/2018,103-12 Roosevelt Avenue,103-12 Roosevelt Avenue,Roosevelt Avenue,104th and National Streets,Queens,404,Q20A,Not Applicable,40.7495340664,-73.8625749635,X,AREA OF MINIMAL FLOOD HAZARD,
POINT (-73.9187465754368 40.77022272955756),4,Queens,401,22,36,12,12,2821,1220,General,backless,11/06/2014,30-18 Astoria Boulevard,30-18 Astoria Boulevard,Astoria Boulevard,30th Street & 31st Street,Queens,401,Q19,Not Applicable,40.770231,-73.918748,X,AREA OF MINIMAL FLOOD HAZARD,
POINT (-73.88553158735625 40.75131073196653),4,Queens,403,25,39,13,14,1828,640,General,backed,06/18/2013,35-51 81st Street,35-51 81st Street,81st Street,35th & 37th Avenue,Queens,403,Q32,Not Applicable,40.751319,-73.885533,X,AREA OF MINIMAL FLOOD HAZARD,
POINT (-73.88360258790776 40.75633973104124),4,Queens,403,25,34,13,14,2257,1102,General,backed,12/05/2013,32-67 84th Street,32-67 84th Street,84th Street,Northern Boulevard & 32nd Avenue,Queens,403,Not Applicable,Not Applicable,40.756348,-73.883604,X,AREA OF MINIMAL FLOOD HAZARD,
POINT (-73.93953557038706 40.75701973279574),4,Queens,401,26,37,12,12,2541,0,Municipal Facilities,,02/09/2018,38-44 21st Street,38-44 21st Street,21st Street,37th Avenue and 38th Avenue,Queens,401,Not Applicable,Not Applicable,40.757028,-73.939537,X,AREA OF MINIMAL FLOOD HAZARD,4
POINT (-73.85043260048275 40.72221673624049),4,Queens,406,29,28,16,6,2820,1614,General,backed,11/19/2014,6860 Austin Street,6860 Austin Street,Austin Street,69th Road & Yellowstone Boulevard,Queens,406,Not Applicable,Not Applicable,40.722225,-73.850434,X,AREA OF MINIMAL FLOOD HAZARD,
POINT (-73.89174758563873 40.74852273224628),4,Queens,403,25,34,13,14,3521,2101,General,backed,12/10/2016,37-07 74th Street,37-07 74th Street,74th Street,74th Street & 73rd Street,Queens,403,Not Applicable,Not Applicable,40.748531,-73.891749,X,AREA OF MINIMAL FLOOD HAZARD,
POINT (-73.92037357737338 40.74335273424922),4,Queens,402,26,37,12,14,1083,195,BID,backed,09/11/2012,44-07 Queens Blvd,44-07 Queens Blvd,Queens Blvd,Locust and 45th Streets,Queens,402,Not Applicable,Sunnyside Shines,40.743361,-73.920375,X,AREA OF MINIMAL FLOOD HAZARD,
POINT (-73.84658660153293 40.72082073678659),4,Queens,406,29,28,16,6,1898,548,General,backed,04/26/2013,70-09 Austin Street,70-09 Austin Street,Austin Street,70th Avenue & 70th Road,Queens,406,Not Applicable,Not Applicable,40.720829,-73.846588,X,AREA OF MINIMAL FLOOD HAZARD,
POINT (-73.89053458662025 40.749091732725844),4,Queens,403,25,39,13,14,1219,658,General,backed,12/12/2012,75-23 37th Avenue,35-88 76th Street,76th Street,37th and 35th Avenues,Queens,403,Not Applicable,Not Applicable,40.7491,-73.890536,X,AREA OF MINIMAL FLOOD HAZARD,
POINT (-73.77172668987942 40.76502945656849),4,Queens,411,19,26,11,6,1509,361,BID,backed,01/28/2013,39-19 Bell Blvd,39-19 Bell Blvd,Bell Blvd,39th and 40th Avenues,Queens,411,Not Applicable,Bell Blvd BBA,40.7650294566,-73.7717266899,X,AREA OF MINIMAL FLOOD HAZARD,
POINT (-73.73671164017532 40.67482274177654),4,Queens,413,31,29,14,5,3326,9890,Municipal Facilities,backed,07/11/2016,233-15 Merrick Boulevard,233-15 Merrick Boulevard,Merrick Boulevard,233rd Street & 234th Street,Queens,413,Not Applicable,Not Applicable,40.674831,-73.736713,X,AREA OF MINIMAL FLOOD HAZARD,6
POINT (-73.93230857220321 40.753408733274185),4,Queens,401,26,37,12,12,4134,0,Other,backless,05/01/2018,38-27 31st Street,38-27 31st Street,31st Street,39th Avenue & 40th Avenue,Queens,401,Q102,Not Applicable,40.753417,-73.93231,X,AREA OF MINIMAL FLOOD HAZARD,6
POINT (-73.86545559793166 40.69159274260042),4,Queens,409,30,38,12,7,2272,1104,BID,backed,12/05/2013,76-07 Jamaica Avenue,76-07 Jamaica Avenue,Jamaica Avenue,76th Street & 77th Street,Queens,409,Not Applicable,Woodhaven,40.691601,-73.865457,X,AREA OF MINIMAL FLOOD HAZARD,
POINT (-73.8715365928856 40.7338117345384),4,Queens,404,25,35,16,6,3581,8,General,backed 2,01/21/2017,90-20 Queens Boulevard,90-20 Queens Boulevard,Queens Boulevard,57th Avenue & Woodhaven Boulevard,Queens,404,Not Applicable,Not Applicable,40.73382,-73.871538,X,AREA OF MINIMAL FLOOD HAZARD,6
POINT (-73.81961961082827 40.71013173740958),4,Queens,408,24,27,14,6,2018,0,General,backed,07/31/2013,85-12 Main Street,85-12 Main Street,Main Street,Queens Blvd & Manton Street,Queens,408,Not Applicable,Not Applicable,40.71014,-73.819621,X,AREA OF MINIMAL FLOOD HAZARD,
POINT (-73.88386575399504 40.747183290557714),4,Queens,404,25,39,16,14,1522,580,BID,backed,12/11/2012,40-14 82nd Street,40-14 82nd Street,82nd Street,Roosevelt Avenue and Ithaca Street,Queens,404,Not Applicable,82nd Street,40.7471832906,-73.883865754,X,AREA OF MINIMAL FLOOD HAZARD,
POINT (-73.87718559074902 40.736447734497),4,Queens,404,25,35,16,6,3014,1474,General,backed,02/02/2015,86-15 Queens Blvd,86-15 Queens Blvd,Queens Blvd,Broadway and 55th Avenue,Queens,404,Not Applicable,Not Applicable,40.736456,-73.877187,X,AREA OF MINIMAL FLOOD HAZARD,6
POINT (-73.88088359136485 40.71257173898441),4,Queens,405,30,28,15,6,2530,1247,Municipal Facilities,backed,06/17/2014,72-31 Metropolitan Avenue,72-31 Metropolitan Avenue,Metropolitan,Pleasantview Street and 73rd Place,Queens,405,Not Applicable,Not Applicable,40.71258,-73.880885,X,AREA OF MINIMAL FLOOD HAZARD,
POINT (-73.88417058835186 40.74976073224575),4,Queens,403,25,39,13,14,2256,1035,Community Health Centers,backed,12/05/2013,82-01 37th Avenue,82-01 37th Avenue,82nd Street,82nd and 83rd Streets,Queens,403,Not Applicable,82nd Street,40.749769,-73.884172,X,AREA OF MINIMAL FLOOD HAZARD,
POINT (-73.80033361465094 40.75938172704677),4,Queens,407,19,26,11,6,2358,1362,Senior Center,backed,03/14/2014,42-15 166th Street,42-15 166th Street,166th Street,43rd Avenue & Northern Blvd,Queens,407,Not Applicable,Not Applicable,40.75939,-73.800335,X,AREA OF MINIMAL FLOOD HAZARD,
POINT (-73.78742562314201 40.69131073974132),4,Queens,412,28,32,10,5,4033,480,Bus Route,backed 2,04/27/2018,111-20 Guy R Brewer Boulevard,111-20 Guy R Brewer Boulevard,Guy R Brewer Boulevard,Claude Avenue & Mathias Avenue,Queens,412,Q111,Not Applicable,40.691319,-73.787427,X,AREA OF MINIMAL FLOOD HAZARD,6
POINT (-73.86401859666269 40.727509735937154),4,Queens,406,29,28,16,6,1790,627,General,backed,06/19/2013,9209 63rd Drive,9209 63rd Drive,63rd Drive,Austin Street & Wetherole Street,Queens,406,Not Applicable,Not Applicable,40.727518,-73.86402,X,AREA OF MINIMAL FLOOD HAZARD,
POINT (-73.75318163904649 40.60298875595709),4,Queens,414,31,23,10,5,2446,1677,Plaza,backed,12/09/2015,10-31 Beach 20th Street,10-31 Beach 20th Street,Plaza,Beach 20th & Beach 21st Street,Queens,414,Not Applicable,Not Applicable,40.602997,-73.753183,X,AREA OF MINIMAL FLOOD HAZARD,1
POINT (-73.8625749634915 40.74953406636619),4,Queens,404,21,39,13,14,1342,391,Plaza,backed 2,06/01/2018,103-12 Roosevelt Avenue,103-12 Roosevelt Avenue,Roosevelt Avenue,104th and National Streets,Queens,404,Q20A,Not Applicable,40.7495340664,-73.8625749635,X,AREA OF MINIMAL FLOOD HAZARD,
POINT (-73.86181059883894 40.69461074204868),4,Queens,409,32,38,15,7,3319,1172,Municipal Facilities,backed,07/12/2016,85-41 Forest Parkway,85-41 Forest Parkway,Forest Parkway,85th Drive & 85th Road,Queens,409,Not Applicable,Not Applicable,40.694619,-73.861812,X,AREA OF MINIMAL FLOOD HAZARD,
POINT (-73.8108516106189 40.76463972663487),4,Queens,407,20,40,16,6,4058,571,General,backless 2,08/09/2018,154-08 Northern Boulevard,154-08 Northern Boulevard,Northern Boulevard,154th Street & 155th Street,Queens,0,Q13,Not Applicable,40.764648,-73.810853,X,AREA OF MINIMAL FLOOD HAZARD,
POINT (-73.90731157966961 40.760275730977455),4,Queens,401,22,30,12,14,3381,2422,Municipal Facilities,backed,12/03/2016,49-22 30th Avenue,49-22 30th Avenue,30th Avenue,49th Street & 50th Street,Queens,401,Not Applicable,Not Applicable,40.760284,-73.907313,X,AREA OF MINIMAL FLOOD HAZARD,
POINT (-73.94263483639988 40.74718912721228),4,Queens,402,26,37,12,12,4109,412,General,backed 2,08/02/2018,25-29 44th Drive,25-29 44th Drive,44th Drive,Hunter Street & Jackson Avenue,Queens,402,Not Applicable,Long Island City,40.7471891272,-73.9426348364,X,AREA OF MINIMAL FLOOD HAZARD,4
POINT (-73.88692558710487 40.755379730841064),4,Queens,403,25,34,13,14,1976,734,General,backed,09/25/2013,80-24 Northern Boulevard,80-24 Northern Boulevard,Northern Boulevard,80th & 81st Street,Queens,403,Not Applicable,Not Applicable,40.755388,-73.886927,X,AREA OF MINIMAL FLOOD HAZARD,
POINT (-73.82815360563689 40.75504372918812),4,Queens,407,20,40,16,6,498,143,Bus Route,backless,06/20/2012,42-08 Main Street,42-08 Main Street,Main Street,Maple and Franklin Avenues,Queens,407,Q44,Not Applicable,40.755052,-73.828155,X,AREA OF MINIMAL FLOOD HAZARD,
POINT (-73.91836157839799 40.73916873496946),4,Queens,402,26,37,12,14,4029,497,Bus Route,backless 2,04/26/2018,47-06 48th Avenue,47-06 48th Avenue,48th Avenue,47th Street & 48th Street,Queens,402,Q39,Not Applicable,40.739177,-73.918363,X,AREA OF MINIMAL FLOOD HAZARD,
POINT (-73.82714060557832 40.764110727013275),4,Queens,407,20,40,16,6,1622,120,Senior Center,backed 2,03/05/2013,138-46 Northern Boulevard,138-46 Northern Blvd,Northern Boulevard,Union Street & Bowne Street,Queens,407,Not Applicable,Not Applicable,40.764119,-73.827142,X,AREA OF MINIMAL FLOOD HAZARD,
POINT (-73.9125062097441 40.75591220542724),4,Queens,401,26,30,13,14,1635,579,Senior Center,backed,03/05/2013,48-14 Broadway,48-14 Broadway,Broadway,Newton Road & 49th Street,Queens,401,Not Applicable,Not Applicable,40.7559122054,-73.9125062097,X,AREA OF MINIMAL FLOOD HAZARD,
POINT (-73.85570359805256 40.74354273190646),4,Queens,404,21,39,13,14,2359,1045,Senior Center,backed,02/07/2014,107-24 Corona Avenue,107-24 Corona Avenue,Corona Avenue,51st & 52nd Avenue,Queens,404,Not Applicable,Not Applicable,40.743551,-73.855705,X,AREA OF MINIMAL FLOOD HAZARD,
POINT (-73.84861860091965 40.72357373592303),4,Queens,406,29,28,16,6,2975,1254,Municipal Facilities,backless,11/24/2014,104-41 Queens Boulevard,106-1 69th Road,69th Road,Queens Boulevard & Yellowstone Boulevard,Queens,406,QM4,Not Applicable,40.723582,-73.84862,X,AREA OF MINIMAL FLOOD HAZARD,
POINT (-73.8851055903179 40.70365274145117),4,Queens,405,30,38,15,6,3305,2217,Municipal Facilities,backed,05/27/2016,68-10 Central Avenue,68-10 Central Avenue,Central Avenue,68th Place & 69th Street,Queens,405,Not Applicable,Not Applicable,40.703661,-73.885107,X,AREA OF MINIMAL FLOOD HAZARD,
POINT (-73.7497974948695 40.768480734395595),4,Queens,411,19,26,11,3,2466,1212,Plaza,backless,08/19/2014,23421 41st Avenue,23421 41st Avenue,41st Avenue,235th Street,Queens,411,Not Applicable,Not Applicable,40.7684807344,-73.7497974949,X,AREA OF MINIMAL FLOOD HAZARD,3
POINT (-73.88280258864847 40.747555732316286),4,Queens,404,21,39,13,14,3545,136,Bus Route,backed,06/21/2017,Manuel de Dios Unanue Triangle,40-12 83rd Street,83rd Street,Baxter Avenue & Roosevelt Avenue,Queens,404,Q29,Not Applicable,40.747564,-73.882804,X,AREA OF MINIMAL FLOOD HAZARD,
POINT (-73.85836959574995 40.7579227298464),4,Queens,403,21,35,13,14,3363,2541,Municipal Facilities,backed,12/10/2016,111-12 Northern Boulevard,111-12 Northern Boulevard,Northern Boulevard,111th Street & 112th Street,Queens,403,Not Applicable,Not Applicable,40.757931,-73.858371,X,AREA OF MINIMAL FLOOD HAZARD,
POINT (-73.8248306065581 40.758680728573275),4,Queens,407,20,40,16,6,3808,2709,Senior Safety,backless,06/28/2017,142-30 Barclay Avenue,142-46 Sanford Avenue,Sanford Avenue,Bowne Street & Union Street,Queens,407,Q12,Not Applicable,40.758689,-73.824832,X,AREA OF MINIMAL FLOOD HAZARD,
POINT (-73.8625749634915 40.74953406636619),4,Queens,404,21,39,13,14,1342,0,Plaza,backed,06/01/2018,103-12 Roosevelt Avenue,103-12 Roosevelt Avenue,Roosevelt Avenue,104th and National Streets,Queens,404,Q20A,Not Applicable,40.7495340664,-73.8625749635,X,AREA OF MINIMAL FLOOD HAZARD,
POINT (-73.92071457529966 40.763655730877865),4,Queens,401,22,36,12,12,2253,1157,General,backed,12/09/2013,30-94 34th Street,30-94 34th Street,34th Street,30th and 31st Avenue,Queens,401,Not Applicable,Not Applicable,40.763664,-73.920716,X,AREA OF MINIMAL FLOOD HAZARD,
POINT (-73.72889764194221 40.69102873826943),4,Queens,413,27,33,14,5,3301,2378,Municipal Facilities,backed,05/27/2016,233-10 Linden Boulevard,233-10 Linden Boulevard,Linden Boulevard,233rd Street & 234th Street,Queens,413,Not Applicable,Not Applicable,40.691037,-73.728899,X,AREA OF MINIMAL FLOOD HAZARD,
POINT (-73.89150158636333 40.74897473260706),4,Queens,403,25,34,13,14,3542,2443,General,backed,12/10/2016,74-16 37th Avenue,74-16 37th Avenue,37th Avenue,74th Street & 75th Street,Queens,403,Not Applicable,Not Applicable,40.748983,-73.891503,X,AREA OF MINIMAL FLOOD HAZARD,
POINT (-73.92119457504337 40.766784730142206),4,Queens,401,22,36,12,12,2306,1365,General,backed,12/12/2013,31-14 30th Avenue,31-14 30th Avenue,30th Avenue,31st & 32nd Street,Queens,401,Not Applicable,Not Applicable,40.766793,-73.921196,X,AREA OF MINIMAL FLOOD HAZARD,
POINT (-73.75898062863627 40.740610729651955),4,Queens,411,23,24,11,6,3143,1744,General,backed,09/14/2015,215-19 73rd Avenue,215-19 73rd Avenue,73rd Avenue,Bell Boulevard & 215th Street,Queens,411,Q88,Not Applicable,40.740619,-73.758982,X,AREA OF MINIMAL FLOOD HAZARD,
POINT (-73.8562935994771 40.711297738620004),4,Queens,406,29,28,15,6,2996,1703,Health Care Facilities,backed,01/29/2015,96-10 Metropolitan Avenue,96-10 Metropolitan Avenue,Metropolitan Avenue,69th Avenue & Selfridge Street,Queens,406,Not Applicable,Not Applicable,40.711306,-73.856295,X,AREA OF MINIMAL FLOOD HAZARD,
POINT (-73.85849959668376 40.74401773214974),4,Queens,404,21,39,13,14,3964,451,Senior Safety,backed 2,02/09/2018,104-01 Corona Avenue,104-01 Corona Avenue,Corona Avenue,104th Street & 106th Street,Queens,404,Not Applicable,Not Applicable,40.744026,-73.858501,X,AREA OF MINIMAL FLOOD HAZARD,
POINT (-73.89256658594142 40.74887973235399),4,Queens,403,25,34,13,14,3811,2423,General,backed,06/28/2017,73-01 37th Avenue,73-01 37th Avenue,37th Avenue,73rd Street & 74th Street,Queens,403,Not Applicable,Not Applicable,40.748888,-73.892568,X,AREA OF MINIMAL FLOOD HAZARD,
POINT (-73.87157659341877 40.73383973455544),4,Queens,404,25,35,16,6,4220,857,Bus Route,backless 2,01/29/2019,90-15 Queens Blvd,90-15 Queens Blvd,Queens Blvd,59th Avenue & 90th Street,Queens,404,Q52,Not Applicable,40.733848,-73.871578,X,AREA OF MINIMAL FLOOD HAZARD,6
POINT (-73.86317378439352 40.6793895819968),4,Queens,409,32,23,12,8,2375,2052,Plaza,backless,01/07/2014,7402 101st Avenue,7402 101st Avenue,Drew Street & 101st Street,Drew Street & 101st Street,Queens,409,Not Applicable,Not Applicable,40.679389582,-73.8631737844,X,AREA OF MINIMAL FLOOD HAZARD,4
POINT (-73.84677160525086 40.67640174497792),4,Queens,410,32,23,15,8,2830,637,Municipal Facilities,backless,12/02/2014,90-15 Sutter Avenue,90-15 Sutter Avenue,Sutter Avenue,90th Street and 91st Street,Queens,410,Q72,Not Applicable,40.67641,-73.846773,X,AREA OF MINIMAL FLOOD HAZARD,5
POINT (-73.8451566053934 40.68071974395832),4,Queens,410,32,23,15,8,3948,359,Bus Route,backless 2,11/13/2017,10354 94th St,10354 94th St,Woodhaven Blvd,Rockaway blvd & 94th Street,Queens,0,Q52,Not Applicable,40.680728,-73.845158,X,AREA OF MINIMAL FLOOD HAZARD,5
POINT (-73.92524357406405 40.76188873129451),4,Queens,401,22,36,12,12,4138,102,Other,backless,05/01/2018,3104 Broadway,3104 Broadway,31st Street,Broadway & 34th Avenue,Queens,401,Q102,Not Applicable,40.761897,-73.925245,X,AREA OF MINIMAL FLOOD HAZARD,
POINT (-73.8638065957938 40.73065773482178),4,Queens,406,29,28,16,6,3578,73,Bus Route,backless 2,01/21/2017,95-05 Queens Blvd,95-05 62nd Drive,97th Street,97th Street & Junction Blvd,Queens,404,Q72,Not Applicable,40.730666,-73.863808,X,AREA OF MINIMAL FLOOD HAZARD,6
POINT (-73.8625749634915 40.74953406636619),4,Queens,404,21,39,13,14,1342,385,Plaza,backed 2,06/01/2018,103-12 Roosevelt Avenue,103-12 Roosevelt Avenue,Roosevelt Avenue,104th and National Streets,Queens,404,Q20A,Not Applicable,40.7495340664,-73.8625749635,X,AREA OF MINIMAL FLOOD HAZARD,
POINT (-73.9147065775335 40.77285472901408),4,Queens,401,22,36,12,14,3380,2211,Municipal Facilities,backed,08/17/2017,23-70 31st Street,23-70 31st Street,31st Street,24th Avenue & 23rd Road,Queens,401,Not Applicable,Not Applicable,40.772863,-73.914708,X,AREA OF MINIMAL FLOOD HAZARD,
POINT (-73.92907457462115 40.74350073458311),4,Queens,402,26,37,12,14,1937,667,General,backed,07/03/2013,45-30 36th Street,45-30 36th Street,36th Street,Queens Blvd & 47th Avenue,Queens,402,Not Applicable,Not Applicable,40.743509,-73.929076,X,AREA OF MINIMAL FLOOD HAZARD,
POINT (-73.92119815576095 40.74344085049068),4,Queens,402,26,37,12,14,2510,1611,BID,backed,07/25/2014,43-22 Queens Boulevard,43-22 Queens Boulevard,Queens Boulevard,43rd Street & 44th Street,Queens,402,Not Applicable,Sunnyside Shines,40.7434408505,-73.9211981558,X,AREA OF MINIMAL FLOOD HAZARD,
POINT (-73.75318163904649 40.60298875595709),4,Queens,414,31,23,10,5,2446,1858,Plaza,backed,12/09/2015,10-31 Beach 20th Street,10-31 Beach 20th Street,Plaza,Beach 20th & Beach 21st Street,Queens,414,Not Applicable,Not Applicable,40.602997,-73.753183,X,AREA OF MINIMAL FLOOD HAZARD,1
POINT (-73.93235257277286 40.753383733166096),4,Queens,401,26,37,12,12,4135,0,Other,backless,05/01/2018,38-30 31st Street,38-30 31st Street,31st Street,39th Avenue & 38th Avenue,Queens,401,Q11,Not Applicable,40.753392,-73.932354,X,AREA OF MINIMAL FLOOD HAZARD,
POINT (-73.80958361620873 40.67507574457414),4,Queens,410,28,31,10,5,2601,1192,Municipal Facilities,backed,07/10/2014,128-16 Rockaway Boulevard,128-16 Rockaway Boulevard,Rockaway Boulevard,128th Street and 130th Street,Queens,410,Q27,Not Applicable,40.675084,-73.809585,X,AREA OF MINIMAL FLOOD HAZARD,6
POINT (-73.84394460304806 40.71985873696182),4,Queens,406,29,28,16,6,893,318,General,backed,02/20/2013,71-27 Austin Street,71-27 Austin Street,71st Road,71st Road and Queens Blvd,Queens,406,Not Applicable,Not Applicable,40.719867,-73.843946,X,AREA OF MINIMAL FLOOD HAZARD,
POINT (-73.8625749634915 40.74953406636619),4,Queens,404,21,39,13,14,1342,0,Plaza,backed 2,06/01/2018,103-12 Roosevelt Avenue,103-12 Roosevelt Avenue,Roosevelt Avenue,104th and National Streets,Queens,404,Q20A,Not Applicable,40.7495340664,-73.8625749635,X,AREA OF MINIMAL FLOOD HAZARD,
POINT (-73.92566886086182 40.74398179364052),4,Queens,402,26,37,12,14,1085,134,BID,backless,09/11/2012,39-11 Queens Boulevard,39-11 Queens Boulevard,Queens Boulevard,39th Street and 39th Place,Queens,402,Q32,Sunnyside Shines,40.7439817936,-73.9256688609,X,AREA OF MINIMAL FLOOD HAZARD,
POINT (-73.8292506055745 40.75777572875057),4,Queens,407,20,40,16,6,440,804,Bus Route,backless,09/23/2013,41-17 Main Street,41-08 Kissena Boulevard,Kissena Boulevard,Main Street,Queens,407,Q27,Not Applicable,40.757784,-73.829252,X,AREA OF MINIMAL FLOOD HAZARD,
POINT (-73.93205457200249 40.75551373273138),4,Queens,401,26,30,12,12,1213,362,General,backed,12/12/2012,29-20 37th Avenue,29-20 37th Avenue,37th Avenue,Old Ridge Road and 30th Street,Queens,401,Not Applicable,Not Applicable,40.755522,-73.932056,X,AREA OF MINIMAL FLOOD HAZARD,
POINT (-73.88080358877211 40.767631728551976),4,Queens,403,22,35,13,14,2297,1397,General,backless,12/12/2013,89-00 23rd Avenue,89-00 23rd Avenue,23rd Avenue,89th Street & 90th Street,Queens,403,Q48,Not Applicable,40.76764,-73.880805,X,AREA OF MINIMAL FLOOD HAZARD,6
POINT (-73.83841260861828 40.653218749054155),4,Queens,410,32,23,15,8,4229,853,Bus Route,backless,02/05/2019,162-54 Cross Bay Blvd,162-54 Cross Bay Blvd,Cross Bay Blvd,162nd Avenue & 163rd Avenue,Queens,410,Q52,Not Applicable,40.653227,-73.838414,X,AREA OF MINIMAL FLOOD HAZARD,1
POINT (-73.88712758805957 40.74483473344623),4,Queens,404,25,39,16,6,3967,498,Bus Route,backless 2,02/14/2018,7808 Broadway,7808 Broadway,Broadway,78th Street & 79th Street,Queens,404,Q53,Not Applicable,40.744843,-73.887129,X,AREA OF MINIMAL FLOOD HAZARD,
POINT (-73.91106357753016 40.77583272769586),4,Queens,401,22,36,12,14,3514,0,General,backed,11/30/2016,22-16 31st Street,22-16 31st Street,31st Street,Ditmars Blvd & 23rd Avenue,Queens,401,Not Applicable,Not Applicable,40.775841,-73.911065,X,AREA OF MINIMAL FLOOD HAZARD,
POINT (-73.92015557584632 40.76276573091486),4,Queens,401,22,36,12,12,3507,2232,General,backed,12/10/2016,35-01 31st Avenue,35-01 31st Avenue,35th street,34th Street & 35th Street,Queens,401,Not Applicable,Not Applicable,40.762774,-73.920157,X,AREA OF MINIMAL FLOOD HAZARD,
POINT (-73.89461258602746 40.72635873749307),4,Queens,405,30,30,15,6,649,588,Bus Route,backless,04/16/2013,69-21 & 69-23 Grand Avenue,69-21 Grand Avenue,Grand Avenue,69th Place & 69th Street,Queens,405,Q58,Not Applicable,40.726367,-73.894614,X,AREA OF MINIMAL FLOOD HAZARD,
POINT (-73.74586563561003 40.69618873808306),4,Queens,413,27,33,14,5,3621,68,General,backed 2,05/13/2017,206-20 Linden Blvd,206-20 Linden Blvd,Linden Blvd,207th Street & Francis Lewis Blvd,Queens,413,Not Applicable,Not Applicable,40.696197,-73.745867,X,AREA OF MINIMAL FLOOD HAZARD,
POINT (-73.81729029129991 40.58572637112353),4,Queens,414,32,23,10,5,3949,376,Bus Route,backless 2,11/13/2017,1055 Cross Bay Blvd,1055 Cross Bay Blvd,Cross Bay Blvd,Liberty Avenue & 108th Avenue,Queens,0,Q52,Not Applicable,40.5857263711,-73.8172902913,X,AREA OF MINIMAL FLOOD HAZARD,1
POINT (-73.80093061663096 40.72269073469158),4,Queens,408,24,25,14,6,3346,385,Municipal Facilities,backed,07/12/2016,167-01 Union Turnpike,167-01 Union Turnpike,Union Turnpike,167th Street & 168th Street,Queens,408,Not Applicable,Not Applicable,40.722699,-73.800932,X,AREA OF MINIMAL FLOOD HAZARD,
POINT (-73.88329128893794 40.755784754819295),4,Queens,403,25,34,13,14,1978,991,General,backed,09/26/2013,84-13 Northern Boulevard,84-13 Northern Boulevard,Northern Boulevard,84th & 85th Street,Queens,403,Not Applicable,Not Applicable,40.7557847548,-73.8832912889,X,AREA OF MINIMAL FLOOD HAZARD,
POINT (-73.77028362446248 40.76214472545898),4,Queens,411,19,26,11,6,1974,591,General,backed,06/11/2013,42-38 Bell Boulevard,42-38 Bell Boulevard,Bell Blvd,42nd & 43rd Avenue,Queens,411,Not Applicable,Bell Blvd BBA,40.762153,-73.770285,X,AREA OF MINIMAL FLOOD HAZARD,
POINT (-73.78581796949256 40.67227250986216),4,Queens,412,28,32,10,5,2970,716,Municipal Facilities,backless,12/22/2014,134-0 Baisley Boulevard South,134-0 Baisley Boulevard South,Rockaway Boulevard,150th Street & Baisley Boulevard South,Queens,412,Q6,Not Applicable,40.6722725099,-73.7858179695,X,AREA OF MINIMAL FLOOD HAZARD,4
POINT (-73.79452262062802 40.69340373978552),4,Queens,412,28,32,10,5,4032,538,Bus Route,backless,04/27/2018,108-98 157th Street,108-98 157th Street,157th Street,108th Street & 109th Street,Queens,412,Q60,Not Applicable,40.693412,-73.794524,X,AREA OF MINIMAL FLOOD HAZARD,6
POINT (-73.76187963236654 40.66130174518129),4,Queens,413,31,31,10,5,3589,2446,General,backless,12/09/2016,Springfield Park,145-00 Springfield Boulevard,Springfield Blvd,145th Avenue & S Conduit Avenue,Queens,413,Q77,Not Applicable,40.66131,-73.761881,X,AREA OF MINIMAL FLOOD HAZARD,3
POINT (-73.83210860789174 40.70101374023239),4,Queens,409,29,27,10,5,2295,1100,General,backed,12/09/2013,118-14 Hillside Avenue,118-14 Hillside Avenue,Hillside Avenue,Lefferts Blvd & Babbage Street,Queens,409,Not Applicable,Not Applicable,40.701022,-73.83211,X,AREA OF MINIMAL FLOOD HAZARD,
POINT (-73.86310359575793 40.732025734976254),4,Queens,406,29,35,16,6,3579,61,Bus Route,backless 2,01/21/2017,95-40 62nd Drive,95-40 62nd Drive,62nd Drive,97th Street & Junction Boulevard,Queens,404,Not Applicable,Not Applicable,40.732034,-73.863105,X,AREA OF MINIMAL FLOOD HAZARD,6
POINT (-73.88238875149904 40.75587990376532),4,Queens,403,25,34,13,14,1999,979,General,backed,09/30/2013,85-09 Northern Boulevard,85-09 Northern Boulevard,Northern Boulevard,85th & 86th Street,Queens,403,Not Applicable,Not Applicable,40.7558799038,-73.8823887515,X,AREA OF MINIMAL FLOOD HAZARD,
POINT (-73.90174458513863 40.71667273884783),4,Queens,405,30,30,15,6,636,133,Bus Route,backless,04/12/2013,60-08 Fresh Pond Road,60-08 Fresh Pond Road,Fresh Pond Road,60th Avenue & 60th Road,Queens,405,Q58,Not Applicable,40.716681,-73.901746,X,AREA OF MINIMAL FLOOD HAZARD,
POINT (-73.77316662280319 40.76779672508475),4,Queens,411,19,26,11,6,1504,332,BID,backed,01/25/2013,36-01 Bell Blvd,36-01 Bell Blvd,Bell Blvd,36th and 38th Avenues,Queens,411,Not Applicable,Bell Blvd BBA,40.767805,-73.773168,X,AREA OF MINIMAL FLOOD HAZARD,
POINT (-73.88335158813523 40.755754730889834),4,Queens,403,25,34,13,14,3092,1337,General,backed,06/02/2015,84-02 Northern Boulevard,84-02 Northern Boulevard,84th Street,84th Street & 85th Street,Queens,403,Not Applicable,Not Applicable,40.755763,-73.883353,X,AREA OF MINIMAL FLOOD HAZARD,
POINT (-73.91850157781292 40.74313473484766),4,Queens,402,26,37,12,14,2513,1203,BID,backed,07/25/2014,46-09 Queens Boulevard,46-09 Queens Boulevard,Queens Boulevard,46th Street & 47th Street,Queens,402,Not Applicable,Sunnyside Shines,40.743143,-73.918503,X,AREA OF MINIMAL FLOOD HAZARD,
POINT (-73.90889657947066 40.75749073107652),4,Queens,401,22,30,12,14,3383,102,Municipal Facilities,backed 2,06/21/2017,50-05 31st Avenue,50-05 31st Avenue,31st Avenue,Hobart Street & 50th Street,Queens,401,Not Applicable,Not Applicable,40.757499,-73.908898,X,AREA OF MINIMAL FLOOD HAZARD,
POINT (-73.83789860643476 40.69871574021182),4,Queens,409,32,28,10,5,3248,1767,Municipal Facilities,backed,05/05/2016,111-02 86th Avenue,111-02 86th Avenue,86th Avenue,111st Street & 112nd Street,Queens,409,Not Applicable,Not Applicable,40.698724,-73.8379,X,AREA OF MINIMAL FLOOD HAZARD,
POINT (-73.83179460755665 40.70674073905066),4,Queens,409,29,27,14,6,549,50,Bus Route,backed,06/29/2012,82-46 Lefferts Boulevard,11875 Metropolitan Avenue,Lefferts Boulevard,Metropolitan Avenue and Abingdon Road,Queens,409,Q10,Not Applicable,40.706749,-73.831796,X,AREA OF MINIMAL FLOOD HAZARD,
POINT (-73.90136238068214 40.722705407979504),4,Queens,405,30,30,15,6,1806,312,General,backed,02/14/2013,64-02 Flushing Avenue,64-02 Flushing Avenue,Grand Avenue,64th Street and Flushing Avenue,Queens,405,Not Applicable,Not Applicable,40.722705408,-73.9013623807,X,AREA OF MINIMAL FLOOD HAZARD,
POINT (-73.77938662552307 40.69187173993565),4,Queens,412,27,32,14,5,4044,86,Bus Route,backless 2,05/09/2018,113-58 Merrick Boulevard,113-58 Merrick Boulevard,Merrick Boulevard,Linden Boulevard & Sayres Avenue,Queens,412,Q84,Not Applicable,40.69188,-73.779388,X,AREA OF MINIMAL FLOOD HAZARD,5
POINT (-73.8803615899278 40.750163732026905),4,Queens,403,25,34,13,14,3409,2452,Municipal Facilities,backed,12/10/2016,86-15 37th Avenue,86-15 37th Avenue,37th Avenue,86th Street & 87th Street,Queens,403,Not Applicable,Not Applicable,40.750172,-73.880363,X,AREA OF MINIMAL FLOOD HAZARD,
POINT (-73.92377457618048 40.745528734145346),4,Queens,402,26,30,12,14,3316,6990,Municipal Facilities,backed,07/06/2016,40-01 43rd Avenue,40-01 43rd Avenue,43rd Avenue,40th Street & 41st Street,Queens,402,Not Applicable,Not Applicable,40.745537,-73.923776,X,AREA OF MINIMAL FLOOD HAZARD,
POINT (-73.75878263398931 40.66459974460724),4,Queens,413,31,31,10,5,4082,0,General,backless 2,08/09/2018,145-00 SpringField Boulevard,145-00 SpringField Boulevard,SpringField Boulevard,145th Avenue & South Conduit Avenue,Queens,0,Q77,Not Applicable,40.664608,-73.758784,X,AREA OF MINIMAL FLOOD HAZARD,4
POINT (-73.77236362326501 40.76618072542193),4,Queens,411,19,26,11,6,1507,529,BID,backed 2,01/25/2013,38-20 Bell Blvd,38-20 Bell Blvd,Bell Blvd,36th and 38th Avenues,Queens,411,Not Applicable,Bell Blvd BBA,40.766189,-73.772365,X,AREA OF MINIMAL FLOOD HAZARD,
POINT (-73.77239024704508 40.766285120654),4,Queens,411,19,26,11,6,1506,359,BID,backed,01/25/2013,38-11 Bell Blvd,38-11 Bell Blvd,Bell Blvd,38th and 39th Avenues,Queens,411,Not Applicable,Bell Blvd BBA,40.7662851207,-73.772390247,X,AREA OF MINIMAL FLOOD HAZARD,
POINT (-73.75382563280095 40.70674673607829),4,Queens,412,27,33,14,5,2605,1211,Municipal Facilities,backed,07/11/2014,204-01 Hollis Avenue,204-01 Hollis Avenue,Hollis Avenue,204th Street and 205th Street,Queens,412,Not Applicable,Not Applicable,40.706755,-73.753827,X,AREA OF MINIMAL FLOOD HAZARD,
POINT (-73.77003062421646 40.76013572582144),4,Queens,411,19,25,11,6,1518,883,BID,backed,01/30/2013,213-17 Northern Blvd,213-17 Northern Blvd,Bell Blvd,43rd Avenue and Northern Boulevard,Queens,411,Not Applicable,Bell Blvd BBA,40.760144,-73.770032,X,AREA OF MINIMAL FLOOD HAZARD,
POINT (-73.83661661328827 40.578766763716466),4,Queens,414,32,23,15,5,2485,1836,BID,backed,12/01/2014,143 Beach 116th Street,143 Beach 116th Street,Beach 116th Street,Rockaway Beach Blvd & Ocean Promenade Walkway,Queens,414,Not Applicable,Beach 116th Street Partnership,40.578775,-73.836618,X,AREA OF MINIMAL FLOOD HAZARD,1
POINT (-73.902923584435 40.70496774138303),4,Queens,405,30,37,15,7,616,498,Bus Route,backless,04/12/2013,776 Fairview Avenue,19-78 Madison Street,Madison Street,Fairview Avenue,Queens,405,Q58,Not Applicable,40.704976,-73.902925,X,AREA OF MINIMAL FLOOD HAZARD,
POINT (-73.89882658566611 40.70954774012456),4,Queens,405,30,37,15,6,628,1390,Bus Route,backless,04/12/2013,65-06 Fresh Pond Road,65-06 Fresh Pond Road,Fresh Pond Road,Linden Avenue & Gates Avenue,Queens,405,Q58,Not Applicable,40.709556,-73.898828,X,AREA OF MINIMAL FLOOD HAZARD,
POINT (-73.88784858653393 40.749374731860605),4,Queens,403,25,39,13,14,3419,161,General,backed,07/19/2016,78-07 37th Avenue,78-07 37th Avenue,37th Avenue,78th Street & 79th Street,Queens,403,Not Applicable,Not Applicable,40.749383,-73.88785,X,AREA OF MINIMAL FLOOD HAZARD,
POINT (-73.77034162351437 40.76227172529613),4,Queens,411,19,26,11,6,1516,325,BID,backed,01/30/2013,42-24 Bell Blvd,42-24 Bell Blvd,Bell Blvd,42nd and 43rd Avenues,Queens,411,Not Applicable,Bell Blvd BBA,40.76228,-73.770343,X,AREA OF MINIMAL FLOOD HAZARD,
POINT (-73.81618161241416 40.70114573885071),4,Queens,409,29,24,14,5,3205,2219,AAR,backed,04/13/2016,89-00 Van Wyck Expressway,90-28 Van Wyck Expressway,Van Wyck Expressway,89th Avenue & 91st Avenue,Queens,409,Not Applicable,Not Applicable,40.701154,-73.816183,X,AREA OF MINIMAL FLOOD HAZARD,
POINT (-73.82862660799034 40.71141073769153),4,Queens,409,29,27,14,6,541,139,Bus Route,backless,06/29/2012,82-37 Kew Gardens Road,,Kew Gardens Road,82nd Road and 82nd Drive,Queens,409,Q10,Not Applicable,40.711419,-73.828628,X,AREA OF MINIMAL FLOOD HAZARD,
POINT (-73.85224860159626 40.69388274227105),4,Queens,409,32,38,15,7,3944,309,Bus Route,backless 2,11/13/2017,8675 Woodhaven Blvd,8675 Woodhaven Blvd,Woodhaven Blvd,Jamaica avenue & 86th Drive,Queens,0,Q52,Not Applicable,40.693891,-73.85225,X,AREA OF MINIMAL FLOOD HAZARD,
POINT (-73.83812760925757 40.6521787497965),4,Queens,410,32,23,15,8,4230,463,Bus Route,backless,02/05/2019,163-01 Cross Bay Blvd,163-01 Cross Bay Blvd,Cross Bay Blvd,163rd Avenue & 164th Avenue,Queens,410,Q52,Not Applicable,40.652187,-73.838129,X,AREA OF MINIMAL FLOOD HAZARD,1
POINT (-73.7658366293628 40.70357673695612),4,Queens,412,27,33,14,5,3320,112,Municipal Facilities,backed,07/06/2016,190-20 109th Road,190-20 109th Road,109th Road,191st Street & 190th Street,Queens,412,Not Applicable,Not Applicable,40.703585,-73.765838,X,AREA OF MINIMAL FLOOD HAZARD,
POINT (-73.91081757788561 40.77603872753683),4,Queens,401,22,36,12,14,3513,2233,General,backed,12/03/2016,22-02 31st Street,29-24 Ditmars Blvd,Ditmars Blvd,31st Street & 29th Street,Queens,401,Not Applicable,Not Applicable,40.776047,-73.910819,X,AREA OF MINIMAL FLOOD HAZARD,
POINT (-73.82032960820027 40.75175672981016),4,Queens,407,20,25,16,6,933,2376,Senior Center,backed,09/12/2012,45-25 Kissena Boulevard,45-25 Kissena Boulevard,Kissena Boulevard,45th Avenue and Geranium Avenue,Queens,407,Not Applicable,Not Applicable,40.751765,-73.820331,X,AREA OF MINIMAL FLOOD HAZARD,
POINT (-73.90322458281706 40.741338733987),4,Queens,402,26,30,12,14,2314,1018,General,backed,02/05/2014,61-10 Queens Boulevard,61-10 Queens Boulevard,Queens Boulevard,60th & 61st Street,Queens,402,Not Applicable,Not Applicable,40.741347,-73.903226,X,AREA OF MINIMAL FLOOD HAZARD,
POINT (-73.8519025996333 40.737723733698736),4,Queens,404,21,35,16,14,697,585,Bus Route,backless,04/16/2013,108-01 Horace Harding Expwy,108-01 Horace Harding Expwy,108th Street,Horace Harding Expressway & Penrod Street,Queens,404,Q58,Not Applicable,40.737732,-73.851904,X,AREA OF MINIMAL FLOOD HAZARD,4
POINT (-73.8815095884148 40.75596473097733),4,Queens,403,25,34,13,14,2001,633,General,backed,09/27/2013,86-01 Northern Boulevard,86-01 Northern Boulevard,Northern Boulevard,86th & 87th Street,Queens,403,Not Applicable,Not Applicable,40.755973,-73.881511,X,AREA OF MINIMAL FLOOD HAZARD,
POINT (-73.78296452683591 40.68417391192627),4,Queens,412,28,32,10,5,3261,1763,Municipal Facilities,backed,06/07/2016,117-02 Guy R Brewer Boulevard,117-02 Guy R Brewer Boulevard,Guy R Brewer Boulevard,118th Avenue & Foch Boulevard,Queens,412,Not Applicable,Not Applicable,40.6841739119,-73.7829645268,X,AREA OF MINIMAL FLOOD HAZARD,5
POINT (-73.80812461554555 40.7061747383587),4,Queens,412,24,32,11,5,2973,2027,Municipal Facilities,backed,11/21/2014,148-64 Hillside Avenue,148-64 Hillside Avenue,Hillside Avenue,148th Street & 150th Street,Queens,412,Q43,Not Applicable,40.706183,-73.808126,X,AREA OF MINIMAL FLOOD HAZARD,
POINT (-73.81583261442198 40.68404174249012),4,Queens,410,28,31,10,5,3243,1770,Municipal Facilities,backed,05/18/2016,126-10 109th Avenue,126-10 109th Avenue,109th Avenue,126th Street & 127th Street,Queens,410,Not Applicable,Not Applicable,40.68405,-73.815834,X,AREA OF MINIMAL FLOOD HAZARD,
POINT (-73.84311560594803 40.67192074612206),4,Queens,410,32,23,15,8,4227,852,Bus Route,backless 2,01/31/2019,137-05 Cross Bay Blvd,137-05 Cross Bay Blvd,Cross Bay Blvd,Pitkin Avenue & 149th Avenue,Queens,410,Q52,Not Applicable,40.671929,-73.843117,X,AREA OF MINIMAL FLOOD HAZARD,5
POINT (-73.91967957786925 40.74190273458148),4,Queens,402,26,37,12,14,2509,1502,BID,backless,07/25/2014,45-12 Greenpoint Avenue,45-12 Greenpoint Avenue,Greenpoint Avenue,45th Street & 46th Street,Queens,402,Not Applicable,Sunnyside Shines,40.741911,-73.919681,X,AREA OF MINIMAL FLOOD HAZARD,
POINT (-73.87302259169164 40.75093773151763),4,Queens,403,21,34,13,14,3941,370,Senior Safety,backed,02/06/2018,94-01 37th Avenue,3551 94th Street,94th Street,35th Avenue & 37th Avenue,Queens,403,Not Applicable,Not Applicable,40.750946,-73.873024,X,AREA OF MINIMAL FLOOD HAZARD,
POINT (-73.77745262446227 40.7244707330317),4,Queens,408,23,24,11,5,2840,1423,Municipal Facilities,backed,11/20/2014,189-10 Radnor Road,189-10 Radnor Road,Radnor Road,189th Street and 190th Street,Queens,408,Not Applicable,Not Applicable,40.724479,-73.777454,X,AREA OF MINIMAL FLOOD HAZARD,
POINT (-73.75318163904649 40.60298875595709),4,Queens,414,31,23,10,5,2446,1678,Plaza,backed,12/09/2015,10-31 Beach 20th Street,10-31 Beach 20th Street,Plaza,Beach 20th & Beach 21st Street,Queens,414,Not Applicable,Not Applicable,40.602997,-73.753183,X,AREA OF MINIMAL FLOOD HAZARD,1
POINT (-73.85530260098703 40.702158740852965),4,Queens,405,30,38,15,6,4225,474,Bus Route,backless 2,01/29/2019,83-40 Woodhaven Blvd,83-40 Woodhaven Blvd,Woodhaven Blvd,Forest Park Drive & Myrtle Avenue,Queens,405,Q52,Not Applicable,40.702167,-73.855304,X,AREA OF MINIMAL FLOOD HAZARD,
POINT (-73.8434896031465 40.71969073681654),4,Queens,406,29,28,16,6,894,317,General,backed,02/20/2013,71-35 Austin Street,71-35 Austin Street,71St Road,Queens Blvd & 71st Road,Queens,406,Not Applicable,Not Applicable,40.719699,-73.843491,X,AREA OF MINIMAL FLOOD HAZARD,
POINT (-73.92573257542952 40.743981734786836),4,Queens,402,26,37,12,14,4195,2277,Other,backless 2,02/07/2019,3909 Queens Boulevard,3909 Queens Boulevard,Queens Boulevard,39th Street and 39th Place,Queens,402,Q32,Not Applicable,40.74399,-73.925734,X,AREA OF MINIMAL FLOOD HAZARD,
POINT (-73.83545760589328 40.70728973875356),4,Queens,409,29,27,14,6,830,28,General,backless,09/12/2012,116-29 Metropolitan Avenue,116-29 Metropolitan Avenue,Metropolitan Avenue,83rd Avenue & Grosvenor Avenue,Queens,409,Q54,Not Applicable,40.707298,-73.835459,X,AREA OF MINIMAL FLOOD HAZARD,
POINT (-73.75673163259917 40.693209738371195),4,Queens,412,27,33,14,5,3323,903,Municipal Facilities,backed,07/06/2016,195-03 Linden Boulevard,195-03 Linden Boulevard,Linden Boulevard,195th Street & 196th Street,Queens,412,Q04,Not Applicable,40.693218,-73.756733,X,AREA OF MINIMAL FLOOD HAZARD,
POINT (-73.76983262409125 40.76124372567767),4,Queens,411,19,26,11,6,1517,250,BID,backless,01/30/2013,43-25 Bell Blvd,43-25 Bell Blvd,Bell Blvd,43rd Avenue and Northern Boulevard,Queens,411,Q31,Bell Blvd BBA,40.761252,-73.769834,X,AREA OF MINIMAL FLOOD HAZARD,
POINT (-73.81844461062782 40.729732734103855),4,Queens,408,24,27,16,6,3311,1832,Municipal Facilities,backed,07/08/2016,70-35 150th Street,150-5 70th Road,70th Road,150th Street & Kissena Boulevard,Queens,408,Not Applicable,Not Applicable,40.729741,-73.818446,X,AREA OF MINIMAL FLOOD HAZARD,
POINT (-73.77125162361821 40.76409872539483),4,Queens,411,19,26,11,6,1513,49,BID,backed,01/28/2013,40-12 Bell Boulevard,40-12 Bell Boulevard,Bell Blvd,40th and 41st Avenues,Queens,411,Not Applicable,Bell Blvd BBA,40.764107,-73.771253,X,AREA OF MINIMAL FLOOD HAZARD,
POINT (-73.88500758815367 40.74967373186115),4,Queens,403,21,39,13,14,2419,912,General,backed,05/12/2014,81-15 37th Avenue,81-15 37th Avenue,37th Avenue,81st Street and 82nd Street,Queens,403,Not Applicable,82nd Street,40.749682,-73.885009,X,AREA OF MINIMAL FLOOD HAZARD,
POINT (-73.91404157653633 40.781900726987246),4,Queens,401,22,36,13,14,3379,0,Municipal Facilities,,,21-25 21st Avenue,21-25 21st Avenue,21st Avenue,21st Street & 23rd Street,Queens,401,Not Applicable,Not Applicable,40.781909,-73.914043,X,AREA OF MINIMAL FLOOD HAZARD,
POINT (-73.8467716039327 40.685649743072105),4,Queens,409,32,38,15,7,3947,355,Bus Route,backed 2,11/13/2017,97-47 Woodhaven Blvd,97-47 Woodhaven Blvd,Woodhaven Blvd,101st Avenue & 97th Avenue,Queens,0,Q52,Not Applicable,40.685658,-73.846773,X,AREA OF MINIMAL FLOOD HAZARD,6
POINT (-73.73216264013294 40.69263873770128),4,Queens,413,27,33,14,5,3624,2456,General,backed,05/13/2017,22901 Linden Blvd,22901 Linden Blvd,Linden Blvd,229th Street & 230th Street,Queens,413,Not Applicable,Not Applicable,40.692647,-73.732164,X,AREA OF MINIMAL FLOOD HAZARD,
POINT (-73.87157659341877 40.73383973455544),4,Queens,404,25,35,16,6,2613,1149,General,backless,08/04/2014,90-15 Queens Boulevard,90-15 Queens Boulevard,59th Avenue,57th & 59th Avenue,Queens,404,Not Applicable,Not Applicable,40.733848,-73.871578,X,AREA OF MINIMAL FLOOD HAZARD,6
POINT (-73.78411162294437 40.71255973613782),4,Queens,412,27,29,14,5,3678,74,Senior Safety,backed 2,03/25/2017,179-8 Hillside Avenue,179-8 Hillside Avenue,Hillside Avenue,179th Street & 179th Place,Queens,412,Q2,Not Applicable,40.712568,-73.784113,X,AREA OF MINIMAL FLOOD HAZARD,
POINT (-73.89010258638281 40.74611973295765),4,Queens,404,25,39,16,14,3625,192,General,backed 2,06/21/2017,75-15 Broadway,75-15 Broadway,Broadway,75th Street & 76th Street,Queens,404,Not Applicable,Not Applicable,40.746128,-73.890104,X,AREA OF MINIMAL FLOOD HAZARD,
POINT (-73.89736707770413 40.70734496801573),4,Queens,405,30,37,15,6,4099,567,General,backed 2,08/02/2018,66-54 Fresh Pond Road,66-54 Fresh Pond Road,Fresh Pond Road,Woodbine Street & Madison Street,Queens,405,Not Applicable,Not Applicable,40.707344968,-73.8973670777,X,AREA OF MINIMAL FLOOD HAZARD,
POINT (-73.91051757847416 40.77598872776326),4,Queens,401,22,36,13,14,3516,2424,General,backless,10/17/2016,31-04 Ditmars Blvd,31-04 Ditmars Blvd,Ditmars Blvd,31st Street & 33rd Street,Queens,401,Not Applicable,Not Applicable,40.775997,-73.910519,X,AREA OF MINIMAL FLOOD HAZARD,
POINT (-73.89532758733407 40.70297374131537),4,Queens,405,30,37,15,6,3870,236,Bus Route,backless 2,08/17/2017,69-19 Fresh Pond Road,69-19 Fresh Pond Road,Fresh Pond Road,69th Avenue & 70th Avenue,Queens,405,B13,Not Applicable,40.702982,-73.895329,X,AREA OF MINIMAL FLOOD HAZARD,
POINT (-73.8625749634915 40.74953406636619),4,Queens,404,21,39,13,14,1342,397,Plaza,backed 2,06/01/2018,103-12 Roosevelt Avenue,103-12 Roosevelt Avenue,Roosevelt Avenue,104th and National Streets,Queens,404,Q20A,Not Applicable,40.7495340664,-73.8625749635,X,AREA OF MINIMAL FLOOD HAZARD,
POINT (-73.88386575399504 40.747183290557714),4,Queens,404,25,39,16,14,1522,796,BID,backed,12/11/2012,40-14 82nd Street,40-14 82nd Street,82nd Street,Roosevelt Avenue and Ithaca Street,Queens,404,Not Applicable,82nd Street,40.7471832906,-73.883865754,X,AREA OF MINIMAL FLOOD HAZARD,
POINT (-73.84572460261697 40.720506736620365),4,Queens,406,29,28,16,6,897,342,General,backed,02/20/2013,70-31 Austin Street,70-31 Austin Street,70th Road,70th Road and Queens Blvd,Queens,406,Not Applicable,Not Applicable,40.720515,-73.845726,X,AREA OF MINIMAL FLOOD HAZARD,
POINT (-73.8625749634915 40.74953406636619),4,Queens,404,21,39,13,14,1342,382,Plaza,backed 2,06/01/2018,103-12 Roosevelt Avenue,103-12 Roosevelt Avenue,Roosevelt Avenue,104th and National Streets,Queens,404,Q20A,Not Applicable,40.7495340664,-73.8625749635,X,AREA OF MINIMAL FLOOD HAZARD,
POINT (-73.8953325843265 40.754511731717606),4,Queens,403,25,34,13,14,3160,2005,General,backless,09/10/2015,71-19 Northern Boulevard,71-19 Northern Boulevard,Northern Boulevard,72nd Street & 71st Street,Queens,403,Q66,Not Applicable,40.75452,-73.895334,X,AREA OF MINIMAL FLOOD HAZARD,6
POINT (-73.9229975764043 40.74366173461592),4,Queens,402,26,37,12,14,2511,1506,BID,backed,07/25/2014,41-31 Queens Boulevard,41-31 Queens Boulevard,Queens Boulevard,41st Street & 42nd Street,Queens,402,Not Applicable,Sunnyside Shines,40.74367,-73.922999,X,AREA OF MINIMAL FLOOD HAZARD,
POINT (-73.76750262483442 40.75646072648268),4,Queens,411,19,25,11,6,3350,1834,Municipal Facilities,backed,07/07/2016,47-28 Bell Boulevard,47-28 Bell Boulevard,Bell Boulevard,47th Avenue & 48th Avenue,Queens,411,Not Applicable,Not Applicable,40.756469,-73.767504,X,AREA OF MINIMAL FLOOD HAZARD,
POINT (-73.91770457787544 40.742540734717224),4,Queens,402,26,37,12,14,2508,835,BID,backless,07/25/2014,47-02 Greenpoint Avenue,47-02 Greenpoint Avenue,47th Street,Greenpoint Avenue & 47th Street,Queens,402,B24,Sunnyside Shines,40.742549,-73.917706,X,AREA OF MINIMAL FLOOD HAZARD,
POINT (-73.75318163904649 40.60298875595709),4,Queens,414,31,23,10,5,2446,1898,Plaza,backed,12/09/2015,10-31 Beach 20th Street,10-31 Beach 20th Street,Plaza,Beach 20th & Beach 21st Street,Queens,414,Not Applicable,Not Applicable,40.602997,-73.753183,X,AREA OF MINIMAL FLOOD HAZARD,1
