the_geom,BoroCode,BoroName,BoroCD,CounDist,AssemDist,StSenDist,CongDist,SiteID,BenchID,Category,BenchType,Installati,Address,GeocodeAdd,Street,CrossStree,Borough,ComDist,BusRoute,BID,Latitude,Longitude,FEMAFldz,FEMAFldT,HrcEvac
POINT (-73.95032656206519 40.826567719130175),1,Manhattan,109,7,71,31,13,3556,0,Bus Route,backless,02/14/2017,3542 Broadway,592 W 145th Street,W 145th Street,W 145th Street & W 146th Street,Manhattan,112,BX19,Not Applicable,40.826576,-73.950328,X,AREA OF MINIMAL FLOOD HAZARD,
POINT (-73.9215855696869 40.860835711632895),1,Manhattan,112,10,72,31,13,2331,80,General,backless 2,03/25/2017,3754 10th Avenue,3754 10th Avenue,10th Avenue,201st & 202nd Street,Manhattan,112,M100,Not Applicable,40.860844,-73.921587,AE,,2
POINT (-73.91915202583036 40.86829148296409),1,Manhattan,112,10,72,31,13,2274,518,General,backless,04/30/2018,4986 Broadway,4986 Broadway,Broadway,W 211th & W 212th Street,Manhattan,112,M100,Not Applicable,40.868291483,-73.9191520258,X,AREA OF MINIMAL FLOOD HAZARD,4
POINT (-73.9557485633816 40.77452772983164),1,Manhattan,108,5,76,28,12,3688,242,Senior Safety,backed,08/03/2017,245 E. 80th Street,245 E. 80th Street,E. 80th Street,2nd Avenue & 3rd Avenue,Manhattan,108,Not Applicable,Not Applicable,40.774536,-73.95575,X,AREA OF MINIMAL FLOOD HAZARD,
POINT (-73.94554756400889 40.833119717705664),1,Manhattan,112,7,71,31,13,3059,1885,General,backed,02/05/2015,3740 Broadway,3740 Broadway,Broadway,West 155th Street & West 156th Street,Manhattan,112,M4,Not Applicable,40.833128,-73.945549,X,AREA OF MINIMAL FLOOD HAZARD,
POINT (-73.93943156700753 40.80737472234206),1,Manhattan,111,9,68,30,13,2776,1494,Municipal Facilities,backed,12/08/2014,2005 Madison Avenue,91 East 127th Street,East 127th Street,East 127th Street & East 128th Street,Manhattan,111,Not Applicable,Not Applicable,40.807383,-73.939433,X,AREA OF MINIMAL FLOOD HAZARD,5
POINT (-73.93627756589059 40.845842715249354),1,Manhattan,112,10,72,31,13,3153,1593,General,backed,09/12/2015,1313 St Nicholas Avenue,1313 St Nicholas Avenue,St Nicholas Avenue,W 175 Street & W 176 Street,Manhattan,112,Not Applicable,Not Applicable,40.845851,-73.936279,X,AREA OF MINIMAL FLOOD HAZARD,
POINT (-73.97944655572502 40.78955872721958),1,Manhattan,107,6,67,31,10,2128,975,Senior Center,backed,03/24/2014,333 West 86th Street,333 West 86th Street,West 86th Street,Riverside Drive and West End Avenue,Manhattan,107,Not Applicable,Not Applicable,40.789567,-73.979448,X,AREA OF MINIMAL FLOOD HAZARD,
POINT (-73.94169756698395 40.7977467251452),1,Manhattan,111,8,68,30,13,3686,0,General,backed,02/14/2017,158 E 115th Street,158 E 115th Street,E 115th Street,Lexington Avenue & 3rd Avenue,Manhattan,111,Not Applicable,Not Applicable,40.797755,-73.941699,X,AREA OF MINIMAL FLOOD HAZARD,5
POINT (-73.9768535562723 40.780813728828264),1,Manhattan,107,6,67,29,10,1831,445,General,backed,03/25/2013,100 West 77th Street,100 West 77th Street,Columbus Avenue,76th Street & 77th Street,Manhattan,107,Not Applicable,Columbus Avenue,40.780822,-73.976855,X,AREA OF MINIMAL FLOOD HAZARD,
POINT (-73.9340035695616 40.79539372448657),1,Manhattan,111,8,68,29,13,3355,104,Municipal Facilities,backed,09/15/2016,440 E 116th Street,440 E 116th Street,E 116th Street,1st Avenue & Pleasant Avenue,Manhattan,111,Not Applicable,Not Applicable,40.795402,-73.934005,X,0.2 PCT ANNUAL CHANCE FLOOD HAZARD,3
POINT (-73.94832956234207 40.82934171855125),1,Manhattan,109,7,71,30,13,3004,1972,Municipal Facilities,backless,01/23/2015,3635 Broadway,3635 Broadway,Broadway,West 149th Street & West 150th Street,Manhattan,109,M5,Not Applicable,40.82935,-73.948331,X,AREA OF MINIMAL FLOOD HAZARD,
POINT (-73.95822916455306 40.76476221018549),1,Manhattan,108,5,76,28,12,3033,1219,Municipal Facilities,backless,12/15/2014,1245 1st Avenue,1245 1st Avenue,67th Street,1st Avenue and 2nd Avenue,Manhattan,108,M66,Not Applicable,40.7647622102,-73.9582291646,X,AREA OF MINIMAL FLOOD HAZARD,
POINT (-73.95303956211394 40.817541721275276),1,Manhattan,109,9,70,31,13,2789,1475,Municipal Facilities,backed,12/05/2014,499 West 133rd Street,499 West 133rd Street,West 133rd Street,Convent Avenue & Amsterdam Avenue,Manhattan,109,Not Applicable,Not Applicable,40.81755,-73.953041,X,AREA OF MINIMAL FLOOD HAZARD,
POINT (-73.99729155247505 40.74477473724793),1,Manhattan,104,3,75,27,12,1113,1801,Senior Center,backless,12/19/2012,260 West 23rd Street,260 W 23rd Street,West 23rd Street,8th Avenue & 7th Avenue,Manhattan,104,M23,Not Applicable,40.744783,-73.997293,X,AREA OF MINIMAL FLOOD HAZARD,5
POINT (-73.93840556480296 40.84629071535887),1,Manhattan,112,10,72,31,13,3337,9012,Plaza,backless,12/01/2015,4140 Broadway,4140 Broadway,W. 175th Street,W. 175th Street & W. 176th Street,Manhattan,112,Not Applicable,Not Applicable,40.846299,-73.938407,X,AREA OF MINIMAL FLOOD HAZARD,
POINT (-73.9661715611344 40.761380732492306),1,Manhattan,108,4,73,28,12,2926,1453,General,backed,12/10/2014,205 East 59th Street,999 3rd Ave,3rd Avenue,E. 59th Street & E. 60th Street,Manhattan,108,Not Applicable,East Midtown Partnership,40.761389,-73.966173,X,AREA OF MINIMAL FLOOD HAZARD,
POINT (-74.0135495496801 40.70807674453967),1,Manhattan,101,1,65,26,10,1019,164,BID,backed,07/11/2012,94 Greenwich Street,94 Greenwich Street,Greenwich Street,Rector Streets and Washington Streets,Manhattan,101,Not Applicable,Alliance for Downtown New York,40.708085,-74.013551,X,AREA OF MINIMAL FLOOD HAZARD,1
POINT (-73.9864745570227 40.71586074199739),1,Manhattan,103,1,65,26,12,810,249,General,backed,09/28/2012,411 Grand Street,411 Grand Street,Clinton Street,Grand Street & Clinton Street,Manhattan,103,Not Applicable,Not Applicable,40.715869,-73.986476,X,AREA OF MINIMAL FLOOD HAZARD,
POINT (-73.97957455889063 40.737306738002594),1,Manhattan,106,2,74,27,12,2196,700,General,backless,10/07/2013,352 E 23rd Street,352 E 23rd Street,E 23rd Street,1st Avenue and 2nd Avenue,Manhattan,106,M09,Not Applicable,40.737315,-73.979576,X,AREA OF MINIMAL FLOOD HAZARD,4
POINT (-73.9890045529702 40.772624731680196),1,Manhattan,107,6,67,27,10,4206,539,General,backless 2,04/11/2019,250 West 61st Street,40 West End Avenue,West End Avenue,West 61st Street & West 62nd Street,Manhattan,107,M57,Not Applicable,40.772633,-73.989006,X,AREA OF MINIMAL FLOOD HAZARD,6
POINT (-74.00561555064876 40.726606740825034),1,Manhattan,102,3,66,27,10,979,2058,BID,backed,07/03/2012,160 Varick Street,160 Varick Street,Varick Street,Charlton and Vandam Streets,Manhattan,102,Not Applicable,Hudson Square Connection,40.726615,-74.005617,X,AREA OF MINIMAL FLOOD HAZARD,4
POINT (-73.94183246562226 40.822932397526635),1,Manhattan,110,9,71,30,13,1658,2450,Senior Center,backless,02/04/2017,2730 Frederick Douglass Boulevard,2730 Frederick Douglass Boulevard,W 145th Street,W 145th Street & W 146th Street,Manhattan,110,BX19,Not Applicable,40.8229323975,-73.9418324656,X,AREA OF MINIMAL FLOOD HAZARD,5
POINT (-73.95581056441588 40.7680357310893),1,Manhattan,108,5,76,28,12,1471,603,General,backed,05/21/2013,1350 1st Avenue,1350 1st Avenue,1st Avenue,E 72nd & E73rd Street,Manhattan,108,Not Applicable,Not Applicable,40.768044,-73.955812,X,AREA OF MINIMAL FLOOD HAZARD,
POINT (-73.9913405545518 40.744881737128715),1,Manhattan,105,3,75,28,12,3335,0,Municipal Facilities,,,776 6th Avenue,776 6th Avenue,6th Avenue,W 26th Street & W 27th Street,Manhattan,105,Not Applicable,Not Applicable,40.74489,-73.991342,X,AREA OF MINIMAL FLOOD HAZARD,
POINT (-73.94195556399144 40.83803171722275),1,Manhattan,112,7,71,31,13,3634,47,Bus Route,backless 2,05/06/2017,3906 Broadway,3906 Broadway,Broadway,W. 164th Street & W. 163rd Street,Manhattan,112,M4,Not Applicable,40.83804,-73.941957,X,AREA OF MINIMAL FLOOD HAZARD,
POINT (-73.97491555688913 40.78783172768615),1,Manhattan,107,6,67,31,10,3936,349,Senior Safety,backed 2,02/05/2018,540 Amsterdam Avenue,540 Amsterdam Avenue,Amsterdam Avenue,86th Street & 87th Street,Manhattan,107,Not Applicable,Not Applicable,40.78784,-73.974917,X,AREA OF MINIMAL FLOOD HAZARD,
POINT (-73.97459255980438 40.74228473708302),1,Manhattan,106,4,74,27,12,3201,1897,AAR,backed,10/28/2015,550 1st Avenue,550 1st Avenue,1st Avenue,E. 34th Street and E. 30th Street,Manhattan,106,Not Applicable,Not Applicable,40.742293,-73.974594,X,AREA OF MINIMAL FLOOD HAZARD,1
POINT (-73.95179356271659 40.81171172240318),1,Manhattan,110,9,70,30,13,2151,1027,General,backed,10/10/2013,330 St. Nicholas Avenue,330 St. Nicholas Avenue,St. Nicholas Avenue,W 126th Street & W 127th Street,Manhattan,110,Not Applicable,Not Applicable,40.81172,-73.951795,X,AREA OF MINIMAL FLOOD HAZARD,
POINT (-73.96870455892274 40.794255726145096),1,Manhattan,107,7,69,30,10,825,466,General,backed,02/06/2013,163 West 97th Street,163 West 97th Street,West 97th Street,Amsterdam Avenue & Columbus Avenue,Manhattan,107,Not Applicable,Not Applicable,40.794264,-73.968706,X,AREA OF MINIMAL FLOOD HAZARD,
POINT (-73.9488025628923 40.82571871920883),1,Manhattan,109,7,71,31,13,3,2019,Bus Route,backless,05/17/2012,540 West 145th Street,540 West 145th Street,West 145th Street,Broadway and Amsterdam Avenue,Manhattan,109,BX19,Not Applicable,40.825727,-73.948804,X,AREA OF MINIMAL FLOOD HAZARD,
POINT (-73.98204055762037 40.73185373859279),1,Manhattan,106,4,74,27,12,3053,1831,General,backed,11/28/2014,250 1st Avenue,250 1st Avenue,1st Avenue,East 14th Street & East 15th Street,Manhattan,106,M15,Not Applicable,40.731862,-73.982042,X,AREA OF MINIMAL FLOOD HAZARD,4
POINT (-73.9437405671401 40.787010727064875),1,Manhattan,111,8,68,29,13,3354,244,Municipal Facilities,backed,08/03/2017,345 E 101st Street,345 E 101st Street,1st Avenue,1st Avenue & 2nd Avenue,Manhattan,111,Not Applicable,Not Applicable,40.787019,-73.943742,X,0.2 PCT ANNUAL CHANCE FLOOD HAZARD,3
POINT (-73.97080055813456 40.791700726824104),1,Manhattan,107,6,69,30,10,1972,500,General,backed,07/23/2013,154 West 93rd Street,154 West 93rd Street,West 93rd Street,Amsterdam Avenue & Columbus Avenue,Manhattan,107,Not Applicable,Not Applicable,40.791709,-73.970802,X,AREA OF MINIMAL FLOOD HAZARD,
POINT (-73.93840556480296 40.84629071535887),1,Manhattan,112,10,72,31,13,3337,9011,Plaza,backless,12/01/2015,4140 Broadway,4140 Broadway,W. 175th Street,W. 175th Street & W. 176th Street,Manhattan,112,Not Applicable,Not Applicable,40.846299,-73.938407,X,AREA OF MINIMAL FLOOD HAZARD,
POINT (-73.99637826607854 40.7157621892893),1,Manhattan,103,1,65,26,7,3805,402,Senior Safety,backed,12/28/2017,50 Bowery,50 Bowery,Bowery,Canal Street & Slip Lane,Manhattan,103,Not Applicable,Not Applicable,40.7157621893,-73.9963782661,X,AREA OF MINIMAL FLOOD HAZARD,
POINT (-73.9913375566573 40.71326474292799),1,Manhattan,103,1,65,26,7,1109,721,Senior Center,backless,04/29/2013,122 Henry Street,122 Henry Street,Pike,Madison Street & Pike,Manhattan,103,M15,Not Applicable,40.713273,-73.991339,X,AREA OF MINIMAL FLOOD HAZARD,6
POINT (-73.94072156454422 40.83975971675525),1,Manhattan,112,10,72,31,13,3002,1525,Municipal Facilities,backed,01/23/2015,3959 Broadway,3959 Broadway,Broadway,West 166th Street & West 167th Street,Manhattan,112,M5,Not Applicable,40.839768,-73.940723,X,AREA OF MINIMAL FLOOD HAZARD,
POINT (-73.95705456412276 40.770605730676884),1,Manhattan,108,4,76,28,12,1096,1718,Senior Center,backless,05/08/2013,1437 2nd Avenue,1437 2nd Avenue,2nd Avenue,74th Street and 75th Street,Manhattan,108,Not Applicable,Not Applicable,40.770614,-73.957056,X,AREA OF MINIMAL FLOOD HAZARD,
POINT (-73.94517956658079 40.793754725492335),1,Manhattan,111,8,68,30,13,1241,222,General,backed,10/05/2012,1738 - 1740 Lexington Avenue,1744 Lexington Avenue,Lexington Avenue,East 108th and 109th Streets,Manhattan,111,Not Applicable,Not Applicable,40.793763,-73.945181,AE,,4
POINT (-73.93698756842427 40.80207072393757),1,Manhattan,111,8,68,30,13,1250,53,General,backless,10/05/2012,2253 Third Avenue,,3rd Avenue,East 122nd and 123rd Streets,Manhattan,111,BX06,Not Applicable,40.802079,-73.936989,X,AREA OF MINIMAL FLOOD HAZARD,4
POINT (-73.96522755904181 40.806163723557255),1,Manhattan,109,7,69,30,10,2551,1594,Municipal Facilities,backed,06/01/2015,2900 Broadway,2900 Broadway,Broadway,West 113th Street & West 114th Street,Manhattan,109,Not Applicable,Not Applicable,40.806172,-73.965229,X,AREA OF MINIMAL FLOOD HAZARD,
POINT (-73.9715365582727 40.79245572652386),1,Manhattan,107,6,69,30,10,1299,440,General,backed,03/07/2013,690 Amsterdam Avenue,690 Amsterdam Avenue,Amsterdam Avenue,West 93rd and 94th Streets,Manhattan,107,Not Applicable,Not Applicable,40.792464,-73.971538,X,AREA OF MINIMAL FLOOD HAZARD,
POINT (-73.93437556552767 40.85061771455932),1,Manhattan,112,10,72,31,13,2761,1476,Municipal Facilities,backed,12/04/2014,185 Wadsworth Avenue,185 Wadsworth Avenue,Wadsworth Avenue,W. 182nd Street and W. 183rd Street,Manhattan,112,Not Applicable,Not Applicable,40.850626,-73.934377,X,AREA OF MINIMAL FLOOD HAZARD,
POINT (-73.93624056530139 40.84697071471519),1,Manhattan,112,10,72,31,13,3643,223,Senior Safety,backed,08/01/2017,618 W. 177th Street,618 W. 177th Street,Wadsworth Avenue,Wadsworth Avenue & St. Nicholas Avenue,Manhattan,112,Not Applicable,Not Applicable,40.846979,-73.936242,X,AREA OF MINIMAL FLOOD HAZARD,
POINT (-73.93492756614147 40.851715714080115),1,Manhattan,112,10,72,31,13,2985,1635,Municipal Facilities,backless,01/15/2015,4306 Broadway,4306 Broadway,Broadway,W 183rd Street & 184th Street,Manhattan,112,M100,Not Applicable,40.851724,-73.934929,X,AREA OF MINIMAL FLOOD HAZARD,
POINT (-73.97969255655005 40.776902730395264),1,Manhattan,107,6,67,27,10,899,248,General,backed,10/01/2012,111 West 71st Street,111 West 71st Street,West 71st Street,Columbus Avenue & Broadway,Manhattan,107,Not Applicable,Not Applicable,40.776911,-73.979694,X,AREA OF MINIMAL FLOOD HAZARD,
POINT (-73.9805725595212 40.7164777418693),1,Manhattan,103,2,65,26,7,4095,649,General,backed,12/20/2018,43 Columbia Street,43 Columbia Street,Columbia Street,Rivington Street & Delancey Street,Manhattan,103,Not Applicable,Not Applicable,40.716486,-73.980574,X,AREA OF MINIMAL FLOOD HAZARD,4
POINT (-73.98936355549473 40.741856737579134),1,Manhattan,105,3,75,28,12,2211,0,BID,backed,12/04/2013,200 5th Avenue,200 5th Avenue,23rd Street,5th Avenue and 6th Avenue,Manhattan,105,Not Applicable,Flatiron/23rd Street Partnership,40.741865,-73.989365,X,AREA OF MINIMAL FLOOD HAZARD,
POINT (-73.98241055497024 40.77894572990687),1,Manhattan,107,6,67,29,10,2279,1168,General,backed,12/03/2013,201 W 72nd Street,201 W 72nd Street,W 72nd Street,Broadway & West End Avenue,Manhattan,107,Not Applicable,Not Applicable,40.778954,-73.982412,X,AREA OF MINIMAL FLOOD HAZARD,
POINT (-73.99425155481423 40.719821742249756),1,Manhattan,102,1,65,26,7,3799,356,Senior Safety,backless 2,08/02/2017,162 Bowery,162 Bowery,Bowery,Kenmare Street & Broome Street,Manhattan,102,M103,Not Applicable,40.71983,-73.994253,X,AREA OF MINIMAL FLOOD HAZARD,
POINT (-73.93272457008557 40.79561772467892),1,Manhattan,111,8,68,29,13,1232,242,General,backed,10/11/2012,318 Pleasant Avenue,318 Pleasant Avenue,Pleasant Avenue,East 116th and 117th Streets,Manhattan,111,Not Applicable,Not Applicable,40.795626,-73.932726,X,0.2 PCT ANNUAL CHANCE FLOOD HAZARD,3
POINT (-73.93379456656099 40.849205714676884),1,Manhattan,112,10,72,31,13,3388,1771,General,backed,06/16/2016,1420 St Nicholas Avenue,566 W 181st Street,W 181st Street,St Nicholas Avenue & Audubon Avenue,Manhattan,112,Not Applicable,Washington Heights,40.849214,-73.933796,X,AREA OF MINIMAL FLOOD HAZARD,
POINT (-74.01147354992288 40.714441743417474),1,Manhattan,101,1,66,26,10,1940,521,BID,backed 2,07/31/2018,255 Greenwich Street,255 Greenwich Street,Murray Street,Greenwhich Street & West Broadway,Manhattan,101,Not Applicable,Alliance for Downtown New York,40.71445,-74.011475,X,0.2 PCT ANNUAL CHANCE FLOOD HAZARD,2
POINT (-73.99315755381265 40.73347173877925),1,Manhattan,102,2,66,28,12,3079,1489,General,backed,09/12/2015,83 University Place,83 University Place,University Place,East 11th Street & East 12th Street,Manhattan,102,Not Applicable,Village Alliance,40.73348,-73.993159,X,AREA OF MINIMAL FLOOD HAZARD,
POINT (-73.93701056696806 40.819381720692334),1,Manhattan,110,9,71,30,13,3370,2067,Municipal Facilities,backed,06/03/2016,669 Lenox Avenue,669 Lenox Avenue,Lenox Avenue,W 143rd Street & W 144th Street,Manhattan,110,Not Applicable,Not Applicable,40.81939,-73.937012,X,AREA OF MINIMAL FLOOD HAZARD,4
POINT (-73.97075255733512 40.794217726215614),1,Manhattan,107,7,69,31,10,806,856,General,backless,10/12/2012,209 West 96th Street,209 West 96th Street,West 96th Street,Broadway and Amsterdam Avenue,Manhattan,107,M96,Not Applicable,40.794226,-73.970754,X,AREA OF MINIMAL FLOOD HAZARD,
POINT (-73.95380686828545 40.806540854395266),1,Manhattan,110,9,70,30,13,2251,1148,Community Health Centers,backless,11/08/2013,2212 Frederick Douglass Boulevard,2212 Frederick Douglass Boulevard,Federick Douglass Boulevard,W 119th Street and W 120th Street,Manhattan,110,M10,Not Applicable,40.8065408544,-73.9538068683,X,AREA OF MINIMAL FLOOD HAZARD,
POINT (-74.01379854891714 40.70750574494161),1,Manhattan,101,1,65,26,10,1018,171,BID,backed,07/10/2012,80 Greenwich Street,80 Greenwich Street,Greenwich Street,Rector and Edgar Streets,Manhattan,101,Not Applicable,Alliance for Downtown New York,40.707514,-74.0138,X,AREA OF MINIMAL FLOOD HAZARD,1
POINT (-74.00729355027502 40.72753174041602),1,Manhattan,102,3,66,27,10,984,122,BID,backed,07/03/2012,345 Hudson Street,345 Hudson Street,Hudson Street,Charlton and King Streets,Manhattan,102,Not Applicable,Hudson Square Connection,40.72754,-74.007295,X,AREA OF MINIMAL FLOOD HAZARD,2
POINT (-73.98953355518024 40.74008073787326),1,Manhattan,105,2,75,28,12,2175,802,BID,backless,07/24/2013,925 Broadway,925 Broadway,Broadway,E21st & E22nd Street,Manhattan,105,Not Applicable,Flatiron/23rd Street Partnership,40.740089,-73.989535,X,AREA OF MINIMAL FLOOD HAZARD,
POINT (-74.00564995418299 40.72654626456495),1,Manhattan,102,3,66,27,10,2014,1949,BID,backed,07/08/2013,157 Varick Street,157 Varick Street,Varick Street,Charlton Street & Vandam Street,Manhattan,102,Not Applicable,Hudson Square Connection,40.7265462646,-74.0056499542,X,AREA OF MINIMAL FLOOD HAZARD,4
POINT (-73.94203656511945 40.83115571800536),1,Manhattan,109,7,71,30,13,4121,611,Bus Route,backless,08/01/2018,458 West 155th Street,458 West 155th Street,West 155th Street,Amsterdam Avenue & Saint Nicholas Avenue,Manhattan,109,BX6,Not Applicable,40.831164,-73.942038,X,AREA OF MINIMAL FLOOD HAZARD,
POINT (-73.97750755680282 40.77914472924811),1,Manhattan,107,6,67,29,10,1819,485,BID,backed,03/18/2013,313 Columbus Avenue,313 Columbus Avenue,Columbus Avenue,W74 & W75th Street,Manhattan,107,Not Applicable,Columbus Avenue,40.779153,-73.977509,X,AREA OF MINIMAL FLOOD HAZARD,
POINT (-73.93840556480296 40.84629071535887),1,Manhattan,112,10,72,31,13,3337,9007,Plaza,backed,12/01/2015,4140 Broadway,4140 Broadway,W. 175th Street,W. 175th Street & W. 176th Street,Manhattan,112,Not Applicable,Not Applicable,40.846299,-73.938407,X,AREA OF MINIMAL FLOOD HAZARD,
POINT (-73.94086156747119 40.79966472441766),1,Manhattan,111,8,68,30,13,1227,237,General,backed,10/10/2012,1890 Lexington Avenue,1890 Lexington Avenue,Lexington Avenue,East 117th and 118th Streets,Manhattan,111,Not Applicable,Not Applicable,40.799673,-73.940863,X,AREA OF MINIMAL FLOOD HAZARD,5
POINT (-73.95627956286083 40.77979172876318),1,Manhattan,108,4,73,28,12,4201,162,Bus Route,backed 2,11/21/2018,123 East 86th Street,123 East 86th Street,East 86th Street,Park Avenue & Lexington Avenue,Manhattan,108,M86,Not Applicable,40.7798,-73.956281,X,AREA OF MINIMAL FLOOD HAZARD,
POINT (-73.93518333769438 40.849920342263424),1,Manhattan,112,10,72,31,13,2987,1488,Municipal Facilities,backless,01/20/2015,648 West 181st Street,648 West 181st Street,West 181st Street,Broadway and Wadsworth Avenue,Manhattan,112,BX35,Not Applicable,40.8499203423,-73.9351833377,X,AREA OF MINIMAL FLOOD HAZARD,
POINT (-73.96586955918022 40.80050672469451),1,Manhattan,107,7,69,31,10,771,0,General,backless,10/12/2012,201 West 106th Street,201 West 106th Street,West 106th Street,Broadway and Amsterdam Avenue,Manhattan,107,M116,Not Applicable,40.800515,-73.965871,X,AREA OF MINIMAL FLOOD HAZARD,
POINT (-73.97384955656324 40.78925272777778),1,Manhattan,107,6,69,29,10,2119,604,Community Health Centers,backed,08/16/2013,589 Amsterdam Avenue,589 Amsterdam Avenue,Amsterdam Avenue,W 88th Street and W 89th Street,Manhattan,107,Not Applicable,Not Applicable,40.789261,-73.973851,X,AREA OF MINIMAL FLOOD HAZARD,
POINT (-73.94636456543194 40.79316572548861),1,Manhattan,111,8,68,29,13,1242,240,General,backed,10/09/2012,127 East 107th Street,127 East 107th Street,East 107th Street,East 107th and 108th Streets,Manhattan,111,Not Applicable,Not Applicable,40.793174,-73.946366,X,0.2 PCT ANNUAL CHANCE FLOOD HAZARD,3
POINT (-73.95569356408564 40.764190731436166),1,Manhattan,108,5,76,28,12,3156,2257,AAR,backed,04/13/2016,1275 York Ave,1275 York Ave,York Ave,E 67th Street & E 66th Street,Manhattan,108,Not Applicable,Not Applicable,40.764199,-73.955695,X,AREA OF MINIMAL FLOOD HAZARD,
POINT (-73.9868885539968 40.77500173062088),1,Manhattan,107,6,67,31,10,2336,1026,Senior Center,backed,01/15/2014,250 W65th Street,250 W65th Street,W 65th Street,West End Avenue & Amsterdam Avenue,Manhattan,107,M66,Not Applicable,40.77501,-73.98689,X,AREA OF MINIMAL FLOOD HAZARD,
POINT (-73.9398705662359 40.80966372218081),1,Manhattan,111,9,70,30,13,1660,496,Senior Center,backed,03/14/2013,2121 Fifth Avenue,2121 5th Avenue,5th Avenue,East 130th Street & East 131st Street,Manhattan,111,Not Applicable,Not Applicable,40.809672,-73.939872,X,AREA OF MINIMAL FLOOD HAZARD,5
POINT (-74.01144854908726 40.71696374281572),1,Manhattan,101,1,66,26,10,3064,0,Municipal Facilities,backless,02/04/2015,Washington Market Park,181 Chambers Street,Chambers Street,Greenwich Street & West Street,Manhattan,101,M20,Not Applicable,40.716972,-74.01145,X,AREA OF MINIMAL FLOOD HAZARD,1
POINT (-73.96558355937454 40.79549272587298),1,Manhattan,107,7,69,30,13,1278,244,General,backed,10/15/2012,819 Columbus Avenue,819 Columbus Avenue,Columbus Avenue,West 100th and 104th Streets,Manhattan,107,Not Applicable,Not Applicable,40.795501,-73.965585,X,AREA OF MINIMAL FLOOD HAZARD,
POINT (-73.94743756539889 40.79644872534677),1,Manhattan,111,9,68,30,13,1240,214,General,backed,10/05/2012,1660 Madison Avenue,1660 Madison Avenue,Madison Avenue,East 110th and 111th Streets,Manhattan,111,Not Applicable,Not Applicable,40.796457,-73.947439,X,AREA OF MINIMAL FLOOD HAZARD,5
POINT (-73.9827295570742 40.74805373557445),1,Manhattan,106,2,75,28,12,431,493,Bus Route,backless,04/09/2013,191 Madison Avenue,191 Madison Ave,Madison Avenue,E34th Street & E35th Street,Manhattan,106,M04,Not Applicable,40.748062,-73.982731,X,AREA OF MINIMAL FLOOD HAZARD,
POINT (-74.00748655149106 40.70492374476891),1,Manhattan,101,1,65,26,10,2033,2349,General,backed,08/08/2013,95 Wall Street,95 Water Street,Water Street,Wall Street and Gouveneur Street,Manhattan,101,Not Applicable,Alliance for Downtown New York,40.704932,-74.007488,AE,,1
POINT (-74.01147354992288 40.714441743417474),1,Manhattan,101,1,66,26,10,1940,489,BID,backed 2,07/31/2018,255 Greenwich Street,255 Greenwich Street,Murray Street,Greenwhich Street & West Broadway,Manhattan,101,Not Applicable,Alliance for Downtown New York,40.71445,-74.011475,X,0.2 PCT ANNUAL CHANCE FLOOD HAZARD,2
POINT (-73.92955156631336 40.86231771200832),1,Manhattan,112,10,72,31,13,2983,1798,Municipal Facilities,backless,01/15/2015,4650 Broadway,4650 Broadway,Broadway,Dongan Place & Sherman Avenue,Manhattan,112,M100,Not Applicable,40.862326,-73.929553,X,AREA OF MINIMAL FLOOD HAZARD,6
POINT (-74.0061595518378 40.70942174385658),1,Manhattan,101,1,65,26,10,1015,94,BID,backed,07/09/2012,95 Fulton Street,,Fulton Street,Gold and William Streets,Manhattan,101,Not Applicable,Alliance for Downtown New York,40.70943,-74.006161,X,AREA OF MINIMAL FLOOD HAZARD,5
POINT (-73.9496735653214 40.781990728075954),1,Manhattan,108,5,73,29,12,3849,173,General,backed 2,07/05/2017,245 E 92nd Street,1779 2nd Avenue,2nd Avenue,2nd Avenue & 3rd Avenue,Manhattan,108,Not Applicable,Not Applicable,40.781999,-73.949675,X,AREA OF MINIMAL FLOOD HAZARD,6
POINT (-73.98141555592163 40.773823730831516),1,Manhattan,107,6,67,27,10,3660,2310,Senior Safety,backless,06/21/2017,144 Columbus Avenue,144 Columbus Avenue,Columbus Avenue,W 66th Street & W 67th Street,Manhattan,107,M72,Lincoln Square,40.773832,-73.981417,X,AREA OF MINIMAL FLOOD HAZARD,
POINT (-73.9405835670922 40.80004672458422),1,Manhattan,111,9,68,30,13,4103,855,General,backless 2,03/20/2019,1900 Lexington Avenue,1900 Lexington Avenue,Lexington Avenue,East 118th Street & East 119th Street,Manhattan,111,M101,Not Applicable,40.800055,-73.940585,X,AREA OF MINIMAL FLOOD HAZARD,6
POINT (-74.0080045499243 40.72739174060734),1,Manhattan,102,3,66,27,10,983,255,BID,backed,10/24/2012,103 Charlton Street,103 Charlton Street,Charlton Street,Broome and Grand Streets,Manhattan,102,Not Applicable,Hudson Square Connection,40.7274,-74.008006,X,AREA OF MINIMAL FLOOD HAZARD,2
POINT (-73.94871956579586 40.77777972880497),1,Manhattan,108,5,76,28,12,3691,245,Senior Safety,backed,08/03/2017,1681 1st Avenue,1681 1st Avenue,1st Avenue,E. 87th Street & E. 88th Street,Manhattan,108,Not Applicable,Not Applicable,40.777788,-73.948721,X,AREA OF MINIMAL FLOOD HAZARD,
POINT (-73.9796905585993 40.73483373816867),1,Manhattan,106,4,74,27,12,2204,134,General,backed 2,07/20/2016,401 East 20th Street,401 East 20th Street,East 20th Street,1st Avenue and FDR Drive,Manhattan,106,M23,Not Applicable,40.734842,-73.979692,X,AREA OF MINIMAL FLOOD HAZARD,3
POINT (-73.93613756539224 40.84820071490406),1,Manhattan,112,10,72,31,13,3637,240,Senior Safety,backed,08/01/2017,111 Wadsworth Avenue,111 Wadsworth Avenue,Wadsworth Avenue,W. 178th Street & W. 179th Street,Manhattan,112,Not Applicable,Not Applicable,40.848209,-73.936139,X,AREA OF MINIMAL FLOOD HAZARD,
POINT (-73.94553156629784 40.78636972727609),1,Manhattan,111,8,68,29,13,3826,0,General,,,1924 2nd Avenue,1924 2nd Avenue,2nd Avenue,E 99th Street & E 100th Street,Manhattan,111,Not Applicable,Not Applicable,40.786378,-73.945533,X,AREA OF MINIMAL FLOOD HAZARD,3
POINT (-73.94133656559191 40.818521720520664),1,Manhattan,110,9,70,30,13,1220,245,General,backed,10/12/2012,2401 Adam Clayton Powell Jr. Blvd,,West 140th Street,West 140th and 141st Streets,Manhattan,110,Not Applicable,Not Applicable,40.81853,-73.941338,X,AREA OF MINIMAL FLOOD HAZARD,4
POINT (-73.92833656667888 40.86640671064129),1,Manhattan,112,10,71,31,13,1944,665,General,backed,07/29/2013,250 Dyckman Street,250 Dyckman Street,Dyckman Street,Seaman Avenue & Payson Avenue,Manhattan,112,Not Applicable,Not Applicable,40.866415,-73.928338,X,AREA OF MINIMAL FLOOD HAZARD,5
POINT (-73.96222956027921 40.80521872385468),1,Manhattan,109,7,69,30,10,4210,614,Bus Route,backless 2,04/11/2019,1090 Amsterdam Avenue,1090 Amsterdam Avenue,Amsterdam Avenue,W 113th & W 114th Street,Manhattan,109,M11,Not Applicable,40.805227,-73.962231,X,AREA OF MINIMAL FLOOD HAZARD,
POINT (-73.95520356386994 40.77931972883766),1,Manhattan,108,5,73,28,12,4202,606,Bus Route,backless,11/20/2018,144 East 86th Street,144 East 86th Street,East 86th Street,Park Avenue & Lexington Avenue,Manhattan,108,M86,Not Applicable,40.779328,-73.955205,X,AREA OF MINIMAL FLOOD HAZARD,
POINT (-73.99253192111725 40.72430643916978),1,Manhattan,103,2,65,26,12,1523,0,General,backed,,285 Bowery,285 Bowery,East Houston,Bowery & Chrystie Street,Manhattan,103,Not Applicable,Not Applicable,40.7243064392,-73.9925319211,X,AREA OF MINIMAL FLOOD HAZARD,
POINT (-73.99634955316924 40.74439573751689),1,Manhattan,104,3,75,27,12,2218,465,General,backed,11/06/2013,215 West 23rd Street,215 West 23rd Street,West 23rd Street,7th and 8th Avenues,Manhattan,104,Not Applicable,Not Applicable,40.744404,-73.996351,X,AREA OF MINIMAL FLOOD HAZARD,5
POINT (-73.90788457280156 40.87605370785769),1,Manhattan,208,10,72,31,13,3407,118,Bus Route,backless 2,07/03/2017,5365 Broadway,5365 Broadway,Broadway,W. 228th Street & W. 230th Street,Bronx,208,BX07,Not Applicable,40.876062,-73.907886,X,AREA OF MINIMAL FLOOD HAZARD,4
POINT (-73.95448130036776 40.7658257508325),1,Manhattan,108,5,76,28,12,1986,1128,General,backed,01/10/2014,1320 York Avenue,1313 & 1320 York Avenue,York Avenue,E 70th & E 71st Street,Manhattan,108,Not Applicable,Not Applicable,40.7658257508,-73.9544813004,X,AREA OF MINIMAL FLOOD HAZARD,4
POINT (-73.93867056777394 40.80263672358996),1,Manhattan,111,8,68,30,13,1222,239,General,backed,10/10/2012,2009-2011 Lexington Avenue,2011 Lexington Avenue,Lexington Avenue,East 122nd and 123rd Streets,Manhattan,111,Not Applicable,Not Applicable,40.802645,-73.938672,X,AREA OF MINIMAL FLOOD HAZARD,4
POINT (-73.96932755865211 40.79038772700086),1,Manhattan,107,6,69,30,10,4037,512,General,backed 2,04/30/2018,660 Columbus Avenue,660 Columbus Avenue,Columbus Avenue,92nd & 93rd StreetS,Manhattan,107,Not Applicable,Not Applicable,40.790396,-73.969329,X,AREA OF MINIMAL FLOOD HAZARD,
POINT (-73.93636356852777 40.79729372505854),1,Manhattan,111,8,68,29,13,2111,808,Community Health Centers,backed,09/04/2013,319 East 117th Street,319 East 117th Street,East 117th Street,2nd and 1st Avenues,Manhattan,111,Not Applicable,Not Applicable,40.797302,-73.936365,AE,,3
POINT (-73.95794656370444 40.769376731128126),1,Manhattan,108,4,76,28,12,3854,147,General,backed 2,07/05/2017,1399 2nd Avenue,1399 2nd Avenue,2nd Avenue,E 72nd Street & E 73rd Street,Manhattan,108,Not Applicable,Not Applicable,40.769385,-73.957948,X,AREA OF MINIMAL FLOOD HAZARD,
POINT (-73.94984222781255 40.78047249499401),1,Manhattan,108,5,76,28,12,2312,1089,Senior Center,backed,01/10/2014,1732 2nd Avenue,1732 2nd Avenue,2nd Avenue,E 90th Street & E 91st Street,Manhattan,108,M15,Not Applicable,40.780472495,-73.9498422278,X,AREA OF MINIMAL FLOOD HAZARD,
POINT (-73.92776556698477 40.86595871050777),1,Manhattan,112,10,72,31,13,2373,956,General,backed,04/18/2014,233 Dyckman Street,233 Dyckman Street,Dyckman Street,Broadway & Seaman Avenue,Manhattan,112,Not Applicable,Not Applicable,40.865967,-73.927767,X,AREA OF MINIMAL FLOOD HAZARD,6
POINT (-73.94836656471698 40.795137725591786),1,Manhattan,111,8,68,30,13,2794,1725,Municipal Facilities,backed,12/08/2014,1615 Madison Avenue,1615 Madison Avenue,Madison Avenue,East 108th Street & East 109th Street,Manhattan,111,Not Applicable,Not Applicable,40.795146,-73.948368,X,0.2 PCT ANNUAL CHANCE FLOOD HAZARD,4
POINT (-73.9768535562723 40.780813728828264),1,Manhattan,107,6,67,29,10,1831,447,General,backed,03/25/2013,100 West 77th Street,100 West 77th Street,Columbus Avenue,76th Street & 77th Street,Manhattan,107,Not Applicable,Columbus Avenue,40.780822,-73.976855,X,AREA OF MINIMAL FLOOD HAZARD,
POINT (-73.99510155293818 40.73971873797179),1,Manhattan,105,3,75,28,12,1671,573,General,backed,06/14/2013,610 6th Avenue,610 6th Avenue,6th Avenue,West 17th & 18th Street,Manhattan,105,Not Applicable,Not Applicable,40.739727,-73.995103,X,AREA OF MINIMAL FLOOD HAZARD,
POINT (-73.93600056637345 40.82912471881209),1,Manhattan,110,9,71,30,13,3091,1804,Bus Route,backed,06/01/2016,Holcombe Rucker Park,2927 Frederick Douglass Boulevard,Frederick Douglass Boulevard,W. 155th Street and Harlem River Drive,Manhattan,110,M10,Not Applicable,40.829133,-73.936002,X,AREA OF MINIMAL FLOOD HAZARD,3
POINT (-73.944877566147 40.79126872577628),1,Manhattan,111,8,68,29,13,2108,953,Community Health Centers,backless,08/15/2013,1915 3rd Avenue,1915 3rd Avenue,East 106th Street,2nd and 3rd Avenues,Manhattan,111,M106,Not Applicable,40.791277,-73.944879,AE,,3
POINT (-73.94969856569946 40.78282472791312),1,Manhattan,108,5,73,29,12,3848,140,General,backed 2,07/05/2017,245 E 93rd Street,1801 2nd Avenue,2nd Avenue,2nd Avenue & 3rd Avenue,Manhattan,108,Not Applicable,Not Applicable,40.782833,-73.9497,X,AREA OF MINIMAL FLOOD HAZARD,5
POINT (-74.00081355174721 40.72736174085333),1,Manhattan,102,3,66,26,10,819,859,General,backless,09/28/2012,109 West Houston Street,109 West Houston Street,West Houston Street,Sullivan and Thompson Streets,Manhattan,102,M21,Not Applicable,40.72737,-74.000815,X,AREA OF MINIMAL FLOOD HAZARD,5
POINT (-73.959832563361 40.76676173172651),1,Manhattan,108,5,76,28,12,3840,193,General,backed 2,07/05/2017,1310 2nd Avenue,1310 2nd Avenue,2nd Avenue,E 68th Street & 69th Street,Manhattan,108,Not Applicable,Not Applicable,40.76677,-73.959834,X,AREA OF MINIMAL FLOOD HAZARD,
POINT (-73.99033455538849 40.74048673762502),1,Manhattan,105,2,75,28,12,2209,1125,BID,backed,12/04/2013,155 5th Avenue,155 5th Avenue,5th Avenue,W 21st Street and W 22nd Street,Manhattan,105,Not Applicable,Flatiron/23rd Street Partnership,40.740495,-73.990336,X,AREA OF MINIMAL FLOOD HAZARD,
POINT (-74.01122754943678 40.71531174351139),1,Manhattan,101,1,66,26,10,2621,0,General,backless,08/12/2014,270 Greenwich Street,270 Greenwich Street,Warren Street,Greenwich Street & West Street,Manhattan,101,M09,Not Applicable,40.71532,-74.011229,X,AREA OF MINIMAL FLOOD HAZARD,1
POINT (-73.92551799931384 40.862784415064326),1,Manhattan,112,10,72,31,13,1217,557,Senior Center,backed,05/06/2013,136 Dyckman Street,136 Dyckman Street,Dyckman Street,Sherman & Post Avenue,Manhattan,112,Not Applicable,Not Applicable,40.8627844151,-73.9255179993,X,AREA OF MINIMAL FLOOD HAZARD,4
POINT (-73.9601675625136 40.781423728530264),1,Manhattan,108,4,73,28,12,3253,2275,Bus Route,backless,04/13/2016,1 E 86th Street,1 E 86th Street,E 86th Street,5th Avenue & Madison Avenue,Manhattan,108,M86,Not Applicable,40.781432,-73.960169,X,AREA OF MINIMAL FLOOD HAZARD,
POINT (-73.9662885592713 40.794559726323804),1,Manhattan,107,7,69,30,10,2080,354,General,backless 2,10/11/2013,808 Columbus Avenue,808 Columbus Avenue,97th Street,Amsterdam Avenue and Columbus Avenue,Manhattan,107,Not Applicable,Not Applicable,40.794568,-73.96629,X,AREA OF MINIMAL FLOOD HAZARD,
POINT (-74.00165155088078 40.746053736810055),1,Manhattan,104,3,75,27,10,2025,1451,General,backed,07/22/2013,201 9th Avenue,201 9th Avenue,9th Avenue,22nd and 23rd Streets,Manhattan,104,Not Applicable,Not Applicable,40.746062,-74.001653,X,AREA OF MINIMAL FLOOD HAZARD,2
POINT (-73.9795255556275 40.77861572997031),1,Manhattan,107,6,67,29,10,1379,188,General,backed,12/19/2012,141 West 73rd Street,141 West 73rd Street,73rd Street,Columbus and Amsterdam Avenues,Manhattan,107,Not Applicable,Not Applicable,40.778624,-73.979527,X,AREA OF MINIMAL FLOOD HAZARD,
POINT (-74.01166569284828 40.71386777027654),1,Manhattan,101,1,66,26,10,1942,708,BID,backed,06/13/2013,230 Greenwich Street,230 Greenwich Street,Greenwich Street & Barclay Street,Greenwich Street & Washington Street,Manhattan,101,Not Applicable,Alliance for Downtown New York,40.7138677703,-74.0116656928,X,0.2 PCT ANNUAL CHANCE FLOOD HAZARD,1
POINT (-73.95516556413546 40.777175728782375),1,Manhattan,108,5,76,28,12,3689,214,Senior Safety,backed,08/03/2017,1479 3rd Avenue,1479 3rd Avenue,3rd Avenue,E 84th Street & E 83rd Street,Manhattan,108,Not Applicable,Not Applicable,40.777184,-73.955167,X,AREA OF MINIMAL FLOOD HAZARD,
POINT (-73.97457555996142 40.73009573942488),1,Manhattan,106,4,74,27,12,4165,856,General,backless 2,04/11/2019,276 Avenue C,276 Avenue C,Avenue C,East 16th Street & East 15th Street,Manhattan,106,M09,Not Applicable,40.730104,-73.974577,AE,,1
POINT (-73.94930756435143 40.79352372576337),1,Manhattan,111,8,68,30,13,3212,1868,General,backed,10/28/2015,61 E 106th Street,61 E 106th Street,E 106th Street,Madison Avenue and Park Avenue,Manhattan,111,Not Applicable,Not Applicable,40.793532,-73.949309,X,AREA OF MINIMAL FLOOD HAZARD,4
POINT (-73.97489355659059 40.78782272779197),1,Manhattan,107,6,69,29,10,1306,48,General,backless,10/15/2012,541 Amsterdam Avenue,541 Amsterdam Ave,Amsterdam Avenue,W. 86th Street & W. 87th Street,Manhattan,107,M11,Not Applicable,40.787831,-73.974895,X,AREA OF MINIMAL FLOOD HAZARD,
POINT (-74.01334754935739 40.70855174453404),1,Manhattan,101,1,65,26,10,1020,166,BID,backed,07/11/2012,110 Greenwich Street,110 Greenwich Street,Greenwich Street,Rector and Carlisle Streets,Manhattan,101,Not Applicable,Alliance for Downtown New York,40.70856,-74.013349,X,AREA OF MINIMAL FLOOD HAZARD,1
POINT (-73.95410556224012 40.8112127222441),1,Manhattan,109,9,70,30,13,1181,348,BID,backed,01/16/2013,133 Morningside Avenue,,Morningside Avenue,W125th Street & W126th Street,Manhattan,110,Not Applicable,125th Street,40.811221,-73.954107,X,AREA OF MINIMAL FLOOD HAZARD,
POINT (-73.94150956575385 40.81831572073644),1,Manhattan,110,9,70,30,13,3962,296,Bus Route,backless 2,01/09/2018,2394 Adam Clayton Powell Jr Blvd,2394 Adam Clayton Powell Jr Blvd,Adam Clayton Powell Jr Blvd,W139th Street & W140th Street,Manhattan,110,M02,Not Applicable,40.818324,-73.941511,X,AREA OF MINIMAL FLOOD HAZARD,6
POINT (-73.9493795644369 40.793754725807666),1,Manhattan,111,8,68,30,13,3173,1822,General,backed,10/28/2015,1573 Madison Avenue,1573 Madison Avenue,Madison Avenue,E. 106th Street and E. 107th Street,Manhattan,111,Not Applicable,Not Applicable,40.793763,-73.949381,X,AREA OF MINIMAL FLOOD HAZARD,4
POINT (-73.97588956062562 40.71902074136295),1,Manhattan,103,2,74,26,7,2998,1741,Municipal Facilities,backless,01/22/2015,525 East Houston Street,525 East Houston Street,East Houston Street,Baruch Place & FDR Drive,Manhattan,103,M14AD,Not Applicable,40.719029,-73.975891,X,AREA OF MINIMAL FLOOD HAZARD,1
POINT (-74.00922855079638 40.7043197451443),1,Manhattan,101,1,65,26,10,2041,733,General,backed,08/12/2013,10 Hanover Square,10 Hanover Square,Hanover Square,Water and Pearl Streets,Manhattan,101,Not Applicable,Alliance for Downtown New York,40.704328,-74.00923,AE,,1
POINT (-73.95278256462451 40.77646072888283),1,Manhattan,108,5,76,28,12,3852,553,General,backed 2,02/27/2018,1617 2nd Avenue,1617 2nd Avenue,2nd Avenue,E 83rd Street & E 84th Street,Manhattan,108,Not Applicable,Not Applicable,40.776469,-73.952784,X,AREA OF MINIMAL FLOOD HAZARD,
POINT (-73.96394255931146 40.79775372570336),1,Manhattan,107,7,69,30,13,3342,215,Municipal Facilities,backed,08/03/2017,885 Columbus Avenue,885 Columbus Avenue,Columbus Avenue,W 104th Street & W 100th Street,Manhattan,107,Not Applicable,Not Applicable,40.797762,-73.963944,X,AREA OF MINIMAL FLOOD HAZARD,
POINT (-73.93859256194862 40.841358722008536),1,Manhattan,112,10,72,31,13,3285,1924,Municipal Facilities,backed,05/24/2016,560 169th Street,560 169th Street,169th Street,St Nicholas Avenue & Audubon Avenue,Manhattan,112,Not Applicable,Not Applicable,40.841358722,-73.9385925619,X,AREA OF MINIMAL FLOOD HAZARD,
POINT (-73.93067056630615 40.86078171240511),1,Manhattan,112,10,72,31,13,2984,1660,Municipal Facilities,backless,01/15/2015,4600 Broadway,4600 Broadway,Broadway,West 196th Street & Ellwood Street,Manhattan,112,M100,Not Applicable,40.86079,-73.930672,X,AREA OF MINIMAL FLOOD HAZARD,6
POINT (-73.93515243772529 40.796340698509255),1,Manhattan,111,8,68,29,13,3054,1833,General,backed,11/28/2014,2266 1st Avenue,2266 1st Avenue,1st Avenue,East 116th Street & East 117th Street,Manhattan,111,M15,Not Applicable,40.7963406985,-73.9351524377,AE,,3
POINT (-73.99125055416171 40.74225773726768),1,Manhattan,105,3,75,28,12,1770,561,General,backed,05/08/2013,53 West 23rd Street,53 West 23rd Street,West 23rd Street,5th and 6th Avenues,Manhattan,105,Not Applicable,Not Applicable,40.742266,-73.991252,X,AREA OF MINIMAL FLOOD HAZARD,
POINT (-73.93803256410501 40.85459671348646),1,Manhattan,112,10,71,31,13,1946,740,General,backed,07/19/2013,213 Pinehurst Avenue,213 Pinehurst Avenue,Pinehurst Avenue,W 185th & W187th Street,Manhattan,112,Not Applicable,Not Applicable,40.854605,-73.938034,X,AREA OF MINIMAL FLOOD HAZARD,
POINT (-73.97772880713111 40.72563573479123),1,Manhattan,103,2,74,27,12,1938,447,General,backed,07/23/2013,157 Avenue C,155-157 Avenue C,Avenue C,9th & 10th Street,Manhattan,103,Not Applicable,Not Applicable,40.7256357348,-73.9777288071,AE,,1
POINT (-73.94415156394442 40.82992971851077),1,Manhattan,109,7,71,30,13,3650,55,Senior Safety,backed 2,05/06/2017,1865 Amsterdam Avenue,1865 Amsterdam Avenue,Amsterdam Avenue,W. 152nd Street & W. 153rd Street,Manhattan,109,Not Applicable,Not Applicable,40.829938,-73.944153,X,AREA OF MINIMAL FLOOD HAZARD,
POINT (-73.93840556480296 40.84629071535887),1,Manhattan,112,10,72,31,13,3337,9013,Plaza,backless,12/01/2015,4140 Broadway,4140 Broadway,W. 175th Street,W. 175th Street & W. 176th Street,Manhattan,112,Not Applicable,Not Applicable,40.846299,-73.938407,X,AREA OF MINIMAL FLOOD HAZARD,
POINT (-73.94677556635932 40.784687727093285),1,Manhattan,111,5,68,29,12,3845,190,General,backed 2,07/05/2017,1879 2nd Avenue,1879 2nd Avenue,2nd Avenue,E 97th Street & E 96th Street,Manhattan,108,Not Applicable,Not Applicable,40.784696,-73.946777,X,0.2 PCT ANNUAL CHANCE FLOOD HAZARD,4
POINT (-73.93840556480296 40.84629071535887),1,Manhattan,112,10,72,31,13,3337,9006,Plaza,backed,12/01/2015,4140 Broadway,4140 Broadway,W. 175th Street,W. 175th Street & W. 176th Street,Manhattan,112,Not Applicable,Not Applicable,40.846299,-73.938407,X,AREA OF MINIMAL FLOOD HAZARD,
POINT (-73.97984855993688 40.71590874170991),1,Manhattan,103,2,74,26,7,2997,1552,Municipal Facilities,backless,01/20/2015,288 Delancey Street,335 Delancey Street,Delancey Street,Mangin Street & FDR Drive,Manhattan,103,M14AD,Not Applicable,40.715917,-73.97985,X,AREA OF MINIMAL FLOOD HAZARD,3
POINT (-73.99523955426747 40.72590174027149),1,Manhattan,102,1,66,26,12,2217,1096,General,backed,11/12/2013,167 Crosby Street,167 Crosby Street,Bleeker Street,Bleeker Street and Lafayette Streets,Manhattan,102,Not Applicable,NOHO NY,40.72591,-73.995241,X,AREA OF MINIMAL FLOOD HAZARD,
POINT (-73.99602055162391 40.75887973401888),1,Manhattan,104,3,75,27,10,4022,483,General,backed 2,04/30/2018,555 10th Avenue,555 10th Avenue,10th Avenue,West 40th Street & West 41st Street,Manhattan,104,Not Applicable,Hudson Yards/Hell&#39;s Kitchen,40.758888,-73.996022,X,AREA OF MINIMAL FLOOD HAZARD,5
POINT (-73.98279555864347 40.71404574245261),1,Manhattan,103,1,65,26,7,4094,585,General,backed,12/20/2018,301 Henry Street,301 Henry Street,Henry Street,Grand Street & Samuel Dickstein Plaza,Manhattan,103,Not Applicable,Not Applicable,40.714054,-73.982797,X,AREA OF MINIMAL FLOOD HAZARD,
POINT (-73.9929105537222 40.743799737087926),1,Manhattan,104,3,75,27,12,1384,411,General,backed,12/19/2012,108 West 24th Street,108 West 24th Street,West 24th Street,6th and 7th Avenues,Manhattan,104,Not Applicable,Not Applicable,40.743808,-73.992912,X,AREA OF MINIMAL FLOOD HAZARD,6
POINT (-73.97969255655005 40.776902730395264),1,Manhattan,107,6,67,27,10,899,1205,General,backed,10/01/2012,111 West 71st Street,111 West 71st Street,West 71st Street,Columbus Avenue & Broadway,Manhattan,107,Not Applicable,Not Applicable,40.776911,-73.979694,X,AREA OF MINIMAL FLOOD HAZARD,
POINT (-73.99377055399765 40.73579873827285),1,Manhattan,102,3,66,27,10,3078,0,General,,06/05/2015,80 5th Avenue,80 5th Avenue,5th Avenue,East 13th Street & East 14th Street,Manhattan,102,M01,Union Square Partnership,40.735807,-73.993772,X,AREA OF MINIMAL FLOOD HAZARD,6
POINT (-73.99277955546161 40.723620740590945),1,Manhattan,103,1,65,26,7,2999,1497,Municipal Facilities,backless,01/20/2015,273 Bowery,273 Bowery,Bowery,East Houston Street & Stanton Street,Manhattan,103,M103,Not Applicable,40.723629,-73.992781,X,AREA OF MINIMAL FLOOD HAZARD,
POINT (-73.98402155626255 40.746277736317865),1,Manhattan,105,2,75,28,12,427,0,Bus Route,backless,04/09/2013,145 & 147 Madison Ave,147 Madison Ave,Madison Avenue,E31st Street & E32nd Street,Manhattan,105,M04,Not Applicable,40.746286,-73.984023,X,AREA OF MINIMAL FLOOD HAZARD,
POINT (-73.94678656504678 40.80744372267102),1,Manhattan,110,9,70,30,13,2114,845,Community Health Centers,backed,09/04/2013,119 West 124th Street,119 West 124th Street,West 124th Street,Malcolm X Blvd and 7th Avenue,Manhattan,110,Not Applicable,Not Applicable,40.807452,-73.946788,X,AREA OF MINIMAL FLOOD HAZARD,6
POINT (-74.00628855198404 40.705351744916705),1,Manhattan,101,1,65,26,10,2035,618,General,backed,08/12/2013,88 Pine Street,88 Pine Street,Water Street,Maiden Lane and Pine Street,Manhattan,101,Not Applicable,Alliance for Downtown New York,40.70536,-74.00629,AE,,1
POINT (-73.94173856437597 40.83327171759147),1,Manhattan,112,7,71,31,13,3647,37,Senior Safety,backed,05/06/2017,1970 Amsterdam Avenue,1970 Amsterdam Avenue,Amsterdam Avenue,W. 157th Street & W. 158th Street,Manhattan,112,Not Applicable,Not Applicable,40.83328,-73.94174,X,AREA OF MINIMAL FLOOD HAZARD,
POINT (-73.94782656507667 40.80212772430969),1,Manhattan,110,9,70,30,13,2795,1492,Municipal Facilities,backed,12/08/2014,41 West 117th Street,41 West 117th Street,West 117th Street,5th Avenue & Lenox Avenue,Manhattan,110,Not Applicable,Not Applicable,40.802136,-73.947828,X,AREA OF MINIMAL FLOOD HAZARD,6
POINT (-73.91727357053728 40.86902570977893),1,Manhattan,112,10,72,31,13,2374,785,General,backed,04/18/2014,5030 Broadway,5030 Broadway,Broadway,W 213th & W 214th Street,Manhattan,112,M100,Not Applicable,40.869034,-73.917275,X,AREA OF MINIMAL FLOOD HAZARD,5
POINT (-73.9768535562723 40.780813728828264),1,Manhattan,107,6,67,29,10,1831,473,General,backed,03/25/2013,100 West 77th Street,100 West 77th Street,Columbus Avenue,76th Street & 77th Street,Manhattan,107,Not Applicable,Columbus Avenue,40.780822,-73.976855,X,AREA OF MINIMAL FLOOD HAZARD,
POINT (-74.00748655149106 40.70492374476891),1,Manhattan,101,1,65,26,10,2032,752,General,backless,08/08/2013,95 Wall Street,95 Wall Street,Gouverneur Street,Front Street and Water Street,Manhattan,101,Not Applicable,Alliance for Downtown New York,40.704932,-74.007488,AE,,1
POINT (-73.93927056676506 40.81757072046378),1,Manhattan,110,9,70,30,13,2369,962,Senior Center,backed,03/28/2014,120 W 140th Street,120 W 140th Street,W 140th Street,Adam Clayton Powell Jr. Blvd & Lenox Ave,Manhattan,110,Not Applicable,Not Applicable,40.817579,-73.939272,X,AREA OF MINIMAL FLOOD HAZARD,5
POINT (-73.97080055813456 40.791700726824104),1,Manhattan,107,6,69,30,10,1972,656,General,backed,07/23/2013,154 West 93rd Street,154 West 93rd Street,West 93rd Street,Amsterdam Avenue & Columbus Avenue,Manhattan,107,Not Applicable,Not Applicable,40.791709,-73.970802,X,AREA OF MINIMAL FLOOD HAZARD,
POINT (-74.01211554953251 40.71682974258797),1,Manhattan,101,1,66,26,10,3341,1641,Municipal Facilities,backed,04/16/2016,199 Chambers Street,199 Chambers Street,Chambers Street,West Street & Greenwich Street,Manhattan,101,Not Applicable,Not Applicable,40.716838,-74.012117,AE,,1
POINT (-74.01256154936202 40.70837874484886),1,Manhattan,101,1,65,26,10,1529,930,General,backless,01/13/2014,74 Trinity Place,74 Trinity Place,Trinity Place,Rector and Thames,Manhattan,101,M05,Alliance for Downtown New York,40.708387,-74.012563,X,AREA OF MINIMAL FLOOD HAZARD,3
POINT (-73.95306756133887 40.82282272055922),1,Manhattan,109,7,70,31,13,1638,481,Senior Center,backless,03/08/2013,3424 Broadway,3424 Broadway,Broadway,139th Street & 140th Street,Manhattan,109,M04,Not Applicable,40.822831,-73.953069,X,AREA OF MINIMAL FLOOD HAZARD,
POINT (-73.95627956286083 40.77979172876318),1,Manhattan,108,4,73,28,12,4201,271,Bus Route,backed 2,11/21/2018,123 East 86th Street,123 East 86th Street,East 86th Street,Park Avenue & Lexington Avenue,Manhattan,108,M86,Not Applicable,40.7798,-73.956281,X,AREA OF MINIMAL FLOOD HAZARD,
POINT (-74.00450755224702 40.71333874320996),1,Manhattan,101,1,66,26,10,3502,2304,General,backed,09/15/2016,23 Chambers Street,23 Chambers Street,Centre Street,Centre Street & Elk Street,Manhattan,101,M22,Not Applicable,40.713347,-74.004509,X,AREA OF MINIMAL FLOOD HAZARD,5
POINT (-73.93442256993319 40.79558872468471),1,Manhattan,111,8,68,29,13,1237,846,General,backed,10/11/2012,421-435 East 116th Street,421 East 116th Street,East 116th Street,1st Avenue and Pleasant Avenue,Manhattan,111,Not Applicable,Not Applicable,40.795597,-73.934424,X,0.2 PCT ANNUAL CHANCE FLOOD HAZARD,3
POINT (-73.93589524702342 40.84633889902267),1,Manhattan,112,10,72,31,13,2989,1668,Municipal Facilities,backless,01/20/2015,1326 St. Nicholas Avenue,1326 St. Nicholas Avenue,St. Nicholas Avenue,176th Street & 177th Street,Manhattan,112,M3,Not Applicable,40.846338899,-73.935895247,X,AREA OF MINIMAL FLOOD HAZARD,
POINT (-74.00559255215167 40.70644374456401),1,Manhattan,101,1,65,26,10,1013,150,BID,backless,07/10/2012,160 Water Street,160 Water Street,Water Street,Fletcher and John Streets,Manhattan,101,M15,Alliance for Downtown New York,40.706452,-74.005594,AE,,1
POINT (-74.01071154939717 40.71367574360209),1,Manhattan,101,1,66,26,10,1839,490,General,backed,03/11/2013,30 West Broadway,30 West Broadway,"Park Place, Greenwich Street & West Broadway",Greenwich Street &West Broadway,Manhattan,101,Not Applicable,Not Applicable,40.713684,-74.010713,X,AREA OF MINIMAL FLOOD HAZARD,2
POINT (-73.98354855624879 40.74693073589491),1,Manhattan,105,2,75,28,12,429,583,General,backless 2,04/09/2013,165 Madison Avenue,165 Madison Ave,Madison Avenue,E32nd & E33rd Street,Manhattan,105,X63,Not Applicable,40.746939,-73.98355,X,AREA OF MINIMAL FLOOD HAZARD,
POINT (-73.95703556354825 40.766394731748164),1,Manhattan,108,5,76,28,12,3899,338,Senior Safety,backed 2,02/02/2018,1299 1st Avenue,1299 1st Avenue,1st Avenue,E. 70th Street & E. 69th Street,Manhattan,108,Not Applicable,Not Applicable,40.766403,-73.957037,X,AREA OF MINIMAL FLOOD HAZARD,
POINT (-73.97300255751696 40.7853607283558),1,Manhattan,107,6,69,29,10,1309,438,General,backed,03/07/2013,504 Columbus Avenue,504 Columbus Avenue,Columbus Avenue,West 84th and 85th Streets,Manhattan,107,Not Applicable,Not Applicable,40.785369,-73.973004,X,AREA OF MINIMAL FLOOD HAZARD,
POINT (-73.99589123250267 40.71652796139639),1,Manhattan,102,1,65,26,7,3804,495,Senior Safety,backed,12/28/2017,70 Bowery,70 Bowery,Bowery,Canal Street & Slip Lane,Manhattan,103,Not Applicable,Not Applicable,40.7165279614,-73.9958912325,X,AREA OF MINIMAL FLOOD HAZARD,
POINT (-73.96413156194255 40.76775673104152),1,Manhattan,108,4,73,28,12,3038,1407,General,backless,02/05/2015,921 Lexington Avenue,139 E 68th Street,E 68th Street,East 67th Street and East 68th Street,Manhattan,108,M66,Not Applicable,40.767765,-73.964133,X,AREA OF MINIMAL FLOOD HAZARD,
POINT (-73.93789856499045 40.8478497144863),1,Manhattan,112,10,72,31,13,3642,222,Senior Safety,backed,08/01/2017,4180 Broadway,4180 Broadway,Broadway,W. 178th Street & W. 177th Street,Manhattan,112,Not Applicable,Not Applicable,40.847858,-73.9379,X,AREA OF MINIMAL FLOOD HAZARD,
POINT (-74.01379854891714 40.70750574494161),1,Manhattan,101,1,65,26,10,1018,175,BID,backed,07/10/2012,80 Greenwich Street,80 Greenwich Street,Greenwich Street,Rector and Edgar Streets,Manhattan,101,Not Applicable,Alliance for Downtown New York,40.707514,-74.0138,X,AREA OF MINIMAL FLOOD HAZARD,1
POINT (-73.94466356503243 40.81908872038565),1,Manhattan,110,9,70,30,13,2475,1193,Health Care Facilities,backed,05/16/2014,2611 Frederick Douglas Boulevard,2611 Frederick Douglas Boulevard,Federick Douglass Boulevard,W. 139th Street and W. 140th Street,Manhattan,110,Not Applicable,Not Applicable,40.819097,-73.944665,X,AREA OF MINIMAL FLOOD HAZARD,6
POINT (-73.9899245556658 40.734695738311444),1,Manhattan,105,2,74,27,12,3168,1815,AAR,backed,10/28/2015,10 Union Square East,10 Union Square East,Union Square East,E 14th Street & E 15th Street,Manhattan,105,Not Applicable,Union Square Partnership,40.734704,-73.989926,X,AREA OF MINIMAL FLOOD HAZARD,
POINT (-73.94500056653808 40.787096727076516),1,Manhattan,111,8,68,29,13,3824,179,General,backed 2,07/05/2017,1952 2nd Avenue,1952 2nd Avenue,2nd Avenue,E 101st Street & E 100th Street,Manhattan,111,Not Applicable,Not Applicable,40.787105,-73.945002,X,AREA OF MINIMAL FLOOD HAZARD,3
POINT (-73.97374155764032 40.77925672953137),1,Manhattan,107,6,67,29,10,3030,696,Municipal Facilities,backless,12/15/2014,170 Central Park West,170 Central Park West,Central Park West,W. 77th Street & W. 76th Street,Manhattan,107,M10,Not Applicable,40.779265,-73.973743,X,AREA OF MINIMAL FLOOD HAZARD,
POINT (-73.9501055626717 40.82182772014302),1,Manhattan,109,7,70,31,13,1983,748,General,backed,07/19/2013,1616 Amsterdam Avenue,1616 Amsterdam Avenue,Amsterdam Avenue,West 139th & 140th Street,Manhattan,109,Not Applicable,Not Applicable,40.821836,-73.950107,X,AREA OF MINIMAL FLOOD HAZARD,
POINT (-73.97328955969388 40.74369573649997),1,Manhattan,106,4,74,27,12,3994,523,Municipal Facilities,backed 2,04/26/2018,403 East 34th Street,403 East 34th Street,East 34th Street,1st Avenue & FDR Drive,Manhattan,106,Not Applicable,Not Applicable,40.743704,-73.973291,AE,,1
POINT (-73.95774656391181 40.76092473285531),1,Manhattan,108,5,76,28,12,3961,0,Senior Safety,backed 2,02/02/2018,500 E 63rd Street,1157 York Avenue,York Avenue,E 62ndStreet & E 63rd Street,Manhattan,108,Not Applicable,Not Applicable,40.760933,-73.957748,X,AREA OF MINIMAL FLOOD HAZARD,2
POINT (-73.9409165663974 40.81498872151419),1,Manhattan,110,9,70,30,13,2558,1396,Municipal Facilities,backed,06/26/2014,104 West 136th Street,104 West 136th Street,West 136th Street,Malcolm X Boulevard and Adam Clayton Powell Boulevard,Manhattan,110,Not Applicable,Not Applicable,40.814997,-73.940918,X,AREA OF MINIMAL FLOOD HAZARD,5
POINT (-73.93107656691464 40.85295671337142),1,Manhattan,112,10,72,31,13,3631,51,Bus Route,backless 2,03/25/2017,1539 St. Nicholas Avenue,1539 St. Nicholas Avenue,St. Nicholas Avenue,W. 187th Street & W. 186th Street,Manhattan,112,M3,Not Applicable,40.852965,-73.931078,X,AREA OF MINIMAL FLOOD HAZARD,
POINT (-73.93674556445046 40.855460713421394),1,Manhattan,112,10,71,31,13,3668,48,General,backed 2,03/25/2017,620 Fort Washington Avenue,620 Fort Washington Avenue,Fort Washington Avenue,W. 187th Street & W 190th Street,Manhattan,112,Not Applicable,Not Applicable,40.855469,-73.936747,X,AREA OF MINIMAL FLOOD HAZARD,
POINT (-74.0065325510499 40.722717741905235),1,Manhattan,102,1,66,26,10,980,892,BID,backed,07/03/2012,431 Canal Street,431 Canal Street,Canal Street,Varick Street & Hudson Street,Manhattan,102,Not Applicable,Hudson Square Connection,40.722726,-74.006534,AE,,2
POINT (-73.94958056500026 40.7811097282129),1,Manhattan,108,5,73,28,12,3983,335,General,backed 2,02/05/2018,298 E 91st Street,1747 2nd Avenue,2nd Avenue,E 91st Street & E 90th Street,Manhattan,108,Not Applicable,Not Applicable,40.781118,-73.949582,X,AREA OF MINIMAL FLOOD HAZARD,
POINT (-73.9649015613416 40.75981573293731),1,Manhattan,106,5,73,28,12,3931,404,Senior Safety,backed 2,01/02/2018,1100 2nd Avenue,1100 2nd Avenue,2nd Avenue,E 57th street & E 58th street,Manhattan,106,Not Applicable,Not Applicable,40.759824,-73.964903,X,AREA OF MINIMAL FLOOD HAZARD,
POINT (-73.99043055541584 40.72895873960394),1,Manhattan,103,2,66,27,12,3047,1150,Municipal Facilities,backed,04/16/2015,7 E. 7th Street,7 E. 7th Street,E. 7th Street,Cooper Square and 3rd Avenue,Manhattan,103,M101,Village Alliance,40.728967,-73.990432,X,AREA OF MINIMAL FLOOD HAZARD,
POINT (-73.94054356805775 40.79232872540783),1,Manhattan,111,8,68,29,13,3879,346,General,backed 2,02/05/2018,308 E. 109th Street,308 E. 109th Street,E. 109th Street,2nd Avenue & 1st Avenue,Manhattan,111,Not Applicable,Not Applicable,40.792337,-73.940545,X,0.2 PCT ANNUAL CHANCE FLOOD HAZARD,3
POINT (-73.93601056797965 40.81493672073629),1,Manhattan,111,9,70,30,13,3372,1948,Municipal Facilities,backed,06/03/2016,2289 5th Avenue,2289 5th Avenue,5th Avenue,E 138th Street & E 139th Street,Manhattan,111,Not Applicable,Not Applicable,40.814945,-73.936012,X,0.2 PCT ANNUAL CHANCE FLOOD HAZARD,2
POINT (-74.00295355129579 40.7301697403572),1,Manhattan,102,3,66,27,10,2338,1364,Senior Center,backed,01/31/2014,25 Carmine Street,25 Carmine Street,Carmine Street,Bleeker Street & Bedford Street,Manhattan,102,Not Applicable,Not Applicable,40.730178,-74.002955,X,AREA OF MINIMAL FLOOD HAZARD,4
POINT (-73.95179756493735 40.7862127271253),1,Manhattan,108,4,68,28,12,2555,571,Municipal Facilities,backed,06/01/2015,112 East 96th Street,112 East 96th Street,East 96th Street,Park Avenue & Lexington Avenue,Manhattan,108,Not Applicable,Not Applicable,40.786221,-73.951799,X,AREA OF MINIMAL FLOOD HAZARD,
POINT (-73.93582156839368 40.804580723020855),1,Manhattan,111,9,68,30,13,3558,21,Bus Route,backless 2,02/10/2017,185 E 126th Street,185 E 126th Street,E 126th Street,3rd Avenue & Lexington Avenue,Manhattan,111,M35,Not Applicable,40.804589,-73.935823,X,AREA OF MINIMAL FLOOD HAZARD,4
POINT (-73.94290356368153 40.83673671748476),1,Manhattan,112,7,71,31,13,3003,1951,Municipal Facilities,backless,01/23/2015,3864 Broadway,3864 Broadway,Broadway,West 161st Street & West 162nd Street,Manhattan,112,M5,Not Applicable,40.836745,-73.942905,X,AREA OF MINIMAL FLOOD HAZARD,
POINT (-73.99404755351738 40.74341273752996),1,Manhattan,104,3,75,27,12,2219,1813,General,backed,10/28/2015,140 West 23rd Street,140 West 23rd Street,West 23rd Street,6th Avenue and 7th Avenue,Manhattan,104,Not Applicable,Not Applicable,40.743421,-73.994049,X,AREA OF MINIMAL FLOOD HAZARD,6
POINT (-73.93842104249207 40.85095687025286),1,Manhattan,112,10,71,31,13,2266,1366,General,backed,12/02/2013,801 W 181st street,801 W 181st street,W 181st Street,Pinehurst Avenue & Fort Washington Avenue,Manhattan,112,Not Applicable,Not Applicable,40.8509568703,-73.9384210425,X,AREA OF MINIMAL FLOOD HAZARD,
POINT (-73.95509556390654 40.77927572878938),1,Manhattan,108,5,73,28,12,1489,1709,General,backless,05/21/2013,150 East 86th Street,150 East 86th Street,86th Street,Lexington and 3rd Avenue,Manhattan,108,Not Applicable,Not Applicable,40.779284,-73.955097,X,AREA OF MINIMAL FLOOD HAZARD,
POINT (-73.96958455775454 40.796258725712434),1,Manhattan,107,7,69,30,10,3343,2013,Municipal Facilities,backed,05/21/2016,225 W 99th Street,225 W 99th Street,W 99th Street,Broadway and Amsterdam Avenue,Manhattan,107,Not Applicable,Columbus/Amsterdam,40.796267,-73.969586,X,AREA OF MINIMAL FLOOD HAZARD,
POINT (-74.01147354992288 40.714441743417474),1,Manhattan,101,1,66,26,10,1940,531,BID,backed 2,07/31/2018,255 Greenwich Street,255 Greenwich Street,Murray Street,Greenwhich Street & West Broadway,Manhattan,101,Not Applicable,Alliance for Downtown New York,40.71445,-74.011475,X,0.2 PCT ANNUAL CHANCE FLOOD HAZARD,2
POINT (-73.94054356805775 40.79232872540783),1,Manhattan,111,8,68,29,13,3879,0,General,,02/05/2018,308 E. 109th Street,308 E. 109th Street,E. 109th Street,2nd Avenue & 1st Avenue,Manhattan,111,Not Applicable,Not Applicable,40.792337,-73.940545,X,0.2 PCT ANNUAL CHANCE FLOOD HAZARD,3
POINT (-73.97303255675985 40.790375727663964),1,Manhattan,107,6,67,30,10,3938,297,Senior Safety,backless 2,01/02/2018,621 Amsterdam Avenue,621 Amsterdam Avenue,Amsterdam Avenue,90th Street & 91st Street,Manhattan,107,Not Applicable,Not Applicable,40.790384,-73.973034,X,AREA OF MINIMAL FLOOD HAZARD,
POINT (-74.00785769861767 40.724149962371335),1,Manhattan,102,3,66,27,10,2688,1638,BID,backed,12/12/2014,225 Hudson Street,225 Hudson Street,Hudson Street,Canal Street & Broome Street,Manhattan,102,Not Applicable,Hudson Square Connection,40.7241499624,-74.0078576986,X,0.2 PCT ANNUAL CHANCE FLOOD HAZARD,1
POINT (-73.92631256722598 40.86587271081123),1,Manhattan,112,10,72,31,13,3139,1472,General,backed,09/12/2015,4781 Broadway,4781 Broadway,Broadway,Dyckman Street & Cumming Street,Manhattan,112,Not Applicable,Not Applicable,40.865881,-73.926314,X,AREA OF MINIMAL FLOOD HAZARD,6
POINT (-73.9662885592713 40.794559726323804),1,Manhattan,107,7,69,30,10,1275,446,General,backed,10/11/2013,808 Columbus Avenue,808 Columbus Avenue,Columbus Avenue,West 98th & West 99th Street,Manhattan,107,Not Applicable,Not Applicable,40.794568,-73.96629,X,AREA OF MINIMAL FLOOD HAZARD,
POINT (-73.98765755635833 40.73548573852398),1,Manhattan,106,2,74,28,12,2120,775,Community Health Centers,backed,08/12/2013,40 Irving Place,40 Irving Place,Irving place,E 16th Street and E 17th Street,Manhattan,106,Not Applicable,Not Applicable,40.735494,-73.987659,X,AREA OF MINIMAL FLOOD HAZARD,
POINT (-73.94009167216454 40.83015010860988),1,Manhattan,109,9,71,30,13,3188,2218,General,backed,06/01/2016,433 Edgecomb Avenue,433 Edgecomb Avenue,W 155th Street,Amsterdan Avenue & Audubon Avenue,Manhattan,109,BX06,Not Applicable,40.8301501086,-73.9400916722,X,AREA OF MINIMAL FLOOD HAZARD,
POINT (-73.98425455739958 40.739303737743704),1,Manhattan,106,2,75,28,12,1144,0,Senior Center,backless,,149 East 23rd Street,149 East 23rd Street,East 23rd Street,Lexington Avenue & 3rd Avenue,Manhattan,106,M23,Not Applicable,40.739312,-73.984256,X,AREA OF MINIMAL FLOOD HAZARD,6
POINT (-74.0080045499243 40.72739174060734),1,Manhattan,102,3,66,27,10,983,396,BID,backed,10/24/2012,103 Charlton Street,103 Charlton Street,Charlton Street,Broome and Grand Streets,Manhattan,102,Not Applicable,Hudson Square Connection,40.7274,-74.008006,X,AREA OF MINIMAL FLOOD HAZARD,2
POINT (-73.96835555888786 40.79169472709611),1,Manhattan,107,6,69,30,10,3056,1886,General,backed,02/05/2015,703 Columbus Avenue,703 Columbus Avenue,Columbus Avenue,W 94th Street & W 95th Street,Manhattan,107,Not Applicable,Not Applicable,40.791703,-73.968357,X,AREA OF MINIMAL FLOOD HAZARD,
POINT (-73.94732056591093 40.775662729368946),1,Manhattan,108,5,76,28,12,1997,372,General,backless 2,07/10/2013,1625 York Avenue,1625 York Avenue,York Avenue,E 85th & E 86th Street,Manhattan,108,M31,Not Applicable,40.775671,-73.947322,X,AREA OF MINIMAL FLOOD HAZARD,
POINT (-73.95122356354986 40.79990872488491),1,Manhattan,110,9,68,30,13,963,551,Senior Center,backed,05/06/2013,55 Lenox Avenue,55 Lenox Avenue,Lenox Avenue,Central Park North & 111th Street,Manhattan,110,Not Applicable,Not Applicable,40.799917,-73.951225,X,AREA OF MINIMAL FLOOD HAZARD,6
POINT (-73.96588956090446 40.76251173248632),1,Manhattan,108,4,73,28,12,795,236,General,backed,10/01/2012,1020 Third Avenue,1020 3rd Avenue,3rd Avenue,East 60th and 61st Streets,Manhattan,108,Not Applicable,Not Applicable,40.76252,-73.965891,X,AREA OF MINIMAL FLOOD HAZARD,
POINT (-73.99058655360385 40.7682497325009),1,Manhattan,104,6,67,27,10,2337,1058,Senior Center,backed,01/15/2014,530 W 55th Street,530 W 55th Street,W 55th Street,10th & 11th Avenue,Manhattan,104,Not Applicable,Not Applicable,40.768258,-73.990588,X,AREA OF MINIMAL FLOOD HAZARD,6
POINT (-73.9732905565343 40.79514872623967),1,Manhattan,107,6,69,31,10,2837,1439,Municipal Facilities,backed,12/09/2014,735 West End Avenue,735 West End Avenue,West End Avenue,West 95th Street & West 96th Street,Manhattan,107,Not Applicable,Not Applicable,40.795157,-73.973292,X,AREA OF MINIMAL FLOOD HAZARD,
POINT (-73.9373205668831 40.81317572170616),1,Manhattan,110,9,70,30,13,3021,1631,Municipal Facilities,backless,01/28/2015,2230 5th Avenue,2230 5th Avenue,W. 135th Street,W. 135th Street and W. 136th Street,Manhattan,110,BX33,Not Applicable,40.813184,-73.937322,X,0.2 PCT ANNUAL CHANCE FLOOD HAZARD,4
POINT (-73.93442256993319 40.79558872468471),1,Manhattan,111,8,68,29,13,1237,227,General,backed,10/11/2012,421-435 East 116th Street,421 East 116th Street,East 116th Street,1st Avenue and Pleasant Avenue,Manhattan,111,Not Applicable,Not Applicable,40.795597,-73.934424,X,0.2 PCT ANNUAL CHANCE FLOOD HAZARD,3
POINT (-73.94748456579718 40.782692728067175),1,Manhattan,108,5,73,29,12,2484,1514,Health Care Facilities,backed,05/16/2014,312 East 94th Street,312 East 94th Street,East 94th Street,First Avenue and Second Avenue,Manhattan,108,Not Applicable,Not Applicable,40.782701,-73.947486,X,AREA OF MINIMAL FLOOD HAZARD,3
POINT (-73.95772656402603 40.76436473163338),1,Manhattan,108,5,76,28,12,3157,2016,AAR,backed,04/13/2016,417 E 67th Street,417 E 67th Street,E 67th Street,York Avenue & 1st Avenue,Manhattan,108,Not Applicable,Not Applicable,40.764373,-73.957728,X,AREA OF MINIMAL FLOOD HAZARD,
POINT (-73.94146056461636 40.83361771787438),1,Manhattan,112,7,71,30,13,3649,11,Senior Safety,backed 2,05/06/2017,1983 Amsterdam Avenue,1983 Amsterdam Avenue,Amsterdam Avenue,W. 159th Street & W. 158th Street,Manhattan,112,Not Applicable,Not Applicable,40.833626,-73.941462,X,AREA OF MINIMAL FLOOD HAZARD,
POINT (-73.94636456543194 40.79316572548861),1,Manhattan,111,8,68,29,13,1242,238,General,backed,10/09/2012,127 East 107th Street,127 East 107th Street,East 107th Street,East 107th and 108th Streets,Manhattan,111,Not Applicable,Not Applicable,40.793174,-73.946366,X,0.2 PCT ANNUAL CHANCE FLOOD HAZARD,3
POINT (-74.00605742697854 40.724150071156906),1,Manhattan,102,3,66,26,10,2687,1237,BID,backless,12/12/2014,104 Varick Street,104 Varick Street,Varick Street,Watts Street & Broome Street,Manhattan,102,Not Applicable,Hudson Square Connection,40.7241500712,-74.006057427,X,AREA OF MINIMAL FLOOD HAZARD,2
POINT (-73.94046656410555 40.84546071578394),1,Manhattan,112,10,71,31,13,3284,2372,Municipal Facilities,backed,05/24/2016,306 Fort Washington Avenue,306 Fort Washington Avenue,Fort Washington Avenue,173rd Street & 174th Street,Manhattan,112,Not Applicable,Not Applicable,40.845469,-73.940468,X,AREA OF MINIMAL FLOOD HAZARD,
POINT (-73.94154256330236 40.85090371465288),1,Manhattan,112,10,71,31,13,3280,2345,General,backed,05/24/2016,340 Haven Avenue,340 Haven Avenue,W 181st Street,W 181st Street & GW Bridge On-Ramp,Manhattan,112,Not Applicable,Not Applicable,40.850912,-73.941544,X,AREA OF MINIMAL FLOOD HAZARD,
POINT (-73.94993056532624 40.78544672743978),1,Manhattan,111,5,68,29,12,763,852,General,backless,02/06/2013,175 East 96th Street,175 East 96th Street,East 96th Street,Third Avenue & Lexington Avenue,Manhattan,111,M96,Not Applicable,40.785455,-73.949932,X,AREA OF MINIMAL FLOOD HAZARD,
POINT (-73.94561756371449 40.827962718505816),1,Manhattan,109,7,71,30,13,3171,1869,General,backed,10/28/2015,1802 Amsterdam Avenue,1802 Amsterdam Avenue,Amsterdam Avenue,149th Street & 150th Street,Manhattan,109,Not Applicable,Not Applicable,40.827971,-73.945619,X,AREA OF MINIMAL FLOOD HAZARD,
POINT (-73.94209356582202 40.81238772228558),1,Manhattan,110,9,70,30,13,962,560,Senior Center,backed,05/06/2013,448 Lenox Avenue,448 Lenox Avenue,Lenox Avenue,132nd & 133rd Street,Manhattan,110,Not Applicable,Not Applicable,40.812396,-73.942095,X,AREA OF MINIMAL FLOOD HAZARD,5
POINT (-73.93716856810997 40.79356472501539),1,Manhattan,111,8,68,30,13,1259,76,General,backless,10/11/2012,2182 First Avenue,2182 First Avenue,1st Avenue,East 112th and 114th Streets,Manhattan,111,M15,Not Applicable,40.793573,-73.93717,AE,,3
POINT (-73.95761156331515 40.773822729544705),1,Manhattan,108,4,73,28,12,3034,1528,Municipal Facilities,backless,03/12/2015,1373 3rd Avenue,1373 3rd Avenue,3rd Avenue,78th Street and 79th Street,Manhattan,108,X1,Not Applicable,40.773831,-73.957613,X,AREA OF MINIMAL FLOOD HAZARD,
POINT (-73.92833656667888 40.86640671064129),1,Manhattan,112,10,71,31,13,1944,677,General,backed,07/29/2013,250 Dyckman Street,250 Dyckman Street,Dyckman Street,Seaman Avenue & Payson Avenue,Manhattan,112,Not Applicable,Not Applicable,40.866415,-73.928338,X,AREA OF MINIMAL FLOOD HAZARD,5
POINT (-73.99380755216963 40.761920733140634),1,Manhattan,104,3,67,27,10,1731,858,General,backed,02/08/2013,645 10th Avenue,645 10th Avenue,10th Avenue,45th & 46th Streets,Manhattan,104,Not Applicable,Not Applicable,40.761929,-73.993809,X,AREA OF MINIMAL FLOOD HAZARD,4
POINT (-73.92912756714634 40.85998471174884),1,Manhattan,112,10,72,31,13,2330,1358,Senior Center,backed,01/15/2014,54 Nagle Avenue,54 Nagle Avenue,Nagle Avenue,Ellwood Street & Hillside Avenue,Manhattan,112,Not Applicable,Not Applicable,40.859993,-73.929129,X,AREA OF MINIMAL FLOOD HAZARD,5
POINT (-73.90788457280156 40.87605370785769),1,Manhattan,208,10,72,31,13,3407,91,Bus Route,backless 2,07/03/2017,5365 Broadway,5365 Broadway,Broadway,W. 228th Street & W. 230th Street,Bronx,208,BX07,Not Applicable,40.876062,-73.907886,X,AREA OF MINIMAL FLOOD HAZARD,4
POINT (-73.99409855382008 40.74112673749963),1,Manhattan,104,3,75,27,12,2208,1098,BID,backed,12/03/2013,655 6th Avenue,655 6th Avenue,6th Avenue,W 20th Street and W 21st Street,Manhattan,104,Not Applicable,Flatiron/23rd Street Partnership,40.741135,-73.9941,X,AREA OF MINIMAL FLOOD HAZARD,6
POINT (-73.96441756091146 40.767396731694745),1,Manhattan,108,4,73,28,12,2225,1084,Bus Route,backless,10/29/2013,904 Lexington Avenue,904 Lexington Avenue,East 67th Street,Lexington and Park Avenues,Manhattan,108,M66,Not Applicable,40.767405,-73.964419,X,AREA OF MINIMAL FLOOD HAZARD,
POINT (-73.98275355783636 40.73864673767897),1,Manhattan,106,2,74,28,12,2329,1384,Senior Center,backless,01/31/2014,204 E 23rd Street,204 E 23rd Street,E 23rd Street,2nd & 3rd Avenue,Manhattan,106,BX38,Not Applicable,40.738655,-73.982755,X,AREA OF MINIMAL FLOOD HAZARD,5
POINT (-73.94104456712077 40.79748572445742),1,Manhattan,111,8,68,29,13,3903,323,General,backed 2,10/14/2017,185 E 115th Street,185 E 115th Street,E 115th Street,Lexington Avenue & 3rd Avenue,Manhattan,111,Not Applicable,Not Applicable,40.797494,-73.941046,X,AREA OF MINIMAL FLOOD HAZARD,5
POINT (-73.97773055858256 40.736461738001395),1,Manhattan,106,4,74,27,12,3353,2243,Municipal Facilities,backed,06/03/2016,423 E 23rd Street,423 E 23rd Street,E 23rd Street,1st Avenue & Asser Levy Place,Manhattan,106,Not Applicable,Not Applicable,40.73647,-73.977732,X,0.2 PCT ANNUAL CHANCE FLOOD HAZARD,1
POINT (-73.94821356271241 40.82547171951714),1,Manhattan,109,7,71,31,13,3367,2258,Municipal Facilities,backed,06/01/2016,510 W 145th Street,510 W 145th Street,W 145th Street,Amsterdam Avenue & Broadway,Manhattan,109,Not Applicable,Not Applicable,40.82548,-73.948215,X,AREA OF MINIMAL FLOOD HAZARD,
POINT (-73.97593855989022 40.723793740569995),1,Manhattan,103,2,74,27,7,3068,1008,Bus Route,backless,04/17/2015,118 Avenue D,118 Avenue D,Avenue D,E. 8th Street and E. 9th Street,Manhattan,103,M14AD,Not Applicable,40.723802,-73.97594,X,0.2 PCT ANNUAL CHANCE FLOOD HAZARD,1
POINT (-74.01071154939717 40.71367574360209),1,Manhattan,101,1,66,26,10,1839,336,General,backed,03/11/2013,30 West Broadway,30 West Broadway,"Park Place, Greenwich Street & West Broadway",Greenwich Street &West Broadway,Manhattan,101,Not Applicable,Not Applicable,40.713684,-74.010713,X,AREA OF MINIMAL FLOOD HAZARD,2
POINT (-73.93520356643504 40.846533715020065),1,Manhattan,112,10,72,31,13,2762,1839,Municipal Facilities,backed,12/04/2014,586 W 177th Street,586 W 177th Street,W 177th Street,Saint Nicholas Avenue and Audubon Avenue,Manhattan,112,Not Applicable,Not Applicable,40.846542,-73.935205,X,AREA OF MINIMAL FLOOD HAZARD,
POINT (-73.99886555350295 40.71937474194812),1,Manhattan,102,1,65,26,10,3083,1925,General,backed,06/05/2015,215 Centre Street,215 Centre Street,Centre Street,Howard Street & Grand Street,Manhattan,102,Not Applicable,Chinatown,40.719383,-73.998867,X,AREA OF MINIMAL FLOOD HAZARD,4
POINT (-73.94214156424005 40.831218718016515),1,Manhattan,112,7,71,30,13,3368,1942,Municipal Facilities,backless,05/21/2016,475 W 155th Street,475 W 155th Street,W 155th Street,Amsterdam Avenue & St. Nicholas Avenue,Manhattan,112,Not Applicable,Not Applicable,40.831227,-73.942143,X,AREA OF MINIMAL FLOOD HAZARD,
POINT (-74.01166569284828 40.71386777027654),1,Manhattan,101,1,66,26,10,1942,706,BID,backed,06/13/2013,230 Greenwich Street,230 Greenwich Street,Greenwich Street & Barclay Street,Greenwich Street & Washington Street,Manhattan,101,Not Applicable,Alliance for Downtown New York,40.7138677703,-74.0116656928,X,0.2 PCT ANNUAL CHANCE FLOOD HAZARD,1
POINT (-73.93840556480296 40.84629071535887),1,Manhattan,112,10,72,31,13,3337,9010,Plaza,backless,12/01/2015,4140 Broadway,4140 Broadway,W. 175th Street,W. 175th Street & W. 176th Street,Manhattan,112,Not Applicable,Not Applicable,40.846299,-73.938407,X,AREA OF MINIMAL FLOOD HAZARD,
POINT (-73.96369256256442 40.7586357329264),1,Manhattan,106,5,73,28,12,3093,0,General,,,357 East 57th Street,357 East 57th Street,East 57th Street,1st Avenue & 2nd Avenue,Manhattan,106,M57,Not Applicable,40.758644,-73.963694,X,AREA OF MINIMAL FLOOD HAZARD,
POINT (-73.94009156690984 40.80072172375831),1,Manhattan,111,9,68,30,13,1226,241,General,backed,10/10/2012,1940 Lexington Avenue,1940 Lexington Avenue,Lexington Avenue,East 119th and 120th Streets,Manhattan,111,Not Applicable,Not Applicable,40.80073,-73.940093,X,AREA OF MINIMAL FLOOD HAZARD,6
POINT (-73.9339205666204 40.84938471469032),1,Manhattan,112,10,72,31,13,3635,2449,Senior Safety,backless,03/25/2017,600 W. 181st Street,600 W. 181st Street,W. 181st Street,St. Nicholas Avenue & Wadsworth Avenue,Manhattan,112,BX11,Washington Heights,40.849393,-73.933922,X,AREA OF MINIMAL FLOOD HAZARD,
POINT (-73.95140592482888 40.80986372749025),1,Manhattan,110,9,70,30,13,1187,285,BID,backed,01/16/2013,2319 Frederick Douglass Boulevard,2319 Frederick Douglass Boulevard,Federick Douglass Boulevard,Between 125th & 124th Street,Manhattan,110,Not Applicable,125th Street,40.8098637275,-73.9514059248,X,AREA OF MINIMAL FLOOD HAZARD,6
POINT (-73.95933356245318 40.76921173088031),1,Manhattan,108,4,76,28,12,3855,33,General,backed 2,07/05/2017,259 E 72nd Street,1391 2nd Avenue,2nd Avenue,2nd Avenue & 3rd Avenue,Manhattan,108,Not Applicable,Not Applicable,40.76922,-73.959335,X,AREA OF MINIMAL FLOOD HAZARD,
POINT (-73.95870456241067 40.78098172899297),1,Manhattan,108,4,73,28,12,1884,572,General,backed,07/22/2013,1175 Madison Avenue,1175 Madison Avenue,Madison Avenue,East 86th Street and East 87th Street,Manhattan,108,Not Applicable,Not Applicable,40.78099,-73.958706,X,AREA OF MINIMAL FLOOD HAZARD,
POINT (-74.0003345525322 40.727647740335186),1,Manhattan,102,3,66,26,10,4110,0,General,backless,12/20/2018,169 Thompson Street,169 Thompson Street,Thompson Street,W Houston Street & Bleeker Street,Manhattan,102,Not Applicable,Not Applicable,40.727656,-74.000336,X,AREA OF MINIMAL FLOOD HAZARD,6
POINT (-73.94960956577215 40.784817727777316),1,Manhattan,108,5,68,28,12,2857,1452,Municipal Facilities,backed,12/09/2014,1700 3rd Avenue,1700 3rd Avenue,3rd Avenue,East 95th Street & East 96th Street,Manhattan,108,Not Applicable,Not Applicable,40.784826,-73.949611,X,AREA OF MINIMAL FLOOD HAZARD,
POINT (-73.97747855878882 40.746580735698544),1,Manhattan,106,4,73,28,12,2144,1072,General,backed,10/07/2013,529 Third Avenue,529 Third Avenue,3rd Avenue,East 35th and 36th Streets,Manhattan,106,Not Applicable,Not Applicable,40.746589,-73.97748,X,AREA OF MINIMAL FLOOD HAZARD,6
POINT (-73.93667282097594 40.80407069742589),1,Manhattan,111,9,68,30,13,1221,75,General,backed,10/09/2012,167 East 125th Street,167 East 125th Street,East 125th Street,Lexington and 3rd Avenues,Manhattan,111,Not Applicable,Not Applicable,40.8040706974,-73.936672821,X,AREA OF MINIMAL FLOOD HAZARD,4
POINT (-73.97719855662253 40.784702728209915),1,Manhattan,107,6,67,29,10,2552,1349,Municipal Facilities,backed,06/26/2014,444 Amsterdam Avenue,444 Amsterdam Avenue,Amsterdam Avenue,West 81st Street & West 82nd Street,Manhattan,107,Not Applicable,Not Applicable,40.784711,-73.9772,X,AREA OF MINIMAL FLOOD HAZARD,
POINT (-73.99991555372432 40.713184743268),1,Manhattan,103,1,65,26,7,3142,2006,General,backless,09/09/2015,180 Park Row,180 Park Row,Park Row,Worth & Pearl Street,Manhattan,103,M103,Not Applicable,40.713193,-73.999917,X,AREA OF MINIMAL FLOOD HAZARD,5
POINT (-73.95661056168379 40.813760722281174),1,Manhattan,109,7,69,30,13,2400,810,General,backed,03/28/2014,518 West 125 Street,518 West 125 Street,125th Street,Amsterdam and Old Broadway,Manhattan,109,Not Applicable,Not Applicable,40.813769,-73.956612,X,AREA OF MINIMAL FLOOD HAZARD,
POINT (-73.94502256693956 40.787104726819805),1,Manhattan,111,8,68,29,13,3843,191,General,backless 2,07/05/2017,1955 2nd Avenue,1955 2nd Avenue,2nd Avenue,E 102nd & E 101st Street,Manhattan,111,Not Applicable,Not Applicable,40.787113,-73.945024,X,AREA OF MINIMAL FLOOD HAZARD,4
POINT (-73.91910057003365 40.8620417110116),1,Manhattan,112,10,72,31,13,3112,3112,General,backed,09/12/2015,431 West 204th Street,3815 10th Avenue,10th Avenue,9th Avenue & 10th Avenue,Manhattan,112,Not Applicable,Not Applicable,40.86205,-73.919102,X,AREA OF MINIMAL FLOOD HAZARD,4
POINT (-73.94893656418515 40.8109197221864),1,Manhattan,110,9,70,30,13,2791,1637,Municipal Facilities,backed,12/05/2014,250 W 127th Street,250 W 127th Street,West 127th Street,Frederick Douglass Boulevard & Adam Clayton Powell Boulevard,Manhattan,110,Not Applicable,Not Applicable,40.810928,-73.948938,X,AREA OF MINIMAL FLOOD HAZARD,6
POINT (-73.99388855348778 40.74652273686248),1,Manhattan,105,3,75,27,12,1582,574,General,backless,06/13/2013,298 7th Avenue,298 7th Avenue,7th Avenue,26th & 27th Street,Manhattan,105,Not Applicable,Not Applicable,40.746531,-73.99389,X,AREA OF MINIMAL FLOOD HAZARD,6
POINT (-73.95908056293291 40.763554732464144),1,Manhattan,108,5,76,28,12,3900,334,Senior Safety,backed 2,11/14/2017,1208 1st Avenue,1208 1st Avenue,1st Avenue,E 65th Street & E 66th Street,Manhattan,108,Not Applicable,Not Applicable,40.763563,-73.959082,X,AREA OF MINIMAL FLOOD HAZARD,
POINT (-73.96152656300517 40.75943373270519),1,Manhattan,108,5,73,28,12,3901,400,Senior Safety,backed 2,01/02/2018,407 E 59th Street,1086 1st Avenue,1st Avenue,1st Avenue & Sutton Place,Manhattan,108,Not Applicable,Not Applicable,40.759442,-73.961528,X,AREA OF MINIMAL FLOOD HAZARD,
POINT (-73.94671456551794 40.802461724022685),1,Manhattan,110,9,70,30,13,3327,2057,Municipal Facilities,backed,05/21/2016,34 W. 118th Street,34 W. 118th Street,118th Street,Lenox Avenue & 5th Avenue,Manhattan,110,Not Applicable,Not Applicable,40.80247,-73.946716,X,AREA OF MINIMAL FLOOD HAZARD,6
POINT (-73.96798955851361 40.79305272637158),1,Manhattan,107,7,69,30,10,3986,358,General,backless 2,01/09/2018,103 W 96th Street,103 W 96th Street,W 96th Street,Columbus Avenue & Amsterdam Avenue,Manhattan,107,M96,Columbus/Amsterdam,40.793061,-73.967991,X,AREA OF MINIMAL FLOOD HAZARD,
POINT (-73.93846013038576 40.8048017618798),1,Manhattan,111,8,68,30,13,1248,69,General,backless,10/10/2012,108 East 125th Street,108 East 125th Street,East 125th Street,Park and Lexington Avenues,Manhattan,111,M100,Not Applicable,40.8048017619,-73.9384601304,X,AREA OF MINIMAL FLOOD HAZARD,5
POINT (-73.94933656354506 40.80756072330232),1,Manhattan,110,9,70,30,13,3559,2205,Bus Route,backless,02/10/2017,2059 Adam Clayton Powell Jr. Blvd,2059 Adam Clayton Powell Jr. Blvd,Adam Clayton Powell Jr Blvd,W 123rd Street & W 122nd Street,Manhattan,111,M02,Not Applicable,40.807569,-73.949338,X,AREA OF MINIMAL FLOOD HAZARD,6
POINT (-73.9413555648806 40.83376571751622),1,Manhattan,112,7,71,30,13,3554,0,Bus Route,backless,02/14/2017,1989 Amsterdam Avenue,1989 Amsterdam Avenue,Amsterdam,W 158th Street & W 159th Street,Manhattan,112,M3,Not Applicable,40.833774,-73.941357,X,AREA OF MINIMAL FLOOD HAZARD,
POINT (-73.98714855714361 40.72056774146989),1,Manhattan,103,1,65,26,12,2154,942,Community Health Centers,backed,09/20/2013,150 Essex Street,150 Essex Street,Essex Street,Stanton Street and Rivington Street,Manhattan,103,Not Applicable,Not Applicable,40.720576,-73.98715,X,AREA OF MINIMAL FLOOD HAZARD,
POINT (-73.9768535562723 40.780813728828264),1,Manhattan,107,6,67,29,10,1831,476,General,backed,03/25/2013,100 West 77th Street,100 West 77th Street,Columbus Avenue,76th Street & 77th Street,Manhattan,107,Not Applicable,Columbus Avenue,40.780822,-73.976855,X,AREA OF MINIMAL FLOOD HAZARD,
POINT (-73.95750056363784 40.761685732641396),1,Manhattan,108,5,76,28,12,3993,416,Municipal Facilities,backed 2,02/02/2018,1190 York Avenue,501 East 63rd Street,East 63rd Street,York Avenue & FDR Drive,Manhattan,108,Not Applicable,Not Applicable,40.761694,-73.957502,X,AREA OF MINIMAL FLOOD HAZARD,4
POINT (-73.96568076228802 40.805551410597516),1,Manhattan,109,7,69,30,10,1873,2255,General,backed,07/22/2013,2882 Broadway,2882 Broadway,Broadway,West 112th & West 113th Street,Manhattan,109,Not Applicable,Not Applicable,40.8055514106,-73.9656807623,X,AREA OF MINIMAL FLOOD HAZARD,
POINT (-73.99409141346507 40.7137446956968),1,Manhattan,103,1,65,26,7,2735,719,General,backless,07/25/2014,88 East Broadway,88 East Broadway,Division Street,Market & Forsyth Street,Manhattan,103,Not Applicable,Chinatown,40.7137446957,-73.9940914135,X,AREA OF MINIMAL FLOOD HAZARD,
POINT (-73.99973555368027 40.717840742145995),1,Manhattan,101,1,65,26,7,3801,2303,Senior Safety,backed,08/04/2017,234 Canal Street,234 Canal Street,Centre Street,Centre Street & Baxter Street,Manhattan,101,Not Applicable,Chinatown,40.717849,-73.999737,X,AREA OF MINIMAL FLOOD HAZARD,4
POINT (-73.95814856343556 40.76372773213555),1,Manhattan,108,5,76,28,12,2859,1477,Municipal Facilities,backed,12/09/2014,419 East 66th Street,419 East 66th Street,East 66th Street,1st Avenue & York Avenue,Manhattan,108,Not Applicable,Not Applicable,40.763736,-73.95815,X,AREA OF MINIMAL FLOOD HAZARD,
POINT (-73.949011565002 40.7971437248912),1,Manhattan,111,9,68,30,13,3902,298,General,backless,11/14/2017,1295 5th Avenue,35 E 110th Street,E 110th Street,E 110th Street & E 111th Street,Manhattan,111,M02,Not Applicable,40.797152,-73.949013,X,AREA OF MINIMAL FLOOD HAZARD,5
POINT (-74.0065325510499 40.722717741905235),1,Manhattan,102,1,66,26,10,980,891,BID,backed,07/03/2012,431 Canal Street,431 Canal Street,Canal Street,Varick Street & Hudson Street,Manhattan,102,Not Applicable,Hudson Square Connection,40.722726,-74.006534,AE,,2
POINT (-73.94749756275672 40.83045071831137),1,Manhattan,109,7,71,30,13,1858,853,Senior Center,backless,04/09/2013,3664 Broadway,3664 Broadway,Broadway,151st & 152nd Streets,Manhattan,109,M04,Not Applicable,40.830459,-73.947499,X,AREA OF MINIMAL FLOOD HAZARD,
POINT (-73.99569555146522 40.75929173388919),1,Manhattan,104,3,75,27,10,4180,562,General,backed 2,04/11/2019,566 10th Avenue,566 10th Avenue,10th Avenue,West 41st Street & West 42nd Street,Manhattan,104,Not Applicable,Hudson Yards/Hell&#39;s Kitchen,40.7593,-73.995697,X,AREA OF MINIMAL FLOOD HAZARD,5
POINT (-73.95473756348514 40.77914072861994),1,Manhattan,108,5,73,28,12,4203,590,Bus Route,backed 2,11/20/2018,173 East 86th Street,173 East 86th Street,East 86th Street,Lexington Avenue & 3rd Avenue,Manhattan,108,M96,Not Applicable,40.779149,-73.954739,X,AREA OF MINIMAL FLOOD HAZARD,
POINT (-74.01147354992288 40.714441743417474),1,Manhattan,101,1,66,26,10,1940,528,BID,backed 2,07/31/2018,255 Greenwich Street,255 Greenwich Street,Murray Street,Greenwhich Street & West Broadway,Manhattan,101,Not Applicable,Alliance for Downtown New York,40.71445,-74.011475,X,0.2 PCT ANNUAL CHANCE FLOOD HAZARD,2
POINT (-74.00530455243825 40.706644745119995),1,Manhattan,101,1,65,26,10,1014,898,BID,backed,07/09/2012,172 Water Street,172 Water Street,Water Street,Fletcher and John Streets,Manhattan,101,Not Applicable,Alliance for Downtown New York,40.706653,-74.005306,AE,,1
POINT (-73.93515243772529 40.796340698509255),1,Manhattan,111,8,68,29,13,3054,1147,General,backless,11/28/2014,2266 1st Avenue,2266 1st Avenue,1st Avenue,East 116th Street & East 117th Street,Manhattan,111,M15,Not Applicable,40.7963406985,-73.9351524377,AE,,3
POINT (-73.92919556668058 40.86440071164091),1,Manhattan,112,10,71,31,13,3088,1473,General,backed,09/12/2015,4712 Broadway,4712 Broadway,Broadway,Arden Street & Dongan Place,Manhattan,112,Not Applicable,Not Applicable,40.864409,-73.929197,X,AREA OF MINIMAL FLOOD HAZARD,
POINT (-73.99232255436138 40.74023773767782),1,Manhattan,105,3,75,28,12,2550,1346,Municipal Facilities,backed,06/25/2014,40 West 20th Street,40 West 20th Street,West 23rd Street,5th Avenue & 6th Avenue,Manhattan,105,Not Applicable,Flatiron/23rd Street Partnership,40.740246,-73.992324,X,AREA OF MINIMAL FLOOD HAZARD,
POINT (-73.97805255691485 40.77840072958649),1,Manhattan,107,6,67,29,10,3644,124,Senior Safety,backed 2,06/21/2017,289 Columbus Avenue,289 Columbus Avenue,Columbus Avenue,W. 74th Street & W. 73rd Street,Manhattan,107,Not Applicable,Columbus Avenue,40.778409,-73.978054,X,AREA OF MINIMAL FLOOD HAZARD,
POINT (-73.93635156768846 40.821348720198955),1,Manhattan,110,9,71,30,13,3373,2053,Municipal Facilities,backed,06/03/2016,110 W 146th Street,110 W 146th Street,W 146th Street,Lenox Avenue & Adam Clayton Powell Jr Boulevard,Manhattan,110,Not Applicable,Not Applicable,40.821357,-73.936353,X,AREA OF MINIMAL FLOOD HAZARD,3
POINT (-73.98922855546937 40.730440739921356),1,Manhattan,103,2,66,27,12,1140,567,Senior Center,backless,04/29/2013,39 Third Avenue,39 Third Avenue,3rd Avenue,9th & 10th Street,Manhattan,103,M102,Not Applicable,40.730449,-73.98923,X,AREA OF MINIMAL FLOOD HAZARD,
POINT (-73.95274456322508 40.804427723771006),1,Manhattan,110,9,70,30,13,2340,961,General,backed,03/28/2014,143 St Nicholas Avenue,143 St Nicholas Avenue,St. Nicholas Avenue,W117th & W118th Street,Manhattan,110,Not Applicable,Not Applicable,40.804436,-73.952746,X,AREA OF MINIMAL FLOOD HAZARD,
POINT (-73.94912956270882 40.82315571985595),1,Manhattan,109,7,71,30,13,2822,489,General,backed,11/13/2014,1652 Amsterdam Avenue,1652 Amsterdam Avenue,Amsterdam Avenue,West 141st Street & West 142nd Street,Manhattan,109,Not Applicable,Not Applicable,40.823164,-73.949131,X,AREA OF MINIMAL FLOOD HAZARD,
POINT (-73.94512156426116 40.81500772178951),1,Manhattan,110,9,70,30,13,2790,1592,Municipal Facilities,backed,12/05/2014,222 West 134th Street,222 West 134th Street,West 134th Street,Frederick Douglass Boulevard & Adam Clayton Powell Boulevard,Manhattan,110,Not Applicable,Not Applicable,40.815016,-73.945123,X,AREA OF MINIMAL FLOOD HAZARD,
POINT (-73.93840556480296 40.84629071535887),1,Manhattan,112,10,72,31,13,3337,9005,Plaza,backed,12/01/2015,4140 Broadway,4140 Broadway,W. 175th Street,W. 175th Street & W. 176th Street,Manhattan,112,Not Applicable,Not Applicable,40.846299,-73.938407,X,AREA OF MINIMAL FLOOD HAZARD,
POINT (-73.99896355366431 40.71335274328063),1,Manhattan,103,1,65,26,7,3133,1743,General,backless,09/09/2015,225 Park Row,225 Park Row,Park Row,Oliver Street & Pearl Street,Manhattan,103,M103,Not Applicable,40.713361,-73.998965,X,AREA OF MINIMAL FLOOD HAZARD,5
POINT (-73.98607255639713 40.74004773784903),1,Manhattan,105,2,74,28,12,2210,1108,BID,backed,12/04/2013,100 E 23rd Street,100 E 23rd Street,E 23rd Street,Lexington Avenue and Park Avenue South,Manhattan,105,Not Applicable,Flatiron/23rd Street Partnership,40.740056,-73.986074,X,AREA OF MINIMAL FLOOD HAZARD,6
POINT (-74.0052275491263 40.74620773729369),1,Manhattan,104,3,75,27,10,1393,392,General,backed,12/20/2012,180 10th Avenue,180 10th Avenue,10th Avenue,West 20th and 21st Streets,Manhattan,104,Not Applicable,Not Applicable,40.746216,-74.005229,AE,,2
POINT (-73.94934156588472 40.78114272855153),1,Manhattan,108,5,76,29,12,3829,194,General,backed 2,07/05/2017,1748 2nd Avenue,1748 2nd Avenue,2nd Avenue,E 92nd Street & E 91st Street,Manhattan,108,Not Applicable,Not Applicable,40.781151,-73.949343,X,AREA OF MINIMAL FLOOD HAZARD,5
POINT (-73.96792855850826 40.79393672680855),1,Manhattan,107,7,69,30,10,2079,0,Plaza,,,125 W. 97th Street,125 W. 97th Street,97th Street,Amsterdam Avenue and Columbus Avenue,Manhattan,107,Not Applicable,Not Applicable,40.793945,-73.96793,X,AREA OF MINIMAL FLOOD HAZARD,
POINT (-73.95672156369355 40.77102573050326),1,Manhattan,108,5,76,28,12,3835,144,General,backed 2,07/05/2017,1446 2nd Avenue,1446 2nd Avenue,2nd Avenue,E 76th Street & E 75th Street,Manhattan,108,Not Applicable,Not Applicable,40.771034,-73.956723,X,AREA OF MINIMAL FLOOD HAZARD,
POINT (-74.01071154939717 40.71367574360209),1,Manhattan,101,1,66,26,10,1839,516,General,backed,03/11/2013,30 West Broadway,30 West Broadway,"Park Place, Greenwich Street & West Broadway",Greenwich Street &West Broadway,Manhattan,101,Not Applicable,Not Applicable,40.713684,-74.010713,X,AREA OF MINIMAL FLOOD HAZARD,2
POINT (-73.94855656468785 40.79780272450928),1,Manhattan,110,9,68,30,13,2265,1383,Community Health Centers,backless,12/02/2013,1330 5th Avenue,1330 5th Avenue,5th Avenue,E111th & E112th Street,Manhattan,110,M01,Not Applicable,40.797811,-73.948558,X,AREA OF MINIMAL FLOOD HAZARD,5
POINT (-74.00748655149106 40.70492374476891),1,Manhattan,101,1,65,26,10,2032,697,General,backless,08/08/2013,95 Wall Street,95 Wall Street,Gouverneur Street,Front Street and Water Street,Manhattan,101,Not Applicable,Alliance for Downtown New York,40.704932,-74.007488,AE,,1
POINT (-73.99589123250267 40.71652796139639),1,Manhattan,102,1,65,26,7,3804,405,Senior Safety,backed,12/28/2017,70 Bowery,70 Bowery,Bowery,Canal Street & Slip Lane,Manhattan,103,Not Applicable,Not Applicable,40.7165279614,-73.9958912325,X,AREA OF MINIMAL FLOOD HAZARD,
POINT (-73.92052156990088 40.867891710410284),1,Manhattan,112,10,72,31,13,1923,803,General,backless,07/19/2013,4953 Broadway,4953 Broadway,Broadway,Isham Street & West 207th Street,Manhattan,112,Not Applicable,Not Applicable,40.8679,-73.920523,X,AREA OF MINIMAL FLOOD HAZARD,5
POINT (-73.93840556480296 40.84629071535887),1,Manhattan,112,10,72,31,13,3337,9014,Plaza,backless,12/01/2015,4140 Broadway,4140 Broadway,W. 175th Street,W. 175th Street & W. 176th Street,Manhattan,112,Not Applicable,Not Applicable,40.846299,-73.938407,X,AREA OF MINIMAL FLOOD HAZARD,
POINT (-73.95277256478862 40.775758729854),1,Manhattan,108,5,76,28,12,3832,65,General,backed 2,07/05/2017,303 E 83rd Street,1610 2nd Ave,2nd Avenue,2nd Avenue & 1st Avenue,Manhattan,108,Not Applicable,Not Applicable,40.775767,-73.952774,X,AREA OF MINIMAL FLOOD HAZARD,
POINT (-73.9883005576172 40.714202742329114),1,Manhattan,103,1,65,26,7,3331,2377,Municipal Facilities,backed,06/02/2016,197 East Broadway,197 East Broadway,E Broadway,Jefferson Street & Clinton Street,Manhattan,103,Not Applicable,Not Applicable,40.714211,-73.988302,X,AREA OF MINIMAL FLOOD HAZARD,5
POINT (-73.9817185576156 40.74943873540296),1,Manhattan,106,4,73,28,12,435,522,General,backless,04/09/2013,227 Madison Avenue,227 Madison Avenue,Madison Avenue,E36th & E37th Street,Manhattan,106,M1,Not Applicable,40.749447,-73.98172,X,AREA OF MINIMAL FLOOD HAZARD,
POINT (-74.00738054975517 40.7268537408616),1,Manhattan,102,3,66,27,10,3045,1945,Municipal Facilities,backless,04/16/2016,330 Hudson Street,330 Hudson Street,Hudson Street,Vandam Street and Charlton Street,Manhattan,102,M20,Hudson Square Connection,40.726862,-74.007382,X,AREA OF MINIMAL FLOOD HAZARD,4
POINT (-73.93534256921036 40.79610272483933),1,Manhattan,111,8,68,29,13,1236,1432,General,backed,10/11/2012,2261 First Avenue,2261 First Avenue,E 116th Street,E 116th Street and E 117th Street,Manhattan,111,Not Applicable,Not Applicable,40.796111,-73.935344,AE,,3
POINT (-73.97524255712725 40.78228672928),1,Manhattan,107,6,67,29,10,1823,1162,BID,backed,12/03/2013,408 Columbus Avenue,408 Columbus Avenue,Columbus Avenue,W79th & W80th Street,Manhattan,107,Not Applicable,Columbus Avenue,40.782295,-73.975244,X,AREA OF MINIMAL FLOOD HAZARD,
POINT (-73.99351155457592 40.72929174009112),1,Manhattan,102,1,66,27,12,3046,1527,Municipal Facilities,backless,04/16/2015,721 Broadway,721 Broadway,Broadway,Waverley Street and Washington Street,Manhattan,102,M5,NOHO NY,40.7293,-73.993513,X,AREA OF MINIMAL FLOOD HAZARD,
POINT (-73.93896956729841 40.7993377241031),1,Manhattan,111,8,68,30,13,1228,233,General,backless,10/05/2012,2167 3rd Avenue,2167 3rd Avenue,3rd Avenue,East 118th and 119th Streets,Manhattan,111,M101,Not Applicable,40.799346,-73.938971,X,AREA OF MINIMAL FLOOD HAZARD,5
POINT (-74.00751755010641 40.726000741113936),1,Manhattan,102,3,66,27,10,982,2278,BID,backed,07/03/2012,304 Hudson Street,304 Hudson Street,Hudson Street,Vandam and Spring Streets,Manhattan,102,Not Applicable,Hudson Square Connection,40.726009,-74.007519,X,AREA OF MINIMAL FLOOD HAZARD,4
POINT (-74.00596055139411 40.70616374450939),1,Manhattan,101,1,65,26,10,1012,1712,BID,backless,07/09/2012,155 Water Street,155 Water Street,Water Street,Maiden Lane and Fletcher Street,Manhattan,101,M15,Alliance for Downtown New York,40.706172,-74.005962,AE,,1
POINT (-74.00605742697854 40.724150071156906),1,Manhattan,102,3,66,26,10,2687,639,BID,backless,12/12/2014,104 Varick Street,104 Varick Street,Varick Street,Watts Street & Broome Street,Manhattan,102,Not Applicable,Hudson Square Connection,40.7241500712,-74.006057427,X,AREA OF MINIMAL FLOOD HAZARD,2
POINT (-73.98953355518024 40.74008073787326),1,Manhattan,105,2,75,28,12,2175,805,BID,backless,07/24/2013,925 Broadway,925 Broadway,Broadway,E21st & E22nd Street,Manhattan,105,Not Applicable,Flatiron/23rd Street Partnership,40.740089,-73.989535,X,AREA OF MINIMAL FLOOD HAZARD,
POINT (-73.99356555196721 40.76221973326191),1,Manhattan,104,3,75,27,10,1556,120,General,backed,05/20/2013,654 10th Avenue,654 10th Avenue,10th Avenue,46th and 47th Streets,Manhattan,104,Not Applicable,Not Applicable,40.762228,-73.993567,X,AREA OF MINIMAL FLOOD HAZARD,
POINT (-73.97092955728016 40.79427272670907),1,Manhattan,107,6,69,30,10,1777,400,General,backless,02/06/2013,214 West 96th Street,214 West 96th Street,West 96th Street,Broadway & Amsterdam Avenue,Manhattan,107,M96,Not Applicable,40.794281,-73.970931,X,AREA OF MINIMAL FLOOD HAZARD,
POINT (-73.95678856169665 40.81263872258874),1,Manhattan,109,7,69,30,13,3017,1719,Municipal Facilities,backless,12/16/2014,1315 Amsterdam Avenue,1315 Amsterdam Avenue,Amsterdam Avenue,LaSalle Street & West 125th Street,Manhattan,109,M11,Not Applicable,40.812647,-73.95679,X,AREA OF MINIMAL FLOOD HAZARD,
POINT (-73.98381655761959 40.72962773975436),1,Manhattan,103,2,66,27,12,3334,2012,Municipal Facilities,backed,06/02/2016,185 1st Avenue,185 1st Avenue,1st Avenue,E 11th Street & E 12th Street,Manhattan,103,Not Applicable,Not Applicable,40.729636,-73.983818,X,AREA OF MINIMAL FLOOD HAZARD,6
POINT (-73.94309556638183 40.79370772511088),1,Manhattan,111,8,68,29,13,1261,226,General,backed,10/01/2012,1989 Third Avenue,1989 Third Avenue,3rd Avenue,East 109th and 110th Streets,Manhattan,111,Not Applicable,Not Applicable,40.793716,-73.943097,X,0.2 PCT ANNUAL CHANCE FLOOD HAZARD,3
POINT (-73.93891768557802 40.82183849312542),1,Manhattan,110,9,71,30,13,2263,2004,Community Health Centers,backless,12/06/2013,2505 Adam Clayton Powell Jr. Boulevard,2505 Adam Clayton Powell Jr. Boulevard,Adam Clayton Powell Junior Boulevard,W145th Street & W146th Street,Manhattan,110,M02,Not Applicable,40.8218384931,-73.9389176856,X,AREA OF MINIMAL FLOOD HAZARD,3
POINT (-73.96446855902632 40.79989672553583),1,Manhattan,107,7,69,30,13,2496,0,Health Care Facilities,backless,06/04/2014,120 W 106th Street,120 W 106th Street,106th Street,Amsterdam Avenue & Columbus Avenue,Manhattan,107,Not Applicable,Columbus/Amsterdam,40.799905,-73.96447,X,AREA OF MINIMAL FLOOD HAZARD,
POINT (-73.93840556480296 40.84629071535887),1,Manhattan,112,10,72,31,13,3337,9009,Plaza,backless,12/01/2015,4140 Broadway,4140 Broadway,W. 175th Street,W. 175th Street & W. 176th Street,Manhattan,112,Not Applicable,Not Applicable,40.846299,-73.938407,X,AREA OF MINIMAL FLOOD HAZARD,
POINT (-73.95062156488771 40.77938872877253),1,Manhattan,108,5,76,28,12,3830,175,General,backed 2,07/05/2017,1704 2nd Avenue,1704 2nd Avenue,2nd Avenue,E 88th Street & E 89th Street,Manhattan,108,Not Applicable,Not Applicable,40.779397,-73.950623,X,AREA OF MINIMAL FLOOD HAZARD,
POINT (-73.94109456647554 40.80592572308017),1,Manhattan,111,9,68,30,13,3022,1888,Municipal Facilities,backless,01/22/2015,35 E. 125th Street,35 E. 125th Street,E. 125th Street,5th Avenue and Madison Avenue,Manhattan,111,M100,Not Applicable,40.805934,-73.941096,X,AREA OF MINIMAL FLOOD HAZARD,6
POINT (-73.97603555857695 40.744568736237625),1,Manhattan,106,2,73,28,12,1470,0,General,backed,,617 Second Avenue,617 Second Avenue,Second Avenue,E33rd & E34th Street,Manhattan,106,M15,Not Applicable,40.744577,-73.976037,X,AREA OF MINIMAL FLOOD HAZARD,5
POINT (-73.99524755462265 40.71861674164431),1,Manhattan,102,1,65,26,7,3340,2256,Municipal Facilities,backed,06/02/2016,230 Grand Street,230 Grand Street,Grand Street,Bowery & Elizabeth Street,Manhattan,102,Not Applicable,Chinatown,40.718625,-73.995249,X,AREA OF MINIMAL FLOOD HAZARD,
POINT (-73.9473158914099 40.81542548280315),1,Manhattan,110,9,70,30,13,3020,1307,Municipal Facilities,backless,01/26/2015,2494 Frederick Douglass Boulevard,2494 Frederick Douglass Boulevard,Frederick Douglass Boulevard,W. 133rd Street and W. 134th Street,Manhattan,110,M10,Not Applicable,40.8154254828,-73.9473158914,X,AREA OF MINIMAL FLOOD HAZARD,
POINT (-73.9753805570438 40.78972272742374),1,Manhattan,107,6,67,31,10,4130,445,General,backed 2,04/11/2019,2401 Broadway,2401 Broadway,Broadway,West 89th Street & West 88th Street,Manhattan,107,Not Applicable,Not Applicable,40.789731,-73.975382,X,AREA OF MINIMAL FLOOD HAZARD,
POINT (-73.94935656307138 40.8279067191786),1,Manhattan,109,7,71,31,13,3005,1657,Municipal Facilities,backless,01/23/2015,3584 Broadway,3584 Broadway,Broadway,West 147th Street & West 148th Street,Manhattan,109,M5,Not Applicable,40.827915,-73.949358,X,AREA OF MINIMAL FLOOD HAZARD,
POINT (-74.00785769861767 40.724149962371335),1,Manhattan,102,3,66,27,10,2688,1455,BID,backed,12/12/2014,225 Hudson Street,225 Hudson Street,Hudson Street,Canal Street & Broome Street,Manhattan,102,Not Applicable,Hudson Square Connection,40.7241499624,-74.0078576986,X,0.2 PCT ANNUAL CHANCE FLOOD HAZARD,1
POINT (-73.99597155318457 40.73852773814627),1,Manhattan,105,3,75,27,12,1669,607,General,backed,06/14/2013,568 6th Avenue,568 6th Avenue,6th Avenue,West 15th & 16th Street,Manhattan,105,Not Applicable,Not Applicable,40.738536,-73.995973,X,AREA OF MINIMAL FLOOD HAZARD,6
POINT (-73.92454456858901 40.86559171047221),1,Manhattan,112,10,72,31,13,2560,813,Municipal Facilities,backed,06/30/2014,630 Academy Street,4790 Broadway,Broadway,Cumming Street & Dyckman Street,Manhattan,112,Not Applicable,Not Applicable,40.8656,-73.924546,X,0.2 PCT ANNUAL CHANCE FLOOD HAZARD,4
POINT (-73.93261856614177 40.85084971385213),1,Manhattan,112,10,72,31,13,3638,225,Senior Safety,backed,08/01/2017,1471 St. Nicholas Avenue,1471 St. Nicholas Avenue,St. Nicholas Avenue,W. 184th Street & W. 183rd Street,Manhattan,112,Not Applicable,Not Applicable,40.850858,-73.93262,X,AREA OF MINIMAL FLOOD HAZARD,
POINT (-73.94127856651572 40.79756872499647),1,Manhattan,111,8,68,30,13,2109,771,Community Health Centers,backed,08/15/2013,176 East 115th Street,176 East 115th Street,East 115th Street,3rd and Lexington Avenues,Manhattan,111,Not Applicable,Not Applicable,40.797577,-73.94128,X,AREA OF MINIMAL FLOOD HAZARD,5
POINT (-73.96835555888786 40.79169472709611),1,Manhattan,107,6,69,30,10,3056,1721,General,backed,02/05/2015,703 Columbus Avenue,703 Columbus Avenue,Columbus Avenue,W 94th Street & W 95th Street,Manhattan,107,Not Applicable,Not Applicable,40.791703,-73.968357,X,AREA OF MINIMAL FLOOD HAZARD,
POINT (-73.99185655587515 40.71965974193614),1,Manhattan,103,1,65,26,7,3332,1050,Municipal Facilities,backed,08/04/2017,38 Delancey Street,38 Delancey Street,Delancey Street,Eldridge Street & Forsyth Street,Manhattan,103,Not Applicable,Not Applicable,40.719668,-73.991858,X,AREA OF MINIMAL FLOOD HAZARD,
POINT (-73.95988056296302 40.76607473151014),1,Manhattan,108,5,76,28,12,3841,197,General,backed 2,07/05/2017,300 E 68th Street,1276 2nd Avenue,2nd Avenue,2nd Avenue & 1st Avenue,Manhattan,108,Not Applicable,Not Applicable,40.766083,-73.959882,X,AREA OF MINIMAL FLOOD HAZARD,
POINT (-73.98293855542974 40.776804730053605),1,Manhattan,107,6,67,27,10,1994,790,General,backless,09/20/2013,201 Amsterdam Avenue,201 Amsterdam Avenue,Amsterdam Avenue,W 69th & W70th Street,Manhattan,107,M11,Not Applicable,40.776813,-73.98294,X,AREA OF MINIMAL FLOOD HAZARD,
POINT (-73.94924956407033 40.79850272438343),1,Manhattan,110,9,68,30,13,2796,1840,Municipal Facilities,backed,12/08/2014,20 West 112th Street,20 West 112th Street,West 112th Street,5th Avenue & Lenox Avenue,Manhattan,110,Not Applicable,Not Applicable,40.798511,-73.949251,X,AREA OF MINIMAL FLOOD HAZARD,5
POINT (-73.99385755384763 40.73564773859644),1,Manhattan,102,2,66,28,12,3061,1595,General,backed,02/04/2015,65 5th Avenue,65 5th Avenue,5th Avenue,East 13th Street & East 14th Street,Manhattan,102,Not Applicable,Not Applicable,40.735656,-73.993859,X,AREA OF MINIMAL FLOOD HAZARD,
POINT (-74.00551555060673 40.72738374073121),1,Manhattan,102,3,66,27,10,978,114,BID,backed,07/03/2012,175 Varick Street,175 Varick Street,Varick Street,Charlton and King Streets,Manhattan,102,Not Applicable,Hudson Square Connection,40.727392,-74.005517,X,AREA OF MINIMAL FLOOD HAZARD,4
POINT (-74.00717955194486 40.70588374466367),1,Manhattan,101,1,65,26,10,2038,759,General,backless,08/12/2013,80 Pine Street,80 Pine Street,Water Street,Maiden Lane and Pine Street,Manhattan,101,BM1,Alliance for Downtown New York,40.705892,-74.007181,X,0.2 PCT ANNUAL CHANCE FLOOD HAZARD,1
POINT (-73.98624555639321 40.740318737476116),1,Manhattan,105,2,74,28,12,1134,566,Senior Center,backless,04/29/2013,303 Park Avenue South,303 Park Avenue South,Park Avenue South,E23rd & E24th Street,Manhattan,105,M1,Not Applicable,40.740327,-73.986247,X,AREA OF MINIMAL FLOOD HAZARD,6
POINT (-73.93975256699044 40.815592721056234),1,Manhattan,110,9,70,30,13,1657,425,Senior Center,backless,03/08/2013,540 Lenox Avenue,540 Lenox Avenue,Lenox Avenue,East 138th Street & East 137th Street,Manhattan,110,M07,Not Applicable,40.815601,-73.939754,X,AREA OF MINIMAL FLOOD HAZARD,4
POINT (-73.93365656696476 40.849395713957136),1,Manhattan,112,10,72,31,13,2986,1658,Municipal Facilities,backless,01/15/2015,1422 St. Nicholas Avenue,585 West 181st Street,West 181st Street,West 181st Street & West 182 Street,Manhattan,112,BX11,Not Applicable,40.849404,-73.933658,X,AREA OF MINIMAL FLOOD HAZARD,
POINT (-73.92952656778147 40.855044713326684),1,Manhattan,112,10,72,31,13,3641,229,Senior Safety,backed,08/01/2017,1602 St. Nicholas Avenue,1602 St. Nicholas Avenue,St. Nicholas Avenue,W. 191st Street & W. 190th Street,Manhattan,112,Not Applicable,Not Applicable,40.855053,-73.929528,X,AREA OF MINIMAL FLOOD HAZARD,
POINT (-73.99670755324745 40.74260873758454),1,Manhattan,104,3,75,27,12,4114,651,General,backed 2,03/20/2019,183 Seventh Avenue,183 Seventh Avenue,Seventh Avenue,West 21st Street & West 20th Street,Manhattan,104,Not Applicable,Not Applicable,40.742617,-73.996709,X,AREA OF MINIMAL FLOOD HAZARD,6
POINT (-73.97574955711893 40.78664872801993),1,Manhattan,107,6,69,29,10,3937,292,Senior Safety,backed 2,02/02/2018,509 Amsterdam Avenue,509 Amsterdam Avenue,Amsterdam Avenue,84th Street & 85th Street,Manhattan,107,Not Applicable,Not Applicable,40.786657,-73.975751,X,AREA OF MINIMAL FLOOD HAZARD,
POINT (-74.01071154939717 40.71367574360209),1,Manhattan,101,1,66,26,10,1839,372,General,backed,03/11/2013,30 West Broadway,30 West Broadway,"Park Place, Greenwich Street & West Broadway",Greenwich Street &West Broadway,Manhattan,101,Not Applicable,Not Applicable,40.713684,-74.010713,X,AREA OF MINIMAL FLOOD HAZARD,2
POINT (-73.94892356360425 40.823438719496465),1,Manhattan,109,7,71,30,13,2277,1116,General,backed,12/06/2013,1658 Amsterdam Avenue,1658 Amsterdam Avenue,Amsterdam Avenue,W142nd & W143rd Street,Manhattan,109,Not Applicable,Not Applicable,40.823447,-73.948925,X,AREA OF MINIMAL FLOOD HAZARD,
POINT (-73.98151955838891 40.72442674089426),1,Manhattan,103,2,74,26,12,2153,842,Community Health Centers,backed,09/20/2013,600 East 6th Street,600 East 6th Street,East 6th Street,Avenue B and Avenue C,Manhattan,103,Not Applicable,Not Applicable,40.724435,-73.981521,X,AREA OF MINIMAL FLOOD HAZARD,2
POINT (-73.99326655247758 40.76267273379342),1,Manhattan,104,3,67,27,10,1733,451,General,backed,02/08/2013,665 10th avenue,665 10th avenue,10th Avenue,46th & 47th Streets,Manhattan,104,Not Applicable,Not Applicable,40.762681,-73.993268,X,AREA OF MINIMAL FLOOD HAZARD,5
POINT (-73.9768535562723 40.780813728828264),1,Manhattan,107,6,67,29,10,1831,474,General,backed,03/25/2013,100 West 77th Street,100 West 77th Street,Columbus Avenue,76th Street & 77th Street,Manhattan,107,Not Applicable,Columbus Avenue,40.780822,-73.976855,X,AREA OF MINIMAL FLOOD HAZARD,
POINT (-73.93792456792254 40.800821723962365),1,Manhattan,111,8,68,30,13,1224,228,General,backed,10/09/2012,2212 Third Avenue,2212 Third Avenue,3rd Avenue,East 120th and 121st Streets,Manhattan,111,Not Applicable,Not Applicable,40.80083,-73.937926,X,AREA OF MINIMAL FLOOD HAZARD,5
POINT (-73.99622755248974 40.744346737016414),1,Manhattan,104,3,75,27,12,1771,0,General,backed,,209 West 23rd Street,209 West 23rd Street,West 23rd Street,7th and 8th Avenue,Manhattan,104,Not Applicable,Not Applicable,40.744355,-73.996229,X,AREA OF MINIMAL FLOOD HAZARD,5
POINT (-73.98219555809644 40.731642739348935),1,Manhattan,106,4,74,27,12,1137,279,Senior Center,backed,10/25/2012,240 First Avenue,,1st Avenue,E14th & E 15th Street,Manhattan,106,Not Applicable,Not Applicable,40.731651,-73.982197,X,AREA OF MINIMAL FLOOD HAZARD,4
POINT (-73.99411955383772 40.74105573809071),1,Manhattan,105,3,75,28,12,1385,711,General,backless,12/19/2012,656 6th Avenue,656 6th Avenue,6th Avenue,W19th & W20th Street,Manhattan,105,M05,Flatiron/23rd Street Partnership,40.741064,-73.994121,X,AREA OF MINIMAL FLOOD HAZARD,
POINT (-73.94694956521258 40.79339072598132),1,Manhattan,111,8,68,29,13,2107,772,Community Health Centers,backed,08/15/2013,104 East 107th Street,104 East 107th Street,East 107th Street,Lexington and Park Avenues,Manhattan,111,Not Applicable,Not Applicable,40.793399,-73.946951,X,0.2 PCT ANNUAL CHANCE FLOOD HAZARD,3
POINT (-73.95931156245626 40.769184730519854),1,Manhattan,108,4,76,28,12,3856,646,General,backed,02/23/2018,260 E 72nd Street,1361 2nd Avenue,2nd Avenue,2nd Avenue & 3rd Avenue,Manhattan,108,Not Applicable,Not Applicable,40.769193,-73.959313,X,AREA OF MINIMAL FLOOD HAZARD,
POINT (-73.93341156944415 40.795162724507776),1,Manhattan,111,8,68,29,13,1254,246,General,backed,10/11/2012,455 East 116th Street,455 East 116th Street,Pleasant Avenues,1st and Pleasant Avenues,Manhattan,111,Not Applicable,Not Applicable,40.795171,-73.933413,X,0.2 PCT ANNUAL CHANCE FLOOD HAZARD,3
POINT (-74.0042695521841 40.70730874503072),1,Manhattan,101,1,65,26,10,2037,743,General,backed,08/12/2013,200 Water Street,200 Water Street,Water Street,Fulton Street and John Streets,Manhattan,101,Not Applicable,Alliance for Downtown New York,40.707317,-74.004271,AE,,1
POINT (-73.96377456180171 40.761174732787026),1,Manhattan,108,5,73,28,12,4237,0,Bus Route,backed 2,03/20/2019,300 East 60th Street,300 East 60th Street,East 60th Street,2 Avenue & 1 Avenue,Manhattan,108,M11,Not Applicable,40.761183,-73.963776,X,AREA OF MINIMAL FLOOD HAZARD,
POINT (-73.98220955578296 40.77315073115844),1,Manhattan,107,6,67,27,10,1904,534,General,backless,05/08/2013,1941 Broadway,1941 Broadway,Broadway,W. 65th Street and W. 66th Street,Manhattan,107,M05,Not Applicable,40.773159,-73.982211,X,AREA OF MINIMAL FLOOD HAZARD,
POINT (-73.93537756516791 40.853008713605945),1,Manhattan,112,10,72,31,13,863,243,General,backed,10/12/2012,90 Bennett Avenue,90 Bennett Avenue,Bennett Avenue,West 184th and 186th Streets,Manhattan,112,Not Applicable,Not Applicable,40.853017,-73.935379,X,AREA OF MINIMAL FLOOD HAZARD,
POINT (-73.96229856256632 40.76739373178555),1,Manhattan,108,4,76,28,12,3929,428,Senior Safety,backed 2,02/02/2018,1175 3rd Avenue,1175 3rd Avenue,3rd Avenue,68th Street & 69th Street,Manhattan,108,Not Applicable,Not Applicable,40.767402,-73.9623,X,AREA OF MINIMAL FLOOD HAZARD,
POINT (-73.93486956595379 40.84777171473809),1,Manhattan,112,10,72,31,13,2923,1422,General,backed,12/04/2014,1365 Saint Nicholas Avenue,1365 Saint Nicholas Avenue,Saint Nicholas Avenue,West 178th Street & West 179th Street,Manhattan,112,Not Applicable,Not Applicable,40.84778,-73.934871,X,AREA OF MINIMAL FLOOD HAZARD,
POINT (-73.95306456404091 40.776071729709976),1,Manhattan,108,5,76,28,12,3853,69,General,backed 2,07/05/2017,1603 2nd Avenue,1603 2nd Avenue,2nd Avenue,E 83rd Street & E 84th Street,Manhattan,108,Not Applicable,Not Applicable,40.77608,-73.953066,X,AREA OF MINIMAL FLOOD HAZARD,
POINT (-73.9869365569772 40.71559474229809),1,Manhattan,103,1,65,26,12,2573,1206,General,backed,06/25/2014,175 Clinton Street,175 Clinton Street,Clinton Street,Grand Street and East Broadway,Manhattan,103,Not Applicable,Not Applicable,40.715603,-73.986938,X,AREA OF MINIMAL FLOOD HAZARD,
POINT (-73.99409141346507 40.7137446956968),1,Manhattan,103,1,65,26,7,2735,799,General,backless,07/25/2014,88 East Broadway,88 East Broadway,Division Street,Market & Forsyth Street,Manhattan,103,Not Applicable,Chinatown,40.7137446957,-73.9940914135,X,AREA OF MINIMAL FLOOD HAZARD,
POINT (-73.94502256693956 40.787104726819805),1,Manhattan,111,8,68,29,13,3843,178,General,backless 2,07/05/2017,1955 2nd Avenue,1955 2nd Avenue,2nd Avenue,E 102nd & E 101st Street,Manhattan,111,Not Applicable,Not Applicable,40.787113,-73.945024,X,AREA OF MINIMAL FLOOD HAZARD,4
POINT (-73.95473756348514 40.77914072861994),1,Manhattan,108,5,73,28,12,4203,166,Bus Route,backed 2,11/20/2018,173 East 86th Street,173 East 86th Street,East 86th Street,Lexington Avenue & 3rd Avenue,Manhattan,108,M96,Not Applicable,40.779149,-73.954739,X,AREA OF MINIMAL FLOOD HAZARD,
POINT (-73.99637826607854 40.7157621892893),1,Manhattan,103,1,65,26,7,3805,418,Senior Safety,backed,12/28/2017,50 Bowery,50 Bowery,Bowery,Canal Street & Slip Lane,Manhattan,103,Not Applicable,Not Applicable,40.7157621893,-73.9963782661,X,AREA OF MINIMAL FLOOD HAZARD,
POINT (-73.95933456035574 40.81423072210305),1,Manhattan,109,7,69,30,13,3016,1406,Municipal Facilities,backless,01/26/2015,3150 Broadway,3150 Broadway,Broadway,LaSalle Street & Moylan Place,Manhattan,109,M4,Not Applicable,40.814239,-73.959336,X,AREA OF MINIMAL FLOOD HAZARD,
POINT (-73.99424655381071 40.736251738246295),1,Manhattan,102,3,66,27,10,1618,707,General,backed,06/13/2013,8-12 West 14th Street,8 West 14th street,West 14th Street,5th Avenue & 6th Avenue,Manhattan,102,Not Applicable,Not Applicable,40.73626,-73.994248,X,AREA OF MINIMAL FLOOD HAZARD,6
POINT (-73.93867356523266 40.84252271553791),1,Manhattan,112,10,72,31,13,3000,58,Municipal Facilities,backless,01/20/2015,1204 St. Nicholas Avenue,1204 St. Nicholas Avenue,St. Nicholas Avenue,W 170th Street & W 171st Street,Manhattan,112,M3,Not Applicable,40.842531,-73.938675,X,AREA OF MINIMAL FLOOD HAZARD,
POINT (-73.96567456122571 40.75878973344803),1,Manhattan,106,4,73,28,12,3932,662,Senior Safety,backed,02/23/2018,1065 2nd Avenue,"40.758754, -73.965756",2nd Avenue,E56th Street & E 57th Street,Manhattan,106,Not Applicable,East Midtown Partnership,40.758798,-73.965676,X,AREA OF MINIMAL FLOOD HAZARD,
POINT (-73.94790656638024 40.77889672817382),1,Manhattan,108,5,76,28,12,1099,514,Senior Center,backed,05/08/2013,1721 1st Avenue,1721 1st Avenue,1st Avenue,89th and 90th Street,Manhattan,108,Not Applicable,Not Applicable,40.778905,-73.947908,X,AREA OF MINIMAL FLOOD HAZARD,
POINT (-73.93934756713712 40.80099872358512),1,Manhattan,111,8,68,30,13,2112,812,Community Health Centers,backed,09/04/2013,160 East 120th Street,160 East 120th Street,East 120th Street,Lexington and 3rd Avenues,Manhattan,111,Not Applicable,Not Applicable,40.801007,-73.939349,X,AREA OF MINIMAL FLOOD HAZARD,5
POINT (-73.95556756166916 40.80783472316213),1,Manhattan,110,9,70,30,13,2115,948,Community Health Centers,backed,09/04/2013,370 West 120th Street,370 West 120th Street,West 120th Street,Manhattan and Morningside Avenues,Manhattan,110,Not Applicable,Not Applicable,40.807843,-73.955569,X,AREA OF MINIMAL FLOOD HAZARD,
POINT (-73.93650556604803 40.84944971418431),1,Manhattan,112,10,71,31,13,3636,485,Senior Safety,backed,08/01/2017,4239 Broadway,4239 Broadway,Broadway,W. 180th Street & W. 179th Street,Manhattan,112,Not Applicable,Washington Heights,40.849458,-73.936507,X,AREA OF MINIMAL FLOOD HAZARD,
POINT (-73.96712655896377 40.79269072640374),1,Manhattan,107,7,69,30,10,1283,182,General,backed,10/15/2012,65 West 96th Street,65 West 96th Street,Columbus Avenue,Central Park West and Columbus Avenue,Manhattan,107,Not Applicable,Not Applicable,40.792699,-73.967128,X,AREA OF MINIMAL FLOOD HAZARD,
POINT (-73.99287655424246 40.728151740544554),1,Manhattan,102,2,66,27,12,3077,1187,General,backed,06/05/2015,393 Lafayette Street,393 Lafayette Street,Lafayette Street,East 4th Street & Astor Place,Manhattan,102,Not Applicable,NOHO NY,40.72816,-73.992878,X,AREA OF MINIMAL FLOOD HAZARD,
POINT (-73.94123256494862 40.83396871728781),1,Manhattan,112,7,71,31,13,2122,599,Community Health Centers,backed,08/16/2013,1996 Amsterdam Avenue,1996 Amsterdam Avenue,Amsterdam Avenue,W 159th Street and W 158th Street,Manhattan,112,Not Applicable,Not Applicable,40.833977,-73.941234,X,AREA OF MINIMAL FLOOD HAZARD,
POINT (-73.93631356591396 40.84579071547603),1,Manhattan,112,10,72,31,13,3141,1899,General,backed,09/12/2015,1311 St. Nicholas Avenue,1311 St. Nicholas Avenue,St. Nicholas Avenue,175th Street & 176th Street,Manhattan,112,Not Applicable,Not Applicable,40.845799,-73.936315,X,AREA OF MINIMAL FLOOD HAZARD,
POINT (-73.9768535562723 40.780813728828264),1,Manhattan,107,6,67,29,10,1831,544,General,backed,03/25/2013,100 West 77th Street,100 West 77th Street,Columbus Avenue,76th Street & 77th Street,Manhattan,107,Not Applicable,Columbus Avenue,40.780822,-73.976855,X,AREA OF MINIMAL FLOOD HAZARD,
POINT (-73.95986656257838 40.76524873213167),1,Manhattan,108,5,76,28,12,4189,541,General,backed 2,04/11/2019,328 East 67th Street,328 East 67th Street,East 67th Street,First Avenue & Second Avenue,Manhattan,108,Not Applicable,Not Applicable,40.765257,-73.959868,X,AREA OF MINIMAL FLOOD HAZARD,
POINT (-73.98323555889812 40.71325774271389),1,Manhattan,103,2,65,26,7,1026,247,Senior Center,backed,09/28/2012,334 Madison Street,334 Madison Street,Madison Street,Jackson and Gouverneur Streets,Manhattan,103,Not Applicable,Not Applicable,40.713266,-73.983237,X,AREA OF MINIMAL FLOOD HAZARD,4
POINT (-73.96835555888786 40.79169472709611),1,Manhattan,107,6,69,30,10,3056,1811,General,backed,02/05/2015,703 Columbus Avenue,703 Columbus Avenue,Columbus Avenue,W 94th Street & W 95th Street,Manhattan,107,Not Applicable,Not Applicable,40.791703,-73.968357,X,AREA OF MINIMAL FLOOD HAZARD,
POINT (-73.94373656602097 40.79569772538705),1,Manhattan,111,8,68,29,13,3442,1131,General,backed,09/15/2016,1795 Lexington Avenue,1795 Lexington Ave,Lexington Avenue,111th Street & 112th Street,Manhattan,111,Not Applicable,Not Applicable,40.795706,-73.943738,X,AREA OF MINIMAL FLOOD HAZARD,4
POINT (-73.95736356098163 40.816942721305665),1,Manhattan,109,7,70,30,13,3015,850,Municipal Facilities,backless,01/26/2015,3240 Broadway,3240 Broadway,Broadway,West 130th Street & West 131st Street,Manhattan,109,M4,Not Applicable,40.816951,-73.957365,X,AREA OF MINIMAL FLOOD HAZARD,
POINT (-73.92080756899185 40.86704371008877),1,Manhattan,112,10,72,31,13,2051,1044,General,backed,10/10/2013,588 West 207th Street,588 West 207th Street,West 207th Street,Vermilyea Avenue and Broadway,Manhattan,112,Not Applicable,Not Applicable,40.867052,-73.920809,X,AREA OF MINIMAL FLOOD HAZARD,5
POINT (-73.98469055474794 40.77439473054684),1,Manhattan,107,6,67,27,10,1333,57,General,backed,03/05/2013,127 Amsterdam Avenue,127 Amsterdam Avenue,Amsterdam Avenue,W. 65th Street and W. 66th Street,Manhattan,107,M11,Not Applicable,40.774403,-73.984692,X,AREA OF MINIMAL FLOOD HAZARD,
POINT (-73.97852355996781 40.727883739748734),1,Manhattan,103,2,74,27,12,2773,1728,Municipal Facilities,backed,11/28/2014,610 East 12th Street,610 East 12th Street,East 12th Street,Avenue B & Avenue C,Manhattan,103,Not Applicable,Not Applicable,40.727892,-73.978525,X,AREA OF MINIMAL FLOOD HAZARD,1
POINT (-74.01147354992288 40.714441743417474),1,Manhattan,101,1,66,26,10,1940,514,BID,backed 2,07/31/2018,255 Greenwich Street,255 Greenwich Street,Murray Street,Greenwhich Street & West Broadway,Manhattan,101,Not Applicable,Alliance for Downtown New York,40.71445,-74.011475,X,0.2 PCT ANNUAL CHANCE FLOOD HAZARD,2
POINT (-73.95240556378053 40.78963872696734),1,Manhattan,111,8,68,30,13,2482,1512,Health Care Facilities,backed,05/16/2014,1450 Madison Avenue,1450 Madison Avenue,Madison,E. 99th Street and E. 100th Street,Manhattan,111,Not Applicable,Not Applicable,40.789647,-73.952407,X,AREA OF MINIMAL FLOOD HAZARD,
POINT (-73.95748056069876 40.81026172289179),1,Manhattan,109,7,70,30,13,2792,1479,Municipal Facilities,backed,12/05/2014,123 Morningside Drive,123 Morningside Drive,Morningside Drive,Amsterdam Avenue & West 121st Street,Manhattan,109,Not Applicable,Not Applicable,40.81027,-73.957482,X,AREA OF MINIMAL FLOOD HAZARD,
POINT (-73.92789056750928 40.860420711913434),1,Manhattan,112,10,72,31,13,2760,1726,Municipal Facilities,backed,12/04/2014,95 Nagle Avenue,95 Nagle Avenue,Nagle Avenue,Elwood Street & Sickles Street,Manhattan,112,Not Applicable,Not Applicable,40.860429,-73.927892,X,AREA OF MINIMAL FLOOD HAZARD,5
POINT (-74.01071154939717 40.71367574360209),1,Manhattan,101,1,66,26,10,1839,452,General,backed,03/11/2013,30 West Broadway,30 West Broadway,"Park Place, Greenwich Street & West Broadway",Greenwich Street &West Broadway,Manhattan,101,Not Applicable,Not Applicable,40.713684,-74.010713,X,AREA OF MINIMAL FLOOD HAZARD,2
POINT (-74.00175655042895 40.74665773644136),1,Manhattan,104,3,75,27,10,1570,542,General,backed,05/20/2013,400 West 23rd Street,400 West 23rd Street,9th Avenue,9th Avenue & 10th Avenue,Manhattan,104,Not Applicable,Not Applicable,40.746666,-74.001758,X,AREA OF MINIMAL FLOOD HAZARD,2
POINT (-73.9662885592713 40.794559726323804),1,Manhattan,107,7,69,30,10,2080,356,General,backless 2,10/11/2013,808 Columbus Avenue,808 Columbus Avenue,97th Street,Amsterdam Avenue and Columbus Avenue,Manhattan,107,Not Applicable,Not Applicable,40.794568,-73.96629,X,AREA OF MINIMAL FLOOD HAZARD,
POINT (-73.99089455545484 40.73423473921417),1,Manhattan,102,2,66,28,12,3039,1653,Municipal Facilities,backless,02/04/2015,841 Broadway,841 Broadway,Broadway,13th Street and 14th Street,Manhattan,102,X1,Union Square Partnership,40.734243,-73.990896,X,AREA OF MINIMAL FLOOD HAZARD,
POINT (-73.97454455746433 40.78493872795046),1,Manhattan,107,6,69,29,10,1310,469,General,backed,03/07/2013,127 West 83rd Street,127 West 83rd Street,83rd Street,Amsterdam and Columbus Avenues,Manhattan,107,Not Applicable,Not Applicable,40.784947,-73.974546,X,AREA OF MINIMAL FLOOD HAZARD,
POINT (-74.01305154931707 40.70779974451104),1,Manhattan,101,1,65,26,10,1017,169,BID,backed,07/10/2012,2 Rector Street,2 Rector Street,Trinity Place,Greenwich Street and Trinity Place,Manhattan,101,Not Applicable,Alliance for Downtown New York,40.707808,-74.013053,X,AREA OF MINIMAL FLOOD HAZARD,3
POINT (-73.93359956998991 40.79524172487742),1,Manhattan,111,8,68,29,13,3023,1633,Municipal Facilities,backless,01/22/2015,451 E. 116th Street,451 E. 116th Street,E. 116th Street,Pleasant Avenue and 1st Avenue,Manhattan,111,M116,Not Applicable,40.79525,-73.933601,X,0.2 PCT ANNUAL CHANCE FLOOD HAZARD,3
POINT (-73.93804944807543 40.82302374828721),1,Manhattan,110,9,71,30,13,3028,1064,Municipal Facilities,backless,01/26/2015,2541 Adam Clayton Powell Boulevard,2541 Adam Clayton Powell Boulevard,W. 147th Street,W. 147th Street & W. 148th Street,Manhattan,110,M1,Not Applicable,40.8230237483,-73.9380494481,X,AREA OF MINIMAL FLOOD HAZARD,1
POINT (-73.9354555661926 40.84696471491135),1,Manhattan,112,10,72,31,13,2367,993,General,backed,04/01/2014,1347 St Nicholas Avenue,1347 St Nicholas Avenue,St. Nicholas Avenue,W177th & W178th Street,Manhattan,112,Not Applicable,Not Applicable,40.846973,-73.935457,X,AREA OF MINIMAL FLOOD HAZARD,
POINT (-73.98882155403157 40.76586973252303),1,Manhattan,104,3,67,27,10,2775,1652,Municipal Facilities,backed,11/05/2014,440 West 53rd Street,440 West 53rd Street,West 53rd Street,9th Avenue & 10th Avenue,Manhattan,104,Not Applicable,Not Applicable,40.765878,-73.988823,X,AREA OF MINIMAL FLOOD HAZARD,
POINT (-73.94207356459756 40.83116971857788),1,Manhattan,109,7,71,30,13,4125,613,Bus Route,backless 2,07/12/2018,460 West 155th Street,1909 Amsterdam Avenue,West 155th Street,Amsterdam Avenue & Saint Nicholas Avenue,Manhattan,109,BX6,Not Applicable,40.831178,-73.942075,X,AREA OF MINIMAL FLOOD HAZARD,
POINT (-73.97726755664839 40.784603728114945),1,Manhattan,107,6,67,29,10,3645,3425,Senior Safety,backed,06/21/2017,440 Amsterdam Avenue,440 Amsterdam Avenue,W. 81st Street,W. 80th Street & W. 81st Street,Manhattan,107,Not Applicable,Not Applicable,40.784612,-73.977269,X,AREA OF MINIMAL FLOOD HAZARD,
POINT (-74.00561555064876 40.726606740825034),1,Manhattan,102,3,66,27,10,979,2034,BID,backed,07/03/2012,160 Varick Street,160 Varick Street,Varick Street,Charlton and Vandam Streets,Manhattan,102,Not Applicable,Hudson Square Connection,40.726615,-74.005617,X,AREA OF MINIMAL FLOOD HAZARD,4
POINT (-73.96251456026951 40.79969572487173),1,Manhattan,107,7,69,30,13,3661,2421,General,backless,02/14/2017,953 Columbus Avenue,953 Columbus Avenue,Columbus Avenue,W 107th Street & W 106th Street,Manhattan,107,Not Applicable,Columbus/Amsterdam,40.799704,-73.962516,X,AREA OF MINIMAL FLOOD HAZARD,
POINT (-73.94930556524288 40.776849729402656),1,Manhattan,108,5,76,28,12,1995,798,General,backless,07/31/2013,401 East 86th Street,401 East 86th Street,1st Avenue,E 86th & E 87th Street,Manhattan,108,M15,Not Applicable,40.776858,-73.949307,X,AREA OF MINIMAL FLOOD HAZARD,
POINT (-73.94099356534505 40.83425671742473),1,Manhattan,112,10,71,31,13,2332,1357,Senior Center,backed,01/15/2014,2003 Amsterdam Avenue,2003 Amsterdam Avenue,Amsterdam Avenue,159th Street & 160th Street,Manhattan,112,Not Applicable,Not Applicable,40.834265,-73.940995,X,AREA OF MINIMAL FLOOD HAZARD,
POINT (-74.00739954916385 40.74180973782749),1,Manhattan,104,3,66,27,10,3067,1340,General,backless,06/01/2015,449 West 14th Street,449 West 14th Street,West 14th Street,10th Avenue & 9th Avenue,Manhattan,104,M11,Not Applicable,40.741818,-74.007401,X,AREA OF MINIMAL FLOOD HAZARD,3
POINT (-73.94650056487515 40.80820672291162),1,Manhattan,110,9,70,30,13,1182,307,BID,backed,01/16/2013,125 West 125th Street,,West 125th Street,"Adam Clayton Powell, Jr. Blvd & Malcolm X Blvd",Manhattan,110,Not Applicable,125th Street,40.808215,-73.946502,X,AREA OF MINIMAL FLOOD HAZARD,6
POINT (-73.93755656851219 40.80024772433835),1,Manhattan,111,8,68,30,13,2110,749,Community Health Centers,backed,08/15/2013,216 East 120th Street,216 East 120th Street,East 120th Street,2nd and 3rd Avenues,Manhattan,111,Not Applicable,Not Applicable,40.800256,-73.937558,X,AREA OF MINIMAL FLOOD HAZARD,5
POINT (-73.97496055937961 40.744395736327974),1,Manhattan,106,2,74,28,12,2477,393,Health Care Facilities,backed,05/09/2014,317 E. 34th Street,173 E. 34th Street,E. 34th Street,1st Avenue and Tunnel Entrance Road,Manhattan,106,Not Applicable,Not Applicable,40.744404,-73.974962,X,AREA OF MINIMAL FLOOD HAZARD,2
POINT (-73.93379456656099 40.849205714676884),1,Manhattan,112,10,72,31,13,3388,0,General,backed,06/16/2016,1420 St Nicholas Avenue,566 W 181st Street,W 181st Street,St Nicholas Avenue & Audubon Avenue,Manhattan,112,Not Applicable,Washington Heights,40.849214,-73.933796,X,AREA OF MINIMAL FLOOD HAZARD,
POINT (-73.92024656985573 40.8679717101329),1,Manhattan,112,10,72,31,13,892,518,General,backless,03/14/2013,4961 Broadway,4961 Broadway,Broadway,Isham and West 207th Street,Manhattan,112,Not Applicable,Not Applicable,40.86798,-73.920248,X,AREA OF MINIMAL FLOOD HAZARD,5
POINT (-73.94236056563246 40.812058721506),1,Manhattan,110,9,70,30,13,961,549,Senior Center,backed,05/06/2013,437 Lenox Avenue,437 Lenox Avenue,Lenox Avenue,131st & 132nd Street,Manhattan,110,Not Applicable,Not Applicable,40.812067,-73.942362,X,AREA OF MINIMAL FLOOD HAZARD,6
POINT (-73.98439555711879 40.73708873814461),1,Manhattan,106,2,74,28,12,3497,215,General,backed,09/15/2016,247 3rd Avenue,247 3rd Avenue,3rd Avenue,E 21st Street & E 22nd Street,Manhattan,106,Not Applicable,Not Applicable,40.737097,-73.984397,X,AREA OF MINIMAL FLOOD HAZARD,5
POINT (-73.93560256834841 40.803963723196745),1,Manhattan,111,8,68,30,13,1247,79,General,backless,10/09/2012,2309 Third Avenue,2309 Third Avenue,3rd Avenue,E 125th and E 126th Streets,Manhattan,111,M100,Not Applicable,40.803972,-73.935604,X,AREA OF MINIMAL FLOOD HAZARD,4
POINT (-73.93683656648842 40.838945716550434),1,Manhattan,112,10,72,31,13,3001,1526,Municipal Facilities,backless,01/20/2015,465 West 167th Street,2171 Amsterdam Avenue,Amsterdam Avenue,Amsterdam Avenue and Jumel Place,Manhattan,112,M101,Not Applicable,40.838954,-73.936838,X,AREA OF MINIMAL FLOOD HAZARD,
POINT (-73.96664255863382 40.794040726162734),1,Manhattan,107,7,69,30,10,1277,453,General,backed,03/08/2013,775 Columbus Avenue,775 Columbus Avenue,Columbus Avenue,West 94th and 95th Streets,Manhattan,107,Not Applicable,Not Applicable,40.794049,-73.966644,X,AREA OF MINIMAL FLOOD HAZARD,
POINT (-73.99425155481423 40.719821742249756),1,Manhattan,102,1,65,26,7,3799,354,Senior Safety,backless 2,08/02/2017,162 Bowery,162 Bowery,Bowery,Kenmare Street & Broome Street,Manhattan,102,M103,Not Applicable,40.71983,-73.994253,X,AREA OF MINIMAL FLOOD HAZARD,
POINT (-73.95342956506073 40.77129873036106),1,Manhattan,108,5,76,28,12,2308,1130,Senior Center,backed,01/10/2014,1486 1st Avenue,1486 1st Avenue,1st Avenue,E77th &E78th Street,Manhattan,108,M15,Not Applicable,40.771307,-73.953431,X,AREA OF MINIMAL FLOOD HAZARD,
POINT (-74.01147354992288 40.714441743417474),1,Manhattan,101,1,66,26,10,1940,593,BID,backed 2,07/31/2018,255 Greenwich Street,255 Greenwich Street,Murray Street,Greenwhich Street & West Broadway,Manhattan,101,Not Applicable,Alliance for Downtown New York,40.71445,-74.011475,X,0.2 PCT ANNUAL CHANCE FLOOD HAZARD,2
POINT (-73.94218056514985 40.8326377181498),1,Manhattan,112,7,71,30,13,3648,28,Senior Safety,backed 2,05/06/2017,1949 Amsterdam Avenue,1949 Amsterdam Avenue,Amsterdam Avenue,W. 157th Street & W. 155th Street,Manhattan,112,Not Applicable,Not Applicable,40.832646,-73.942182,X,AREA OF MINIMAL FLOOD HAZARD,
POINT (-73.98319955533927 40.77140573098691),1,Manhattan,107,6,67,27,10,3032,1217,Municipal Facilities,backless,12/15/2014,20 Lincoln Center Plaza,20 Lincoln Center Plaza,Columbus Avenue,62nd Street and 63rd Street,Manhattan,107,M11,Lincoln Square,40.771414,-73.983201,X,AREA OF MINIMAL FLOOD HAZARD,
POINT (-73.96870455892274 40.794255726145096),1,Manhattan,107,7,69,30,10,2078,1076,Plaza,backless,10/10/2013,163 W. 97th Street,163 W 97th Street,97th Street,Amsterdam Avenue and Columbus Avenue,Manhattan,107,Not Applicable,Not Applicable,40.794264,-73.968706,X,AREA OF MINIMAL FLOOD HAZARD,
POINT (-73.96870455892274 40.794255726145096),1,Manhattan,107,7,69,30,10,825,855,General,backed,02/06/2013,163 West 97th Street,163 West 97th Street,West 97th Street,Amsterdam Avenue & Columbus Avenue,Manhattan,107,Not Applicable,Not Applicable,40.794264,-73.968706,X,AREA OF MINIMAL FLOOD HAZARD,
POINT (-73.94730545893744 40.810350486850524),1,Manhattan,110,9,70,30,13,2249,1667,Community Health Centers,backless,11/08/2013,2143 Adam Clayton Powell Jr Blvd,2143 Adam Clayton Powell Jr Blvd,Adam Clayton Powell Junior Boulevard,W 127th Street and W 128th Street,Manhattan,110,M02,Not Applicable,40.8103504869,-73.9473054589,X,AREA OF MINIMAL FLOOD HAZARD,6
POINT (-73.98953355518024 40.74008073787326),1,Manhattan,105,2,75,28,12,2175,788,BID,backless,07/24/2013,925 Broadway,925 Broadway,Broadway,E21st & E22nd Street,Manhattan,105,Not Applicable,Flatiron/23rd Street Partnership,40.740089,-73.989535,X,AREA OF MINIMAL FLOOD HAZARD,
POINT (-74.01256055057002 40.7025317456587),1,Manhattan,101,1,65,26,10,2043,494,General,backed 2,08/14/2013,1 New York Plaza,1 New York Plaza,Water Street,Broad and Whitehall Streets,Manhattan,101,Not Applicable,Alliance for Downtown New York,40.70254,-74.012562,AE,,1
POINT (-73.95499998597019 40.804938406619314),1,Manhattan,110,9,70,30,13,1966,2260,General,backed,07/22/2013,2167 Frederick Douglass Boulevard,2167 Frederick Douglass Boulevard,Federick Douglass Boulevard,West 116th & West 117th Street,Manhattan,110,Not Applicable,Not Applicable,40.8049384066,-73.954999986,X,AREA OF MINIMAL FLOOD HAZARD,
POINT (-73.98253455739689 40.74831973551904),1,Manhattan,106,2,75,28,12,432,525,General,backless,04/09/2013,199 Madison Avenue,199 Madison Avenue,Madison Avenue,E34th Street & E35th Street,Manhattan,106,M1,Not Applicable,40.748328,-73.982536,X,AREA OF MINIMAL FLOOD HAZARD,
POINT (-73.95167656546798 40.777970729122366),1,Manhattan,108,5,76,28,12,3851,62,General,backless 2,07/05/2017,1659 2nd Avenue,1659 2nd Avenue,2nd Avenue,E 86th Street & E 87th Street,Manhattan,108,Not Applicable,Not Applicable,40.777979,-73.951678,X,AREA OF MINIMAL FLOOD HAZARD,
POINT (-73.98090355848406 40.7333937389377),1,Manhattan,106,4,74,27,12,4050,413,General,backed 2,04/26/2018,298 First Avenue,298 First Avenue,First Avenue,East 17th Street & East 18th Street,Manhattan,106,Not Applicable,Not Applicable,40.733402,-73.980905,X,AREA OF MINIMAL FLOOD HAZARD,4
POINT (-73.9398705662359 40.80966372218081),1,Manhattan,111,9,70,30,13,1660,448,Senior Center,backed,03/14/2013,2121 Fifth Avenue,2121 5th Avenue,5th Avenue,East 130th Street & East 131st Street,Manhattan,111,Not Applicable,Not Applicable,40.809672,-73.939872,X,AREA OF MINIMAL FLOOD HAZARD,5
POINT (-73.93840556480296 40.84629071535887),1,Manhattan,112,10,72,31,13,3337,9008,Plaza,backed,12/01/2015,4140 Broadway,4140 Broadway,W. 175th Street,W. 175th Street & W. 176th Street,Manhattan,112,Not Applicable,Not Applicable,40.846299,-73.938407,X,AREA OF MINIMAL FLOOD HAZARD,
POINT (-74.00551555060673 40.72738374073121),1,Manhattan,102,3,66,27,10,978,113,BID,backed,07/03/2012,175 Varick Street,175 Varick Street,Varick Street,Charlton and King Streets,Manhattan,102,Not Applicable,Hudson Square Connection,40.727392,-74.005517,X,AREA OF MINIMAL FLOOD HAZARD,4
POINT (-73.97644055998978 40.72310474042078),1,Manhattan,103,2,74,27,7,3069,1069,Bus Route,backless,04/17/2015,90 Avenue D,90 Avenue D,Avenue D,E. 6th Street & E. 7th Street,Manhattan,103,M14AD,Not Applicable,40.723113,-73.976442,X,0.2 PCT ANNUAL CHANCE FLOOD HAZARD,1
POINT (-73.99611555307457 40.74428073695861),1,Manhattan,104,3,75,27,12,3040,3040,Municipal Facilities,backless,02/04/2015,202 W. 23rd Street,216 7th Avenue,7th Avenue,7th Avenue & 8th Avenues,Manhattan,104,M72,Not Applicable,40.744289,-73.996117,X,AREA OF MINIMAL FLOOD HAZARD,5
POINT (-73.94600156630878 40.785724727558616),1,Manhattan,111,8,68,29,13,3827,202,General,backed 2,07/05/2017,1900 2nd Avenue,1900 2nd Avenue,2nd Avenue,E 97th Street & E 99th Street,Manhattan,111,Not Applicable,Not Applicable,40.785733,-73.946003,X,AREA OF MINIMAL FLOOD HAZARD,2
POINT (-73.94967156263091 40.82750671931591),1,Manhattan,109,7,71,30,13,3633,0,Bus Route,backless,02/14/2017,3575 Broadway,3575 Broadway,Broadway,W. 147th Street & W. 146th Street,Manhattan,109,M4,Not Applicable,40.827515,-73.949673,X,AREA OF MINIMAL FLOOD HAZARD,
POINT (-73.9501055626717 40.82182772014302),1,Manhattan,109,7,70,31,13,1983,737,General,backed,07/19/2013,1616 Amsterdam Avenue,1616 Amsterdam Avenue,Amsterdam Avenue,West 139th & 140th Street,Manhattan,109,Not Applicable,Not Applicable,40.821836,-73.950107,X,AREA OF MINIMAL FLOOD HAZARD,
POINT (-73.97524255712725 40.78228672928),1,Manhattan,107,6,67,29,10,1823,1161,BID,backed,12/03/2013,408 Columbus Avenue,408 Columbus Avenue,Columbus Avenue,W79th & W80th Street,Manhattan,107,Not Applicable,Columbus Avenue,40.782295,-73.975244,X,AREA OF MINIMAL FLOOD HAZARD,
POINT (-73.954607742338 40.76569130774194),1,Manhattan,108,5,76,28,12,1986,1210,General,backed,01/10/2014,1313 York Avenue,1313 & 1320 York Avenue,York Avenue,E 70th & E 71st Street,Manhattan,108,Not Applicable,Not Applicable,40.7656913077,-73.9546077423,X,AREA OF MINIMAL FLOOD HAZARD,
POINT (-73.95425256471195 40.770170730263004),1,Manhattan,108,5,76,28,12,4024,535,General,backless 2,04/26/2018,1456 First Avenue,1456 First Avenue,First Avenue,75th Street & 76th Street,Manhattan,108,M15,Not Applicable,40.770179,-73.954254,X,AREA OF MINIMAL FLOOD HAZARD,6
POINT (-73.95678856169665 40.81263872258874),1,Manhattan,109,7,69,30,13,3017,1271,Municipal Facilities,backless,12/16/2014,1315 Amsterdam Avenue,1315 Amsterdam Avenue,Amsterdam Avenue,LaSalle Street & West 125th Street,Manhattan,109,M11,Not Applicable,40.812647,-73.95679,X,AREA OF MINIMAL FLOOD HAZARD,
POINT (-74.0084675502828 40.71155174396241),1,Manhattan,101,1,66,26,10,1941,499,BID,backed,05/08/2013,217 Broadway,217 Broadway,Vesey Street,Church Street & Broadway,Manhattan,101,Not Applicable,Alliance for Downtown New York,40.71156,-74.008469,X,AREA OF MINIMAL FLOOD HAZARD,5
POINT (-73.93786656484524 40.850769714598535),1,Manhattan,112,10,71,31,13,3154,1986,General,backed,09/12/2015,770 W 181st Street,454 Fort Washington Avenue,Ft Washington Avenue,Ft Washington Avenue & Broadway,Manhattan,112,Not Applicable,Washington Heights,40.850778,-73.937868,X,AREA OF MINIMAL FLOOD HAZARD,
POINT (-73.96495655966848 40.80010272544822),1,Manhattan,107,7,69,30,13,2497,849,Health Care Facilities,backed,06/04/2014,140 W 106th Street,140 W 106th Street,106th Street,Amsterdam Avenue & Columbus Avenue,Manhattan,107,Not Applicable,Not Applicable,40.800111,-73.964958,X,AREA OF MINIMAL FLOOD HAZARD,
POINT (-73.94517956658079 40.793754725492335),1,Manhattan,111,8,68,30,13,1241,221,General,backed,10/05/2012,1738 - 1740 Lexington Avenue,1744 Lexington Avenue,Lexington Avenue,East 108th and 109th Streets,Manhattan,111,Not Applicable,Not Applicable,40.793763,-73.945181,AE,,4
POINT (-73.95520356386994 40.77931972883766),1,Manhattan,108,5,73,28,12,4202,341,Bus Route,backless,11/20/2018,144 East 86th Street,144 East 86th Street,East 86th Street,Park Avenue & Lexington Avenue,Manhattan,108,M86,Not Applicable,40.779328,-73.955205,X,AREA OF MINIMAL FLOOD HAZARD,
POINT (-73.98241955503472 40.77246473141378),1,Manhattan,107,6,67,27,10,3934,293,AAR,backless 2,02/05/2018,10 Lincoln Center Plaza,10 Lincoln Center Plaza,Columbus Avenue,W 62nd Street & W 64th Street,Manhattan,107,Not Applicable,Lincoln Square,40.772473,-73.982421,X,AREA OF MINIMAL FLOOD HAZARD,
POINT (-73.92833256657455 40.86642571118409),1,Manhattan,112,10,72,31,13,2721,1835,General,backed,12/04/2014,251 Dyckman Street,251 Dyckman Street,Dyckman Street,Payson Avenue & Seaman Avenue,Manhattan,112,Not Applicable,Not Applicable,40.866434,-73.928334,X,AREA OF MINIMAL FLOOD HAZARD,5
POINT (-73.96174955994498 40.805832723546665),1,Manhattan,109,7,70,30,10,2498,865,Health Care Facilities,backed,06/04/2014,1111 Amsterdam Avenue,1111 Amsterdam Avenue,Amsterdam Avenue,W. 113th and W. 114th,Manhattan,109,Not Applicable,Not Applicable,40.805841,-73.961751,X,AREA OF MINIMAL FLOOD HAZARD,
POINT (-73.97807355912182 40.7261057397021),1,Manhattan,103,2,74,27,12,3960,461,Bus Route,backless 2,12/28/2017,393 E 10th Street,393 E 10th Street,E 10th Street,Avenue B & Avenue C,Manhattan,103,M08,Not Applicable,40.726114,-73.978075,AE,,1
POINT (-73.9570965589093 40.774541303220104),1,Manhattan,108,5,73,28,12,3025,1806,Municipal Facilities,backless,01/22/2015,1397 3rd Avenue,1397 3rd Avenue,3rd Avenue,East 79th Street & East 80th Street,Manhattan,108,M98,Not Applicable,40.7745413032,-73.9570965589,X,AREA OF MINIMAL FLOOD HAZARD,
POINT (-74.01147354992288 40.714441743417474),1,Manhattan,101,1,66,26,10,1940,545,BID,backed,07/31/2018,255 Greenwich Street,255 Greenwich Street,Murray Street,Greenwhich Street & West Broadway,Manhattan,101,Not Applicable,Alliance for Downtown New York,40.71445,-74.011475,X,0.2 PCT ANNUAL CHANCE FLOOD HAZARD,2
POINT (-73.93974756830735 40.78947372582718),1,Manhattan,111,8,68,30,13,3904,294,General,backless 2,10/14/2017,410 E 106th Street,410 E 106th Street,E 106th Street,1st Avenue & FDR Drive,Manhattan,111,M106,Not Applicable,40.789482,-73.939749,X,0.2 PCT ANNUAL CHANCE FLOOD HAZARD,2
POINT (-73.95924056367345 40.76757573144024),1,Manhattan,108,5,76,28,12,3838,174,General,backed 2,07/05/2017,1328 2nd Avenue,1328 2nd Avenue,2nd Avenue,E 70th Street & 71st Street,Manhattan,108,Not Applicable,Not Applicable,40.767584,-73.959242,X,AREA OF MINIMAL FLOOD HAZARD,
POINT (-73.95330556309771 40.79860072469748),1,Manhattan,110,9,70,30,13,2268,1151,General,backed,12/03/2013,111 W 110th Street,111 W 110th Street,W 110th Street,Lenox Avenue & ACP Jr. Blvd,Manhattan,110,M02,Not Applicable,40.798609,-73.953307,X,AREA OF MINIMAL FLOOD HAZARD,6
POINT (-73.97891955659654 40.77744572958666),1,Manhattan,107,6,67,27,10,3031,1066,Municipal Facilities,backless,12/15/2014,100 W. 72nd Street,100 W. 72nd Street,W. 72nd Street,Columbus Avenue and Amsterdam Avenue,Manhattan,107,M72,Columbus Avenue,40.777454,-73.978921,X,AREA OF MINIMAL FLOOD HAZARD,
POINT (-73.9883685574798 40.71353074328487),1,Manhattan,103,1,65,26,7,4133,648,General,backed 2,03/20/2019,179 Henry Street,179 Henry Street,Henry Street,Jefferson Street & Clinton Street,Manhattan,103,Not Applicable,Not Applicable,40.713539,-73.98837,X,AREA OF MINIMAL FLOOD HAZARD,5
POINT (-73.9422110483999 40.79888332776885),1,Manhattan,111,8,68,30,13,1233,231,General,backed,10/10/2012,125 East 116th Street,125 East 116th Street,East 116th Street,Park Avenue and Lexington Avenues,Manhattan,111,Not Applicable,Not Applicable,40.7988833278,-73.9422110484,X,AREA OF MINIMAL FLOOD HAZARD,6
POINT (-73.95100856530183 40.77885372907905),1,Manhattan,108,5,76,28,12,3831,196,General,backed 2,07/05/2017,1690 2nd Avenue,1690 2nd Avenue,2nd Avenue,E 88th Street & E 87th Street,Manhattan,108,Not Applicable,Not Applicable,40.778862,-73.95101,X,AREA OF MINIMAL FLOOD HAZARD,
POINT (-74.00647354949632 40.746961737357786),1,Manhattan,104,3,75,27,10,1480,403,General,backed,12/20/2012,540 West 21st Street,540 West 21st Street,West 21st Street,10th & 11th Avenue,Manhattan,104,Not Applicable,Not Applicable,40.74697,-74.006475,AE,,1
POINT (-73.99152555299669 40.76501673295903),1,Manhattan,104,3,75,27,10,2549,1208,Municipal Facilities,backed,06/25/2014,742 10th Avenue,742 10th Avenue,10th Avenue,West 50th Street & West 51st Street,Manhattan,104,Not Applicable,Not Applicable,40.765025,-73.991527,X,AREA OF MINIMAL FLOOD HAZARD,
POINT (-73.97471855722323 40.78300372909806),1,Manhattan,107,6,69,29,10,1822,995,BID,backed,03/28/2014,430 Columbus Avenue,430 Columbus Avenue,Columbus Avenue,W80th & W81st Street,Manhattan,107,Not Applicable,Columbus Avenue,40.783012,-73.97472,X,AREA OF MINIMAL FLOOD HAZARD,
POINT (-73.94065756629561 40.81434972172497),1,Manhattan,110,9,70,30,13,2474,1511,Health Care Facilities,backed,05/16/2014,506 Lenox Avenue,506 Lenox Avenue,Lenox Avenue,W. 135th Street and W. 136th Street,Manhattan,110,Not Applicable,Not Applicable,40.814358,-73.940659,X,AREA OF MINIMAL FLOOD HAZARD,4
POINT (-73.99902455225622 40.735683738490145),1,Manhattan,102,3,66,27,10,2772,1412,Municipal Facilities,backed,11/05/2014,116 West 11th Street,116 West 11th Street,West 11th Street,Greenwich Street & 6th Avenue,Manhattan,102,Not Applicable,Not Applicable,40.735692,-73.999026,X,AREA OF MINIMAL FLOOD HAZARD,5
POINT (-73.95473756348514 40.77914072861994),1,Manhattan,108,5,73,28,12,4203,563,Bus Route,backed 2,11/20/2018,173 East 86th Street,173 East 86th Street,East 86th Street,Lexington Avenue & 3rd Avenue,Manhattan,108,M96,Not Applicable,40.779149,-73.954739,X,AREA OF MINIMAL FLOOD HAZARD,
POINT (-73.9864745570227 40.71586074199739),1,Manhattan,103,1,65,26,12,810,235,General,backed,09/28/2012,411 Grand Street,411 Grand Street,Clinton Street,Grand Street & Clinton Street,Manhattan,103,Not Applicable,Not Applicable,40.715869,-73.986476,X,AREA OF MINIMAL FLOOD HAZARD,
POINT (-73.98186455870419 40.7310797394045),1,Manhattan,106,4,74,27,12,3976,394,General,backed 2,12/28/2017,409 E 14th Street,409 E 14th St,E 14th Street,Avenue A & 1st Avenue,Manhattan,106,Not Applicable,Not Applicable,40.731088,-73.981866,X,AREA OF MINIMAL FLOOD HAZARD,4
POINT (-73.95000856379666 40.8066407236191),1,Manhattan,110,9,70,30,13,3560,2357,Bus Route,backless,02/10/2017,2027 Adam Clayton Powell Jr. Blvd,2027 Adam Clayton Powell Jr. Blvd,Adam Clayton Powell Jr. Blvd,W 121st Street & W122nd Street,Manhattan,111,M02,Not Applicable,40.806649,-73.95001,X,AREA OF MINIMAL FLOOD HAZARD,6
POINT (-73.94072575014259 40.799832249304444),1,Manhattan,111,8,68,29,13,1126,478,General,backed,02/06/2013,1897 Lexington Avenue,1897 Lexington Avenue,East 118th Street,East 118th and 119th Streets,Manhattan,111,Not Applicable,Not Applicable,40.7998322493,-73.9407257501,X,AREA OF MINIMAL FLOOD HAZARD,5
POINT (-74.0123885502188 40.70863674471935),1,Manhattan,101,1,65,26,10,1016,897,BID,backed,07/11/2012,86 Trinity Place,86 Trinity Place,Trinity Place,Thames and Cedar Streets,Manhattan,101,Not Applicable,Alliance for Downtown New York,40.708645,-74.01239,X,AREA OF MINIMAL FLOOD HAZARD,3
POINT (-73.99351155457592 40.72929174009112),1,Manhattan,102,1,66,27,12,3046,1487,Municipal Facilities,backless,04/16/2015,721 Broadway,721 Broadway,Broadway,Waverley Street and Washington Street,Manhattan,102,M5,NOHO NY,40.7293,-73.993513,X,AREA OF MINIMAL FLOOD HAZARD,
POINT (-73.94254656670458 40.79318572540649),1,Manhattan,111,8,68,29,13,2778,1300,Municipal Facilities,backed,11/17/2014,219 East 109th Street,219 East 109th Street,East 109th Street,2nd Avenue & 3rd Avenue,Manhattan,111,Not Applicable,Not Applicable,40.793194,-73.942548,X,0.2 PCT ANNUAL CHANCE FLOOD HAZARD,3
POINT (-73.95813856369867 40.76907973123334),1,Manhattan,108,5,76,28,12,3837,176,General,backed 2,07/05/2017,1396 2nd Avenue,1396 2nd Avenue,2nd Avenue,E 73rd Street & E 72th Street,Manhattan,108,Not Applicable,Not Applicable,40.769088,-73.95814,X,AREA OF MINIMAL FLOOD HAZARD,
POINT (-73.9757855563974 40.78663772786397),1,Manhattan,107,6,67,31,10,1307,472,General,backed,03/07/2013,506 Amsterdam Avenue,506 Amsterdam Avenue,Amsterdam Avenue,West 84th and 85th Streets,Manhattan,107,Not Applicable,Not Applicable,40.786646,-73.975787,X,AREA OF MINIMAL FLOOD HAZARD,
POINT (-73.9468435638011 40.826286719074325),1,Manhattan,109,7,71,31,13,2117,575,Community Health Centers,backed,08/16/2013,1750 Amsterdam Avenue,1750 Amsterdam Avenue,Amsterdam Avenue,West 146th and 147th Streets,Manhattan,109,Not Applicable,Not Applicable,40.826295,-73.946845,X,AREA OF MINIMAL FLOOD HAZARD,
POINT (-73.94499156435971 40.823554720006065),1,Manhattan,109,7,70,30,13,1639,442,Senior Center,backed,03/14/2013,695 Saint Nicholas Avenue,695 Saint Nicholas Avenue,Saint Nicholas Avenue,West 144th Street & West 145th Street,Manhattan,109,Not Applicable,Not Applicable,40.823563,-73.944993,X,AREA OF MINIMAL FLOOD HAZARD,
POINT (-73.98119155626813 40.77412773034942),1,Manhattan,107,6,67,27,10,3659,139,Senior Safety,backed 2,06/21/2017,158 Columbus Avenue,158 Columbus Avenue,Columbus Avenue,W. 67th Street & W. 66th Street,Manhattan,107,Not Applicable,Lincoln Square,40.774136,-73.981193,X,AREA OF MINIMAL FLOOD HAZARD,
POINT (-73.97697955667776 40.7798967297074),1,Manhattan,107,6,67,29,10,1824,461,BID,backed,03/18/2013,338 Columbus Avenue,338 Columbus Avenue,Columbus Avenue,W75th & W76th Street,Manhattan,107,Not Applicable,Columbus Avenue,40.779905,-73.976981,X,AREA OF MINIMAL FLOOD HAZARD,
POINT (-73.98664655720141 40.72153174110647),1,Manhattan,103,1,65,26,12,3333,2373,Municipal Facilities,backed,06/02/2016,166 Essex Street,166 Essex Street,Essex Street,E Houston Street & Stanton Street,Manhattan,103,Not Applicable,Not Applicable,40.72154,-73.986648,X,AREA OF MINIMAL FLOOD HAZARD,6
POINT (-73.9775835597814 40.7339197387275),1,Manhattan,106,4,74,27,12,4209,1896,Bus Route,backed,12/10/2018,503 E 20th Street,503 E 20th Street,E 20th Street,1st Avenue & Avenue C,Manhattan,106,M23,Not Applicable,40.733928,-73.977585,X,AREA OF MINIMAL FLOOD HAZARD,1
POINT (-73.99925155269509 40.71886674229698),1,Manhattan,102,1,65,26,7,3800,2054,Senior Safety,backed,08/04/2017,200 Centre Street,200 Centre Street,Centre Street,Hester Street & Grand Street,Manhattan,102,Not Applicable,Chinatown,40.718875,-73.999253,X,AREA OF MINIMAL FLOOD HAZARD,5
POINT (-73.9338535665979 40.84764771425038),1,Manhattan,112,10,72,31,13,2554,1398,Municipal Facilities,backed,06/26/2014,535 West 179th Street,535 West 179th Street,West 179th Street,Audobon Avenue & Saint Nicholas Avenue,Manhattan,112,Not Applicable,Not Applicable,40.847656,-73.933855,X,AREA OF MINIMAL FLOOD HAZARD,
POINT (-73.96827355903639 40.79693372548894),1,Manhattan,107,7,69,30,10,1279,189,General,backed,10/15/2012,830-832 Amsterdam Avenue,830 Amsterdam Avenue,Amsterdam Avenue,West 100th and 101st Street,Manhattan,107,Not Applicable,Not Applicable,40.796942,-73.968275,X,AREA OF MINIMAL FLOOD HAZARD,
POINT (-73.95338744628029 40.80711707743205),1,Manhattan,110,9,70,30,13,2248,1141,Community Health Centers,backless,11/08/2013,2230 Frederick Douglass Boulevard,2230 Frederick Douglass Boulevard,Federick Douglass Boulevard,W 120th Street and St. Nicholas Avenue,Manhattan,110,M10,Not Applicable,40.8071170774,-73.9533874463,X,AREA OF MINIMAL FLOOD HAZARD,
POINT (-73.90788457280156 40.87605370785769),1,Manhattan,208,10,72,31,13,3408,246,Senior Center,backed,07/03/2017,5365 Broadway,5365 Broadway,Broadway,W. 228th Street & W. 230th Street,Bronx,208,Not Applicable,Not Applicable,40.876062,-73.907886,X,AREA OF MINIMAL FLOOD HAZARD,4
POINT (-73.9351005684208 40.80338072344296),1,Manhattan,111,8,68,30,13,2556,137,Municipal Facilities,backed,08/03/2017,224 East 125th Street,224 East 125th Street,East 125th Street,2nd Avenue & 3rd Avenue,Manhattan,111,Not Applicable,Not Applicable,40.803389,-73.935102,X,AREA OF MINIMAL FLOOD HAZARD,4
POINT (-73.98308555737403 40.73892673756484),1,Manhattan,106,2,75,28,12,1135,254,Senior Center,backed,10/25/2012,302 3rd Avenue,302 3rd Avenue,E. 23rd Street,E23rd & E24th Street,Manhattan,106,Not Applicable,Not Applicable,40.738935,-73.983087,X,AREA OF MINIMAL FLOOD HAZARD,6
POINT (-73.97444755646083 40.79097172755503),1,Manhattan,107,6,67,31,10,2103,863,General,backed,10/10/2013,2442 Broadway,2442 Broadway,Broadway,W 90th & W 91st Streets,Manhattan,107,Not Applicable,Not Applicable,40.79098,-73.974449,X,AREA OF MINIMAL FLOOD HAZARD,
POINT (-73.96970055848213 40.79494172661352),1,Manhattan,107,7,69,30,10,2077,1078,Plaza,backed,10/11/2013,765 Amsterdam Avenue,765 Amsterdam Avenue,97th Street,97th Street and Columbus Avenue,Manhattan,107,Not Applicable,Not Applicable,40.79495,-73.969702,X,AREA OF MINIMAL FLOOD HAZARD,
POINT (-73.92558156786599 40.866130710963816),1,Manhattan,112,10,72,31,13,2371,1516,General,backed,04/18/2014,4799 Broadway,4799 Broadway,Broadway,Academy & Cumming Street,Manhattan,112,M100,Not Applicable,40.866139,-73.925583,X,AREA OF MINIMAL FLOOD HAZARD,6
POINT (-73.93109357067624 40.79757372402797),1,Manhattan,111,8,68,30,13,2252,1145,Community Health Centers,backless,11/12/2013,505 E 120th Street,505 E 120th Street,E 120th Street,FDR Drive and Pleasant Avenue,Manhattan,111,M116,Not Applicable,40.797582,-73.931095,AE,,3
POINT (-73.98216455896167 40.713383742393596),1,Manhattan,103,2,65,26,7,1025,141,Senior Center,backless,09/28/2012,356 Madison Street,356 Madison Street,Madison Street,Jackson and Gouverneur Streets,Manhattan,103,M22,Not Applicable,40.713392,-73.982166,X,AREA OF MINIMAL FLOOD HAZARD,4
POINT (-73.9796905585993 40.73483373816867),1,Manhattan,106,4,74,27,12,4208,27,Bus Route,backed,07/20/2016,401 East 20th Street,401 East 20th Street,East 20th Street,1st Avenue & Avenue C,Manhattan,106,M23,Not Applicable,40.734842,-73.979692,X,AREA OF MINIMAL FLOOD HAZARD,3
POINT (-73.96873855820874 40.791164726817854),1,Manhattan,107,6,69,30,10,3255,2324,General,backed,04/28/2016,689 Columbus Avenue,689 Columbus Avenue,Columbus Avenue,93rd Street & 94th Street,Manhattan,107,Not Applicable,Not Applicable,40.791173,-73.96874,X,AREA OF MINIMAL FLOOD HAZARD,
POINT (-74.00729355027502 40.72753174041602),1,Manhattan,102,3,66,27,10,984,124,BID,backed,07/03/2012,345 Hudson Street,345 Hudson Street,Hudson Street,Charlton and King Streets,Manhattan,102,Not Applicable,Hudson Square Connection,40.72754,-74.007295,X,AREA OF MINIMAL FLOOD HAZARD,2
