OBJECTID,Borough,Type,Provider,Name,Location,Latitude,Longitude,X,Y,Location_T,Remarks,City,SSID,SourceID,Activated,BoroCode,Borough Name,Neighborhood Tabulation Area Code (NTACODE),Neighborhood Tabulation Area (NTA),Council Distrcit,Postcode,BoroCD,Census Tract,BCTCB2010,BIN,BBL,DOITT_ID,"Location (Lat, Long)"
11112,2,Free,LinkNYC - Citybridge,bx-07-145853,2620 BRIGGS AVENUE,40.8648700001,-73.8927999994,1013900.9876,254391.24422,Outdoor Kiosk,"Tablet Internet -phone , Free 1 GB Wi-FI Service",Bronx,LinkNYC Free Wi-Fi,LINK-018398,10/26/2017,2,Bronx,BX05,Bedford Park-Fordham North,15,10458,207,399,399,2000000,2032930050,4555,"(40.8648700001, -73.8927999994)"
12882,2,Free,LinkNYC - Citybridge,bx-07-145690,30 EAST KINGSBRIDGE ROAD,40.8670379998,-73.8965369996,1012866.41946,255179.887656,Outdoor Kiosk,"Tablet Internet -phone , Free 1 GB Wi-FI Service",Bronx,LinkNYC Free Wi-Fi,LINK-005579,11/08/2016,2,Bronx,BX05,Bedford Park-Fordham North,14,10468,207,401,401,2014144,2031910040,3736,"(40.8670379998, -73.8965369996)"
9770,2,Free,LinkNYC - Citybridge,bx-01-142736,613 WESTCHESTER AVENUE,40.8161882102,-73.9099166103,1009184.8599,236649.324979,Outdoor Kiosk,"Tablet Internet -phone , Free 1 GB Wi-FI Service",Bronx,LinkNYC Free Wi-Fi,LINK-014393,06/26/2018,2,Bronx,BX34,Melrose South-Mott Haven North,17,10455,201,75,75,2115751,2026240090,4887,"(40.8161882102, -73.9099166103)"
12091,2,Free,LinkNYC - Citybridge,bx-07-119564,48 WEST FORDHAM ROAD,40.8626436497,-73.9032440399,1011013.1151,253576.735678,Outdoor Kiosk,"Tablet Internet -phone , Free 1 GB Wi-FI Service",Bronx,LinkNYC Free Wi-Fi,LINK-000070,09/15/2016,2,Bronx,BX30,Kingsbridge Heights,14,10468,207,253,253,2014307,2031990020,3046,"(40.8626436497, -73.9032440399)"
12096,2,Free,LinkNYC - Citybridge,bx-05-119570,100 E Fordham Rd,40.8620857697,-73.8995205706,1012043.27544,253374.637985,Outdoor Kiosk,"Tablet Internet -phone , Free 1 GB Wi-FI Service",Bronx,LinkNYC Free Wi-Fi,LINK-000087,07/20/2017,2,Bronx,BX40,Fordham South,14,10468,205,237,237,2013908,2031730030,3051,"(40.8620857697, -73.8995205706)"
11874,2,Free,LinkNYC - Citybridge,bx-05-119598,51 EAST TREMONT AVENUE,40.8513290003,-73.9082660006,1009628.3367,249452.881721,Outdoor Kiosk,"Tablet Internet -phone , Free 1 GB Wi-FI Service",Bronx,LinkNYC Free Wi-Fi,LINK-011271,01/12/2018,2,Bronx,BX41,Mount Hope,14,10453,205,241,241,2007940,2028290030,4038,"(40.8513290003, -73.9082660006)"
11043,2,Free,LinkNYC - Citybridge,bx-01-123208,2883 3 AVENUE,40.8166922997,-73.9167190694,1007301.78197,236831.119563,Outdoor Kiosk,"Tablet Internet -phone , Free 1 GB Wi-FI Service",Bronx,LinkNYC Free Wi-Fi,LINK-012921,10/26/2017,2,Bronx,BX34,Melrose South-Mott Haven North,17,10455,201,65,65,2001336,2023740000,4240,"(40.8166922997, -73.9167190694)"
12505,2,Free,LinkNYC - Citybridge,bx-05-119606,2374 JEROME AVENUE,40.8606299996,-73.9023689997,1011255.97255,252843.353943,Outdoor Kiosk,"Tablet Internet -phone , Free 1 GB Wi-FI Service",Bronx,LinkNYC Free Wi-Fi,LINK-001780,07/01/2016,2,Bronx,BX40,Fordham South,14,10468,205,239,239,2014093,2031880000,3590,"(40.8606299996, -73.9023689997)"
9627,2,Free,LinkNYC - Citybridge,bx-04-146078,247 EAST 169 STREET,40.8357344401,-73.9139604204,1008058.54883,243769.601421,Outdoor Kiosk,"Tablet Internet -phone , Free 1 GB Wi-FI Service",Bronx,LinkNYC Free Wi-Fi,LINK-020557,08/02/2018,2,Bronx,BX14,East Concourse-Concourse Village,16,10456,204,17902,17902,2000000,2028300070,4826,"(40.8357344401, -73.9139604204)"
12325,2,Free,LinkNYC - Citybridge,bx-05-102420,126 EAST 183 STREET,40.8577559996,-73.9010909997,1011610.66574,251796.642126,Outdoor Kiosk,"Tablet Internet -phone , Free 1 GB Wi-FI Service",Bronx,LinkNYC Free Wi-Fi,LINK-001365,06/29/2016,2,Bronx,BX40,Fordham South,14,10453,205,237,237,2013867,2031710020,3508,"(40.8577559996, -73.9010909997)"
11161,2,Free,LinkNYC - Citybridge,bx-01-146023,374 WILLIS AVENUE,40.8121265904,-73.9205525,1006242.21486,235166.68326,Outdoor Kiosk,"Tablet Internet -phone , Free 1 GB Wi-FI Service",Bronx,LinkNYC Free Wi-Fi,LINK-020565,04/19/2018,2,Bronx,BX39,Mott Haven-Port Morris,8,10454,201,41,41,2103815,2022870010,4604,"(40.8121265904, -73.9205525)"
10904,2,Free,LinkNYC - Citybridge,bx-05-111414,8 WEST BURNSIDE AVENUE,40.8537639997,-73.9078989995,1009728.93525,250340.150944,Outdoor Kiosk,"Tablet Internet -phone , Free 1 GB Wi-FI Service",Bronx,LinkNYC Free Wi-Fi,LINK-010317,01/17/2017,2,Bronx,BX36,University Heights-Morris Heights,14,10453,205,243,243,2008401,2028630030,3862,"(40.8537639997, -73.9078989995)"
11814,2,Free,LinkNYC - Citybridge,bx-04-119141,1391 JEROME AVENUE,40.8402480002,-73.9181940004,1006885.51312,245412.936389,Outdoor Kiosk,"Tablet Internet -phone , Free 1 GB Wi-FI Service",Bronx,LinkNYC Free Wi-Fi,LINK-014595,07/13/2017,2,Bronx,BX26,Highbridge,16,10452,204,219,219,2008289,2028560020,4434,"(40.8402480002, -73.9181940004)"
9659,2,Free,LinkNYC - Citybridge,bx-06-146096,4201 3 AVENUE,40.8464767598,-73.8963931604,1012915.06372,247688.69004,Outdoor Kiosk,"Tablet Internet -phone , Free 1 GB Wi-FI Service",Bronx,LinkNYC Free Wi-Fi,LINK-020581,07/26/2018,2,Bronx,BX01,Claremont-Bathgate,15,10457,206,395,395,2009606,2029240020,4858,"(40.8464767598, -73.8963931604)"
11154,2,Free,LinkNYC - Citybridge,bx-01-146075,250 BROOK AVENUE,40.8077559301,-73.9190061102,1006671.75009,233574.689068,Outdoor Kiosk,"Tablet Internet -phone , Free 1 GB Wi-FI Service",Bronx,LinkNYC Free Wi-Fi,LINK-020496,05/21/2018,2,Bronx,BX39,Mott Haven-Port Morris,8,10454,201,39,39,2000054,2022660000,4597,"(40.8077559301, -73.9190061102)"
12883,2,Free,LinkNYC - Citybridge,bx-07-145689,60 EAST KINGSBRIDGE ROAD,40.8665882698,-73.8956537199,1013110.91733,255016.32335,Outdoor Kiosk,"Tablet Internet -phone , Free 1 GB Wi-FI Service",Bronx,LinkNYC Free Wi-Fi,LINK-005582,11/11/2016,2,Bronx,BX05,Bedford Park-Fordham North,14,10468,207,401,401,2094669,2031770030,3737,"(40.8665882698, -73.8956537199)"
11095,2,Free,LinkNYC - Citybridge,bx-01-145917,200 EAST 138 STREET,40.8124409104,-73.9292502903,1003834.44901,235279.137103,Outdoor Kiosk,"Tablet Internet -phone , Free 1 GB Wi-FI Service",Bronx,LinkNYC Free Wi-Fi,LINK-018225,10/19/2017,2,Bronx,BX39,Mott Haven-Port Morris,8,10451,201,51,51,2094027,2023220030,4538,"(40.8124409104, -73.9292502903)"
12506,2,Free,LinkNYC - Citybridge,bx-04-119048,105 EAST 165 STREET,40.8314669998,-73.9217469998,1005905.2654,242212.795152,Outdoor Kiosk,"Tablet Internet -phone , Free 1 GB Wi-FI Service",Bronx,LinkNYC Free Wi-Fi,LINK-001785,06/15/2016,2,Bronx,BX63,West Concourse,16,10452,204,195,195,2002953,2024780060,3591,"(40.8314669998, -73.9217469998)"
11157,2,Free,LinkNYC - Citybridge,bx-01-146053,211 ST ANN'S AVENUE,40.8062866423,-73.9179551832,1006963.18225,233039.646503,Outdoor Kiosk,"Tablet Internet -phone , Free 1 GB Wi-FI Service",Bronx,LinkNYC Free Wi-Fi,LINK-020509,07/02/2018,2,Bronx,BX39,Mott Haven-Port Morris,8,10454,201,25,25,2000051,2022650050,4600,"(40.8062866423, -73.9179551832)"
11260,2,Free,LinkNYC - Citybridge,bx-01-109413,2939 3 AVENUE,40.8179261897,-73.9152620201,1007704.65157,237281.056656,Outdoor Kiosk,"Tablet Internet -phone , Free 1 GB Wi-FI Service",Bronx,LinkNYC Free Wi-Fi,LINK-010460,12/22/2016,2,Bronx,BX34,Melrose South-Mott Haven North,17,10455,201,67,67,2001360,2023740090,3890,"(40.8179261897, -73.9152620201)"
11078,2,Free,LinkNYC - Citybridge,bx-01-123228,349 EAST 149 STREET,40.8166920002,-73.9196370003,1006494.11232,236830.256048,Outdoor Kiosk,"Tablet Internet -phone , Free 1 GB Wi-FI Service",Bronx,LinkNYC Free Wi-Fi,LINK-013242,03/30/2017,2,Bronx,BX34,Melrose South-Mott Haven North,17,10451,201,65,65,2000933,2023317500,4275,"(40.8166920002, -73.9196370003)"
12025,2,Free,LinkNYC - Citybridge,bx-01-138788,426 WILLIS AVENUE,40.8133669998,-73.91962478,1006498.60641,235618.842788,Outdoor Kiosk,"Tablet Internet -phone , Free 1 GB Wi-FI Service",Bronx,LinkNYC Free Wi-Fi,LINK-012130,04/13/2018,2,Bronx,BX39,Mott Haven-Port Morris,8,10454,201,43,43,2098220,2022890000,4112,"(40.8133669998, -73.91962478)"
11132,2,Free,LinkNYC - Citybridge,bx-04-145925,1579 Jerome Avenue,40.84425807,-73.9149608299,1007778.70457,246874.806497,Outdoor Kiosk,"Tablet Internet -phone , Free 1 GB Wi-FI Service",Bronx,LinkNYC Free Wi-Fi,LINK-019379,01/12/2018,2,Bronx,BX63,West Concourse,14,10452,204,209,209,2008329,2028590040,4575,"(40.84425807, -73.9149608299)"
9783,2,Free,LinkNYC - Citybridge,bx-01-119027,718 EAST 149 STREET,40.8131283198,-73.9089914094,1009442.11135,235534.762576,Outdoor Kiosk,"Tablet Internet -phone , Free 1 GB Wi-FI Service",Bronx,LinkNYC Free Wi-Fi,LINK-011500,06/25/2018,2,Bronx,BX39,Mott Haven-Port Morris,8,10455,201,35,35,2003924,2025790020,4900,"(40.8131283198, -73.9089914094)"
12582,2,Free,LinkNYC - Citybridge,bx-01-119075,134 EAST 149 STREET,40.8186759997,-73.9281649995,1004133.00878,237551.047585,Outdoor Kiosk,"Tablet Internet -phone , Free 1 GB Wi-FI Service",Bronx,LinkNYC Free Wi-Fi,LINK-001791,07/19/2017,2,Bronx,BX63,West Concourse,17,10451,201,63,63,2001038,2023460030,3595,"(40.8186759997, -73.9281649995)"
12878,2,Free,LinkNYC - Citybridge,bx-04-119159,72 EAST 161 STREET,40.8273559302,-73.9252225202,1004944.74961,240714.141981,Outdoor Kiosk,"Tablet Internet -phone , Free 1 GB Wi-FI Service",Bronx,LinkNYC Free Wi-Fi,LINK-005427,07/19/2016,2,Bronx,BX63,West Concourse,8,10451,204,63,63,2002983,2024830050,3732,"(40.8273559302, -73.9252225202)"
12095,2,Free,LinkNYC - Citybridge,bx-07-119787,95 WEST FORDHAM ROAD,40.8628554803,-73.9045470099,1010652.62402,253653.518333,Outdoor Kiosk,"Tablet Internet -phone , Free 1 GB Wi-FI Service",Bronx,LinkNYC Free Wi-Fi,LINK-000077,03/30/2017,2,Bronx,BX30,Kingsbridge Heights,14,10468,207,263,263,2014623,2032130000,3050,"(40.8628554803, -73.9045470099)"
11050,2,Free,LinkNYC - Citybridge,bx-06-119378,400 EAST TREMONT AVENUE,40.8475737003,-73.9007664401,1011704.64948,248086.945805,Outdoor Kiosk,"Tablet Internet -phone , Free 1 GB Wi-FI Service",Bronx,LinkNYC Free Wi-Fi,LINK-013014,06/13/2017,2,Bronx,BX41,Mount Hope,15,10457,206,231,231,2009453,2029000060,4247,"(40.8475737003, -73.9007664401)"
9776,2,Free,LinkNYC - Citybridge,bx-01-123210,660 WESTCHESTER AVENUE,40.8159977098,-73.90824221,1009648.40228,236580.39992,Outdoor Kiosk,"Tablet Internet -phone , Free 1 GB Wi-FI Service",Bronx,LinkNYC Free Wi-Fi,LINK-013042,06/26/2018,2,Bronx,BX34,Melrose South-Mott Haven North,8,10455,201,73,73,2004431,2026230200,4893,"(40.8159977098, -73.90824221)"
12318,2,Free,LinkNYC - Citybridge,bx-07-119749,2 EAST KINGSBRIDGE ROAD,40.86732884,-73.8971929304,1012684.87389,255285.638428,Outdoor Kiosk,"Tablet Internet -phone , Free 1 GB Wi-FI Service",Bronx,LinkNYC Free Wi-Fi,LINK-001353,02/08/2017,2,Bronx,BX05,Bedford Park-Fordham North,14,10468,207,401,401,2014134,2031910030,3501,"(40.86732884, -73.8971929304)"
9640,2,Free,LinkNYC - Citybridge,bx-01-146083,296 WILLIS AVENUE,40.8102551998,-73.9219232296,1005863.38491,234484.528128,Outdoor Kiosk,"Tablet Internet -phone , Free 1 GB Wi-FI Service",Bronx,LinkNYC Free Wi-Fi,LINK-020563,06/11/2018,2,Bronx,BX39,Mott Haven-Port Morris,8,10454,201,39,39,2127513,2022840010,4839,"(40.8102551998, -73.9219232296)"
11093,2,Free,LinkNYC - Citybridge,bx-01-145842,261 WALTON AVENUE,40.8143100004,-73.9302170006,1003566.30847,235959.898537,Outdoor Kiosk,"Tablet Internet -phone , Free 1 GB Wi-FI Service",Bronx,LinkNYC Free Wi-Fi,LINK-018223,06/28/2017,2,Bronx,BX63,West Concourse,8,10451,201,63,63,2001024,2023440060,4536,"(40.8143100004, -73.9302170006)"
11110,2,Free,LinkNYC - Citybridge,bx-05-145839,69 EAST 176 STREET,40.8483300003,-73.9099000005,1009177.4124,248359.763501,Outdoor Kiosk,"Tablet Internet -phone , Free 1 GB Wi-FI Service",Bronx,LinkNYC Free Wi-Fi,LINK-018394,06/13/2017,2,Bronx,BX41,Mount Hope,14,10453,205,233,233,2008227,2028510040,4553,"(40.8483300003, -73.9099000005)"
11892,2,Free,LinkNYC - Citybridge,bx-01-123216,3015 3 AVENUE,40.8194884499,-73.9136680302,1008145.29144,237850.674939,Outdoor Kiosk,"Tablet Internet -phone , Free 1 GB Wi-FI Service",Bronx,LinkNYC Free Wi-Fi,LINK-011425,12/22/2016,2,Bronx,BX34,Melrose South-Mott Haven North,17,10455,201,67,67,2097993,2023760050,4056,"(40.8194884499, -73.9136680302)"
12090,2,Free,LinkNYC - Citybridge,bx-05-116218,2461 WEBSTER AVENUE,40.8602146696,-73.8930594396,1013831.29844,252695.040263,Outdoor Kiosk,"Tablet Internet -phone , Free 1 GB Wi-FI Service",Bronx,LinkNYC Free Wi-Fi,LINK-000067,05/25/2016,2,Bronx,BX05,Bedford Park-Fordham North,15,10458,205,399,399,2011078,2030260060,3045,"(40.8602146696, -73.8930594396)"
11164,2,Free,LinkNYC - Citybridge,bx-01-146044,3125 3 AVENUE,40.8220221947,-73.9119525439,1008619.18222,238774.282016,Outdoor Kiosk,"Tablet Internet -phone , Free 1 GB Wi-FI Service",Bronx,LinkNYC Free Wi-Fi,LINK-020576,04/19/2018,2,Bronx,BX34,Melrose South-Mott Haven North,17,10451,201,69,69,2000000,2023800050,4607,"(40.8220221947, -73.9119525439)"
10614,2,Free,LinkNYC - Citybridge,bx-05-146094,2 CLIFFORD PLACE,40.8464340002,-73.9129580004,1008332.06108,247668.123808,Outdoor Kiosk,"Tablet Internet -phone , Free 1 GB Wi-FI Service",Bronx,LinkNYC Free Wi-Fi,LINK-019312,07/13/2018,2,Bronx,BX41,Mount Hope,14,10453,205,22701,22701,2008155,2028480020,4806,"(40.8464340002, -73.9129580004)"
9833,2,Free,LinkNYC - Citybridge,bx-03-146043,871 BROOK AVENUE,40.8225187913,-73.9106901254,1008968.40134,238955.563805,Outdoor Kiosk,"Tablet Internet -phone , Free 1 GB Wi-FI Service",Bronx,LinkNYC Free Wi-Fi,LINK-020598,04/24/2018,2,Bronx,BX35,Morrisania-Melrose,17,10451,203,141,141,2001203,2023650030,4610,"(40.8225187913, -73.9106901254)"
11113,2,Free,LinkNYC - Citybridge,bx-07-145840,2495 JEROME AVENUE,40.86366546,-73.9005118697,1011768.42199,253949.86715,Outdoor Kiosk,"Tablet Internet -phone , Free 1 GB Wi-FI Service",Bronx,LinkNYC Free Wi-Fi,LINK-018400,06/13/2017,2,Bronx,BX30,Kingsbridge Heights,14,10468,207,265,265,2014360,2032000020,4556,"(40.86366546, -73.9005118697)"
11746,2,Free,LinkNYC - Citybridge,bx-01-117230,256 ST ANNS AVENUE,40.8073775198,-73.91700042,1007227.12103,233437.34059,Outdoor Kiosk,"Tablet Internet -phone , Free 1 GB Wi-FI Service",Bronx,LinkNYC Free Wi-Fi,LINK-011029,07/02/2018,2,Bronx,BX39,Mott Haven-Port Morris,8,10454,201,27,27,2003623,2025510000,3982,"(40.8073775198, -73.91700042)"
12028,2,Free,LinkNYC - Citybridge,bx-01-131467,436 BROOK AVENUE,40.8121627203,-73.9164668698,1007373.16339,235180.898782,Outdoor Kiosk,"Tablet Internet -phone , Free 1 GB Wi-FI Service",Bronx,LinkNYC Free Wi-Fi,LINK-012172,05/31/2018,2,Bronx,BX39,Mott Haven-Port Morris,8,10454,201,43,43,2090996,2022710010,4115,"(40.8121627203, -73.9164668698)"
11162,2,Free,LinkNYC - Citybridge,bx-01-146074,680 MELROSE AVENUE,40.8193941504,-73.91616313,1007454.7213,237815.64745,Outdoor Kiosk,"Tablet Internet -phone , Free 1 GB Wi-FI Service",Bronx,LinkNYC Free Wi-Fi,LINK-020569,05/02/2018,2,Bronx,BX34,Melrose South-Mott Haven North,17,10455,201,67,67,2001366,2023750010,4605,"(40.8193941504, -73.91616313)"
9636,2,Free,LinkNYC - Citybridge,bx-04-119077,271 EAST 161 STREET,40.8256047402,-73.9182580897,1006872.75822,240077.841744,Outdoor Kiosk,"Tablet Internet -phone , Free 1 GB Wi-FI Service",Bronx,LinkNYC Free Wi-Fi,LINK-013218,06/11/2018,2,Bronx,BX14,East Concourse-Concourse Village,17,10451,204,173,173,2001921,2024210000,4835,"(40.8256047402, -73.9182580897)"
12002,2,Free,LinkNYC - Citybridge,bx-01-118947,487 EAST 156 STREET,40.8201024948,-73.9128382274,1008374.74472,238074.621013,Outdoor Kiosk,"Tablet Internet -phone , Free 1 GB Wi-FI Service",Bronx,LinkNYC Free Wi-Fi,LINK-011789,01/12/2018,2,Bronx,BX34,Melrose South-Mott Haven North,17,10451,201,71,71,2114919,2023647500,4089,"(40.8201024948, -73.9128382274)"
11081,2,Free,LinkNYC - Citybridge,bx-05-119569,2454 CRESTON AVENUE,40.8621522603,-73.89839588,1012354.34404,253399.221926,Outdoor Kiosk,"Tablet Internet -phone , Free 1 GB Wi-FI Service",Bronx,LinkNYC Free Wi-Fi,LINK-013324,10/26/2017,2,Bronx,BX40,Fordham South,14,10468,205,237,237,2013807,2031660070,4278,"(40.8621522603, -73.89839588)"
11820,2,Free,LinkNYC - Citybridge,bx-04-119152,117 E 167th ST,40.8349041574,-73.9182258958,1006878.50526,243465.96817,Outdoor Kiosk,"Tablet Internet -phone , Free 1 GB Wi-FI Service",Bronx,LinkNYC Free Wi-Fi,LINK-014613,07/02/2018,2,Bronx,BX63,West Concourse,16,10452,204,197,197,2002855,2024650050,4440,"(40.8349041574, -73.9182258958)"
11985,2,Free,LinkNYC - Citybridge,bx-01-145819,135 EAST 146 STREET,40.8175121901,-73.9288864302,1003933.67027,237126.867003,Outdoor Kiosk,"Tablet Internet -phone , Free 1 GB Wi-FI Service",Bronx,LinkNYC Free Wi-Fi,LINK-018220,06/28/2017,2,Bronx,BX63,West Concourse,17,10451,201,63,63,2001088,2023500020,4533,"(40.8175121901, -73.9288864302)"
11492,2,Free,LinkNYC - Citybridge,bx-01-123214,2969 3 AVENUE,40.8184607404,-73.9146837503,1007864.52133,237475.968011,Outdoor Kiosk,"Tablet Internet -phone , Free 1 GB Wi-FI Service",Bronx,LinkNYC Free Wi-Fi,LINK-014021,12/28/2016,2,Bronx,BX34,Melrose South-Mott Haven North,17,10455,201,67,67,2001382,2023750050,4387,"(40.8184607404, -73.9146837503)"
11992,2,Free,LinkNYC - Citybridge,bx-07-144372,148 West Fordham Road,40.8626850001,-73.9075480003,1009822.60567,253590.515506,Outdoor Kiosk,"Tablet Internet -phone , Free 1 GB Wi-FI Service",Bronx,LinkNYC Free Wi-Fi,LINK-011667,05/11/2017,2,Bronx,BX30,Kingsbridge Heights,14,10468,207,255,255,2014947,2032250110,4079,"(40.8626850001, -73.9075480003)"
11108,2,Free,LinkNYC - Citybridge,bx-04-145838,1605 WALTON AVENUE,40.8438812102,-73.91292955,1008340.85699,246738.054474,Outdoor Kiosk,"Tablet Internet -phone , Free 1 GB Wi-FI Service",Bronx,LinkNYC Free Wi-Fi,LINK-018390,07/05/2017,2,Bronx,BX41,Mount Hope,14,10452,204,227,227,2008153,2028470070,4551,"(40.8438812102, -73.91292955)"
12092,2,Free,LinkNYC - Citybridge,bx-05-119575,2437 GRAND CONCOURSE,40.861349,-73.8980229996,1012457.82579,253106.683141,Outdoor Kiosk,"Tablet Internet -phone , Free 1 GB Wi-FI Service",Bronx,LinkNYC Free Wi-Fi,LINK-000072,07/19/2016,2,Bronx,BX40,Fordham South,14,10468,205,237,237,2013798,2031650030,3047,"(40.861349, -73.8980229996)"
12021,2,Free,LinkNYC - Citybridge,bx-01-118956,2882 3 AVENUE,40.8166790698,-73.9164828502,1007367.17095,236826.361699,Outdoor Kiosk,"Tablet Internet -phone , Free 1 GB Wi-FI Service",Bronx,LinkNYC Free Wi-Fi,LINK-012080,12/22/2016,2,Bronx,BX34,Melrose South-Mott Haven North,17,10455,201,71,71,2001159,2023620000,4108,"(40.8166790698, -73.9164828502)"
11900,2,Free,LinkNYC - Citybridge,bx-05-119597,1966 JEROME AVENUE,40.8518783096,-73.9089756596,1009431.80067,249652.811111,Outdoor Kiosk,"Tablet Internet -phone , Free 1 GB Wi-FI Service",Bronx,LinkNYC Free Wi-Fi,LINK-011501,08/01/2017,2,Bronx,BX41,Mount Hope,14,10453,205,241,241,2008258,2028540000,4064,"(40.8518783096, -73.9089756596)"
12097,2,Free,LinkNYC - Citybridge,bx-07-119793,385 EAST FORDHAM ROAD,40.8619933198,-73.8918299601,1014170.58975,253343.488441,Outdoor Kiosk,"Tablet Internet -phone , Free 1 GB Wi-FI Service",Bronx,LinkNYC Free Wi-Fi,LINK-000090,06/21/2017,2,Bronx,BX05,Bedford Park-Fordham North,15,10458,207,399,399,2016327,2032750070,3052,"(40.8619933198, -73.8918299601)"
9615,2,Free,LinkNYC - Citybridge,bx-01-146086,216 WILLIS AVENUE,40.8082927298,-73.9233322803,1005473.95426,233769.186383,Outdoor Kiosk,"Tablet Internet -phone , Free 1 GB Wi-FI Service",Bronx,LinkNYC Free Wi-Fi,LINK-020541,07/02/2018,2,Bronx,BX39,Mott Haven-Port Morris,8,10454,201,25,25,2118034,2022810010,4814,"(40.8082927298, -73.9233322803)"
11798,2,Free,LinkNYC - Citybridge,bx-06-118932,1848 WEBSTER AVENUE,40.8466464111,-73.9013916343,1011532.05927,247748.904158,Outdoor Kiosk,"Tablet Internet -phone , Free 1 GB Wi-FI Service",Bronx,LinkNYC Free Wi-Fi,LINK-014335,08/01/2017,2,Bronx,BX41,Mount Hope,15,10457,206,231,231,2009444,2029000020,4418,"(40.8466464111, -73.9013916343)"
11991,2,Free,LinkNYC - Citybridge,bx-05-119648,2463 VALENTINE AVENUE,40.8611743803,-73.8964435503,1012894.79178,253043.574999,Outdoor Kiosk,"Tablet Internet -phone , Free 1 GB Wi-FI Service",Bronx,LinkNYC Free Wi-Fi,LINK-011663,04/18/2017,2,Bronx,BX05,Bedford Park-Fordham North,15,10458,205,237,237,2013605,2031530040,4078,"(40.8611743803, -73.8964435503)"
11077,2,Free,LinkNYC - Citybridge,bx-05-119566,1999 UNIVERSITY AVENUE,40.8547640001,-73.911439,1008749.25709,250703.479286,Outdoor Kiosk,"Tablet Internet -phone , Free 1 GB Wi-FI Service",Bronx,LinkNYC Free Wi-Fi,LINK-013237,01/17/2017,2,Bronx,BX36,University Heights-Morris Heights,14,10453,205,245,245,2014698,2032160060,4274,"(40.8547640001, -73.911439)"
12581,2,Free,LinkNYC - Citybridge,bx-05-119592,101 EAST BURNSIDE AVENUE,40.853157,-73.9054030004,1010419.67009,250119.733734,Outdoor Kiosk,"Tablet Internet -phone , Free 1 GB Wi-FI Service",Bronx,LinkNYC Free Wi-Fi,LINK-001788,07/07/2016,2,Bronx,BX41,Mount Hope,14,10453,205,241,241,2092406,2031690000,3594,"(40.853157, -73.9054030004)"
11905,2,Free,LinkNYC - Citybridge,bx-05-119659,375 EAST 188 STREET,40.8600269997,-73.8933429997,1013752.94492,252626.569272,Outdoor Kiosk,"Tablet Internet -phone , Free 1 GB Wi-FI Service",Bronx,LinkNYC Free Wi-Fi,LINK-011583,03/30/2017,2,Bronx,BX05,Bedford Park-Fordham North,15,10458,205,399,399,2011078,2030260060,4069,"(40.8600269997, -73.8933429997)"
9834,2,Free,LinkNYC - Citybridge,bx-01-146065,844 ST ANNS AVENUE,40.8223379197,-73.9094274804,1009317.93312,238890.024566,Outdoor Kiosk,"Tablet Internet -phone , Free 1 GB Wi-FI Service",Bronx,LinkNYC Free Wi-Fi,LINK-020599,04/19/2018,2,Bronx,BX34,Melrose South-Mott Haven North,17,10456,201,71,71,2004358,2026190010,4611,"(40.8223379197, -73.9094274804)"
11895,2,Free,LinkNYC - Citybridge,bx-01-123217,2991 3 AVENUE,40.8188603597,-73.9142424597,1007986.52272,237621.682943,Outdoor Kiosk,"Tablet Internet -phone , Free 1 GB Wi-FI Service",Bronx,LinkNYC Free Wi-Fi,LINK-011461,03/06/2017,2,Bronx,BX34,Melrose South-Mott Haven North,17,10455,201,67,67,2089847,2023750040,4059,"(40.8188603597, -73.9142424597)"
12879,2,Free,LinkNYC - Citybridge,bx-04-113552,875 GERARD AVENUE,40.8278247098,-73.9248328005,1005052.45838,240885.027794,Outdoor Kiosk,"Tablet Internet -phone , Free 1 GB Wi-FI Service",Bronx,LinkNYC Free Wi-Fi,LINK-005430,07/15/2016,2,Bronx,BX63,West Concourse,8,10452,204,195,195,2002991,2024840040,3733,"(40.8278247098, -73.9248328005)"
9658,2,Free,LinkNYC - Citybridge,bx-01-102011,417 EAST 138 STREET,40.8089096601,-73.92220947,1005784.58258,233994.229896,Outdoor Kiosk,"Tablet Internet -phone , Free 1 GB Wi-FI Service",Bronx,LinkNYC Free Wi-Fi,LINK-010208,07/16/2018,2,Bronx,BX39,Mott Haven-Port Morris,8,10454,201,39,39,2092092,2022830000,4857,"(40.8089096601, -73.92220947)"
12010,2,Free,LinkNYC - Citybridge,bx-01-123215,3012 3 AVENUE,40.8195679996,-73.9133879999,1008222.77061,237879.734264,Outdoor Kiosk,"Tablet Internet -phone , Free 1 GB Wi-FI Service",Bronx,LinkNYC Free Wi-Fi,LINK-011877,12/22/2016,2,Bronx,BX34,Melrose South-Mott Haven North,17,10455,201,71,71,2117395,2023630020,4097,"(40.8195679996, -73.9133879999)"
9794,2,Free,LinkNYC - Citybridge,bx-03-118929,860 MELROSE AVENUE,40.8236462899,-73.9140299405,1008043.63383,239365.427487,Outdoor Kiosk,"Tablet Internet -phone , Free 1 GB Wi-FI Service",Bronx,LinkNYC Free Wi-Fi,LINK-011397,07/11/2018,2,Bronx,BX35,Morrisania-Melrose,17,10451,203,141,141,2001490,2023820000,4911,"(40.8236462899, -73.9140299405)"
11109,2,Free,LinkNYC - Citybridge,bx-04-145851,84 EAST 167 STREET,40.8351329804,-73.9197970301,1006443.66525,243548.934868,Outdoor Kiosk,"Tablet Internet -phone , Free 1 GB Wi-FI Service",Bronx,LinkNYC Free Wi-Fi,LINK-018391,07/20/2017,2,Bronx,BX63,West Concourse,16,10452,204,197,197,2117447,2024790020,4552,"(40.8351329804, -73.9197970301)"
10613,2,Free,LinkNYC - Citybridge,bx-06-119558,1965 HUGHES AVENUE,40.8461897602,-73.8921943296,1014076.88883,247585.527188,Outdoor Kiosk,"Tablet Internet -phone , Free 1 GB Wi-FI Service",Bronx,LinkNYC Free Wi-Fi,LINK-011542,07/13/2018,2,Bronx,BX17,East Tremont,17,10457,206,373,373,2011992,2030680100,4805,"(40.8461897602, -73.8921943296)"
11158,2,Free,LinkNYC - Citybridge,bx-01-146056,520 BROOK AVENUE,40.8143941797,-73.9151806494,1007728.42022,235994.240988,Outdoor Kiosk,"Tablet Internet -phone , Free 1 GB Wi-FI Service",Bronx,LinkNYC Free Wi-Fi,LINK-020513,05/31/2018,2,Bronx,BX39,Mott Haven-Port Morris,8,10455,201,43,43,2000118,2022750000,4601,"(40.8143941797, -73.9151806494)"
11153,2,Free,LinkNYC - Citybridge,bx-01-146024,249 WILLIS AVENUE,40.8096681928,-73.9226228349,1005669.90761,234270.488858,Outdoor Kiosk,"Tablet Internet -phone , Free 1 GB Wi-FI Service",Bronx,LinkNYC Free Wi-Fi,LINK-020495,04/19/2018,2,Bronx,BX39,Mott Haven-Port Morris,8,10454,201,39,39,2000591,2023010020,4596,"(40.8096681928, -73.9226228349)"
12089,2,Free,LinkNYC - Citybridge,bx-07-111540,2408 UNIVERSITY AVENUE,40.8631140504,-73.9045750795,1010644.75724,253747.716964,Outdoor Kiosk,"Tablet Internet -phone , Free 1 GB Wi-FI Service",Bronx,LinkNYC Free Wi-Fi,LINK-000064,03/30/2017,2,Bronx,BX30,Kingsbridge Heights,14,10468,207,263,263,2014623,2032130000,3044,"(40.8631140504, -73.9045750795)"
12024,2,Free,LinkNYC - Citybridge,bx-05-138759,1831 WEBSTER AVENUE,40.846169,-73.9019509996,1011377.49396,247574.791645,Outdoor Kiosk,"Tablet Internet -phone , Free 1 GB Wi-FI Service",Bronx,LinkNYC Free Wi-Fi,LINK-012120,08/01/2017,2,Bronx,BX41,Mount Hope,15,10457,205,231,231,2009388,2028920080,4111,"(40.846169, -73.9019509996)"
10574,2,Free,LinkNYC - Citybridge,bx-05-146095,1750 JEROME AVENUE,40.84779956,-73.9121369301,1008558.72893,248165.875437,Outdoor Kiosk,"Tablet Internet -phone , Free 1 GB Wi-FI Service",Bronx,LinkNYC Free Wi-Fi,LINK-019313,07/13/2018,2,Bronx,BX41,Mount Hope,14,10453,205,22701,22701,2008207,2028500000,4799,"(40.84779956, -73.9121369301)"
12006,2,Free,LinkNYC - Citybridge,bx-06-119390,426 EAST TREMONT AVENUE,40.84740591,-73.8999483497,1011931.05781,248026.070927,Outdoor Kiosk,"Tablet Internet -phone , Free 1 GB Wi-FI Service",Bronx,LinkNYC Free Wi-Fi,LINK-011851,01/12/2018,2,Bronx,BX41,Mount Hope,15,10457,206,231,231,2009458,2029000070,4093,"(40.84740591, -73.8999483497)"
12323,2,Free,LinkNYC - Citybridge,bx-04-119157,96 EAST 170 STREET,40.8394450001,-73.9158480005,1007534.92619,245120.988482,Outdoor Kiosk,"Tablet Internet -phone , Free 1 GB Wi-FI Service",Bronx,LinkNYC Free Wi-Fi,LINK-001363,09/15/2016,2,Bronx,BX63,West Concourse,16,10452,204,221,221,2008083,2028420040,3506,"(40.8394450001, -73.9158480005)"
11163,2,Free,LinkNYC - Citybridge,bx-01-146063,776 MELROSE AVE,40.822111982,-73.9148490775,1007817.46762,238806.202227,Outdoor Kiosk,"Tablet Internet -phone , Free 1 GB Wi-FI Service",Bronx,LinkNYC Free Wi-Fi,LINK-020572,04/25/2018,2,Bronx,BX34,Melrose South-Mott Haven North,17,10451,201,69,69,2114613,2023790010,4606,"(40.822111982, -73.9148490775)"
11817,2,Free,LinkNYC - Citybridge,bx-05-119631,1876 JEROME AVENUE,40.8494860003,-73.9109309999,1008891.74401,248780.646189,Outdoor Kiosk,"Tablet Internet -phone , Free 1 GB Wi-FI Service",Bronx,LinkNYC Free Wi-Fi,LINK-014609,07/13/2017,2,Bronx,BX41,Mount Hope,14,10453,205,233,233,2008231,2028520000,4437,"(40.8494860003, -73.9109309999)"
10612,2,Free,LinkNYC - Citybridge,bx-06-144410,1961 ARTHUR AVENUE,40.8465224499,-73.8933976697,1013743.81009,247706.331081,Outdoor Kiosk,"Tablet Internet -phone , Free 1 GB Wi-FI Service",Bronx,LinkNYC Free Wi-Fi,LINK-011621,08/24/2018,2,Bronx,BX17,East Tremont,17,10457,206,37504,37504,2011973,2030680050,4804,"(40.8465224499, -73.8933976697)"
9832,2,Free,LinkNYC - Citybridge,bx-01-146062,624 MELROSE AVE,40.8180165496,-73.9167909599,1007281.42473,237313.572339,Outdoor Kiosk,"Tablet Internet -phone , Free 1 GB Wi-FI Service",Bronx,LinkNYC Free Wi-Fi,LINK-020596,04/25/2018,2,Bronx,BX34,Melrose South-Mott Haven North,17,10455,201,67,67,2001345,2023740030,4609,"(40.8180165496, -73.9167909599)"
11131,2,Free,LinkNYC - Citybridge,bx-04-146072,2 East 172 Street,40.8422026302,-73.9160324198,1007482.93417,246125.646906,Outdoor Kiosk,"Tablet Internet -phone , Free 1 GB Wi-FI Service",Bronx,LinkNYC Free Wi-Fi,LINK-019378,04/30/2018,2,Bronx,BX63,West Concourse,14,10452,204,223,223,2008109,2028440010,4574,"(40.8422026302, -73.9160324198)"
10907,2,Free,LinkNYC - Citybridge,bx-01-116238,460 WILLIS AVENUE,40.8139975201,-73.9191713702,1006623.90242,235848.679271,Outdoor Kiosk,"Tablet Internet -phone , Free 1 GB Wi-FI Service",Bronx,LinkNYC Free Wi-Fi,LINK-010332,04/13/2018,2,Bronx,BX39,Mott Haven-Port Morris,8,10455,201,43,43,2115556,2022900010,3865,"(40.8139975201, -73.9191713702)"
12093,2,Free,LinkNYC - Citybridge,bx-05-119587,150 EAST 188 STREET,40.86165512,-73.8985809099,1012303.37334,253218.03528,Outdoor Kiosk,"Tablet Internet -phone , Free 1 GB Wi-FI Service",Bronx,LinkNYC Free Wi-Fi,LINK-000074,05/25/2016,2,Bronx,BX40,Fordham South,14,10468,205,237,237,2013796,2031650030,3048,"(40.86165512, -73.8985809099)"
12503,2,Free,LinkNYC - Citybridge,bx-07-119874,56 WEST KINGSBRIDGE ROAD,40.86782871,-73.8995757,1012025.62751,255466.996005,Outdoor Kiosk,"Tablet Internet -phone , Free 1 GB Wi-FI Service",Bronx,LinkNYC Free Wi-Fi,LINK-001774,07/19/2016,2,Bronx,BX30,Kingsbridge Heights,14,10468,207,265,265,2014680,2032150030,3588,"(40.86782871, -73.8995757)"
11072,2,Free,LinkNYC - Citybridge,bx-05-119638,2493 VALENTINE AVENUE,40.8620509803,-73.8960785422,1012995.37786,253363.073704,Outdoor Kiosk,"Tablet Internet -phone , Free 1 GB Wi-FI Service",Bronx,LinkNYC Free Wi-Fi,LINK-013196,06/25/2018,2,Bronx,BX05,Bedford Park-Fordham North,15,10458,205,237,237,2013601,2031530020,4269,"(40.8620509803, -73.8960785422)"
11986,2,Free,LinkNYC - Citybridge,bx-01-145820,140 EAST 144 STREET,40.8167516434,-73.9292428486,1003835.24035,236849.692689,Outdoor Kiosk,"Tablet Internet -phone , Free 1 GB Wi-FI Service",Bronx,LinkNYC Free Wi-Fi,LINK-018221,07/20/2017,2,Bronx,BX63,West Concourse,8,10451,201,63,63,2000000,2023450030,4534,"(40.8167516434, -73.9292428486)"
12008,2,Free,LinkNYC - Citybridge,bx-05-123186,1846 JEROME AVENUE,40.8487299999,-73.9114700003,1008742.9031,248505.055533,Outdoor Kiosk,"Tablet Internet -phone , Free 1 GB Wi-FI Service",Bronx,LinkNYC Free Wi-Fi,LINK-011874,07/13/2017,2,Bronx,BX41,Mount Hope,14,10453,205,233,233,2008218,2028510000,4095,"(40.8487299999, -73.9114700003)"
11114,2,Free,LinkNYC - Citybridge,bx-08-145850,119 WEST KINGSBRIDGE ROAD,40.8686984898,-73.9021008994,1011326.84708,255783.100032,Outdoor Kiosk,"Tablet Internet -phone , Free 1 GB Wi-FI Service",Bronx,LinkNYC Free Wi-Fi,LINK-018402,08/01/2017,2,Bronx,BX28,Van Cortlandt Village,14,10468,208,267,267,2015261,2032480060,4557,"(40.8686984898, -73.9021008994)"
11812,2,Free,LinkNYC - Citybridge,bx-01-118944,2914 3 AVENUE,40.817235,-73.9158292599,1007547.88712,237029.080125,Outdoor Kiosk,"Tablet Internet -phone , Free 1 GB Wi-FI Service",Bronx,LinkNYC Free Wi-Fi,LINK-014492,12/22/2016,2,Bronx,BX34,Melrose South-Mott Haven North,17,10455,201,71,71,2001164,2023620010,4432,"(40.817235, -73.9158292599)"
11097,2,Free,LinkNYC - Citybridge,bx-01-145852,141 LINCOLN AVENUE,40.80854426,-73.9290737804,1003884.45875,233859.488696,Outdoor Kiosk,"Tablet Internet -phone , Free 1 GB Wi-FI Service",Bronx,LinkNYC Free Wi-Fi,LINK-018228,10/26/2017,2,Bronx,BX39,Mott Haven-Port Morris,8,10454,201,19,19,2091107,2023170040,4540,"(40.80854426, -73.9290737804)"
12508,2,Free,LinkNYC - Citybridge,bx-05-119590,104 EAST BURNSIDE AVENUE,40.8530429796,-73.9055522198,1010378.43428,250078.147203,Outdoor Kiosk,"Tablet Internet -phone , Free 1 GB Wi-FI Service",Bronx,LinkNYC Free Wi-Fi,LINK-001787,07/01/2016,2,Bronx,BX41,Mount Hope,14,10453,205,241,241,2007668,2028070060,3593,"(40.8530429796, -73.9055522198)"
10893,2,Free,LinkNYC - Citybridge,bx-05-111503,305 EAST BURNSIDE AVENUE,40.8505484104,-73.9009541102,1011651.50194,249170.686091,Outdoor Kiosk,"Tablet Internet -phone , Free 1 GB Wi-FI Service",Bronx,LinkNYC Free Wi-Fi,LINK-010251,06/13/2017,2,Bronx,BX41,Mount Hope,15,10457,205,381,381,2013524,2031490070,3851,"(40.8505484104, -73.9009541102)"
12007,2,Free,LinkNYC - Citybridge,bx-05-119610,48 WEST BURNSIDE AVENUE,40.8538420303,-73.9093879802,1009316.9925,250368.150888,Outdoor Kiosk,"Tablet Internet -phone , Free 1 GB Wi-FI Service",Bronx,LinkNYC Free Wi-Fi,LINK-011861,02/08/2017,2,Bronx,BX36,University Heights-Morris Heights,14,10453,205,243,243,2008631,2028700030,4094,"(40.8538420303, -73.9093879802)"
11990,2,Free,LinkNYC - Citybridge,bx-01-144251,3097 3 AVENUE,40.8214369997,-73.9123269999,1008515.75625,238560.970434,Outdoor Kiosk,"Tablet Internet -phone , Free 1 GB Wi-FI Service",Bronx,LinkNYC Free Wi-Fi,LINK-011660,05/22/2017,2,Bronx,BX34,Melrose South-Mott Haven North,17,10451,201,69,69,2001451,2023790050,4077,"(40.8214369997, -73.9123269999)"
11080,2,Free,LinkNYC - Citybridge,bx-01-118955,2901 3 AVENUE,40.8171412003,-73.9162084399,1007442.96541,236994.804931,Outdoor Kiosk,"Tablet Internet -phone , Free 1 GB Wi-FI Service",Bronx,LinkNYC Free Wi-Fi,LINK-013313,12/22/2016,2,Bronx,BX34,Melrose South-Mott Haven North,17,10455,201,65,65,2001339,2023740020,4277,"(40.8171412003, -73.9162084399)"
11038,2,Free,LinkNYC - Citybridge,bx-05-123185,23 WEST BURNSIDE AVENUE,40.8538810002,-73.9086619994,1009517.81363,250382.557683,Outdoor Kiosk,"Tablet Internet -phone , Free 1 GB Wi-FI Service",Bronx,LinkNYC Free Wi-Fi,LINK-012881,01/12/2017,2,Bronx,BX36,University Heights-Morris Heights,14,10453,205,251,251,2014160,2031930030,4235,"(40.8538810002, -73.9086619994)"
9764,2,Free,LinkNYC - Citybridge,bx-01-119011,548 EAST 138 STREET,40.8068195404,-73.9176573999,1007045.43766,233233.877414,Outdoor Kiosk,"Tablet Internet -phone , Free 1 GB Wi-FI Service",Bronx,LinkNYC Free Wi-Fi,LINK-013019,07/26/2018,2,Bronx,BX39,Mott Haven-Port Morris,8,10454,201,25,25,2000047,2022650050,4881,"(40.8068195404, -73.9176573999)"
9781,2,Free,LinkNYC - Citybridge,bx-01-119017,710 EAST 138 STREET,40.8047055204,-73.91293263,1008354.19161,232464.930461,Outdoor Kiosk,"Tablet Internet -phone , Free 1 GB Wi-FI Service",Bronx,LinkNYC Free Wi-Fi,LINK-013018,07/02/2018,2,Bronx,BX39,Mott Haven-Port Morris,8,10454,201,2702,2702,2003792,2025660020,4898,"(40.8047055204, -73.91293263)"
9835,2,Free,LinkNYC - Citybridge,bx-01-146049,289 MORRIS AVENUE,40.8120789372,-73.9265896208,1004571.06761,235147.863415,Outdoor Kiosk,"Tablet Internet -phone , Free 1 GB Wi-FI Service",Bronx,LinkNYC Free Wi-Fi,LINK-020603,07/02/2018,2,Bronx,BX39,Mott Haven-Port Morris,8,10451,201,51,51,2000953,2023330030,4612,"(40.8120789372, -73.9265896208)"
12009,2,Free,LinkNYC - Citybridge,bx-01-123212,2976A 3 AVENUE,40.8185596503,-73.9143003497,1007970.60675,237512.108031,Outdoor Kiosk,"Tablet Internet -phone , Free 1 GB Wi-FI Service",Bronx,LinkNYC Free Wi-Fi,LINK-011876,03/30/2017,2,Bronx,BX34,Melrose South-Mott Haven North,17,10455,201,71,71,2001180,2023630010,4096,"(40.8185596503, -73.9143003497)"
11994,2,Free,LinkNYC - Citybridge,bx-01-144892,442 WILLIS AVENUE,40.8135750296,-73.9194912204,1006535.50725,235694.669408,Outdoor Kiosk,"Tablet Internet -phone , Free 1 GB Wi-FI Service",Bronx,LinkNYC Free Wi-Fi,LINK-011709,04/20/2018,2,Bronx,BX39,Mott Haven-Port Morris,8,10455,201,43,43,2000498,2022900000,4081,"(40.8135750296, -73.9194912204)"
11115,2,Free,LinkNYC - Citybridge,bx-07-145933,2616 JEROME AVENUE,40.8667651899,-73.8978027796,1012516.43853,255080.081425,Outdoor Kiosk,"Tablet Internet -phone , Free 1 GB Wi-FI Service",Bronx,LinkNYC Free Wi-Fi,LINK-018403,11/03/2017,2,Bronx,BX05,Bedford Park-Fordham North,14,10468,207,401,401,2014132,2031910020,4558,"(40.8667651899, -73.8978027796)"
11159,2,Free,LinkNYC - Citybridge,bx-01-146055,468 BROOK AVENUE,40.8128409098,-73.9160743496,1007481.58181,235428.091201,Outdoor Kiosk,"Tablet Internet -phone , Free 1 GB Wi-FI Service",Bronx,LinkNYC Free Wi-Fi,LINK-020515,05/31/2018,2,Bronx,BX39,Mott Haven-Port Morris,8,10455,201,43,43,2090711,2022720010,4602,"(40.8128409098, -73.9160743496)"
10902,2,Free,LinkNYC - Citybridge,bx-05-113539,70 WEST BURNSIDE AVENUE,40.8543462196,-73.9102178897,1009087.21737,250551.609839,Outdoor Kiosk,"Tablet Internet -phone , Free 1 GB Wi-FI Service",Bronx,LinkNYC Free Wi-Fi,LINK-010287,01/17/2017,2,Bronx,BX36,University Heights-Morris Heights,14,10453,205,243,243,2008556,2028680140,3860,"(40.8543462196, -73.9102178897)"
12502,2,Free,LinkNYC - Citybridge,bx-07-119873,26 WEST KINGSBRIDGE ROAD,40.8676269996,-73.8987299995,1012259.61851,255393.774367,Outdoor Kiosk,"Tablet Internet -phone , Free 1 GB Wi-FI Service",Bronx,LinkNYC Free Wi-Fi,LINK-001773,07/15/2016,2,Bronx,BX30,Kingsbridge Heights,14,10468,207,265,265,2014457,2032050030,3587,"(40.8676269996, -73.8987299995)"
12880,2,Free,LinkNYC - Citybridge,bx-04-145687,1049 GERARD AVENUE,40.8315430004,-73.9226449896,1005656.7367,242240.264257,Outdoor Kiosk,"Tablet Internet -phone , Free 1 GB Wi-FI Service",Bronx,LinkNYC Free Wi-Fi,LINK-005435,01/17/2017,2,Bronx,BX63,West Concourse,8,10452,204,195,195,2002938,2024770020,3734,"(40.8315430004, -73.9226449896)"
9625,2,Free,LinkNYC - Citybridge,bx-07-117868,2415 JEROME AVENUE,40.8617621802,-73.9019647199,1011367.33978,253255.975821,Outdoor Kiosk,"Tablet Internet -phone , Free 1 GB Wi-FI Service",Bronx,LinkNYC Free Wi-Fi,LINK-011033,06/26/2018,2,Bronx,BX30,Kingsbridge Heights,14,10468,207,253,253,2014338,2031990110,4824,"(40.8617621802, -73.9019647199)"
11250,2,Free,LinkNYC - Citybridge,bx-01-111740,652A MELROSE AVENUE,40.8187686798,-73.9164498502,1007375.57906,237587.690229,Outdoor Kiosk,"Tablet Internet -phone , Free 1 GB Wi-FI Service",Bronx,LinkNYC Free Wi-Fi,LINK-010368,04/20/2018,2,Bronx,BX34,Melrose South-Mott Haven North,17,10455,201,67,67,2001356,2023740070,3880,"(40.8187686798, -73.9164498502)"
9831,2,Free,LinkNYC - Citybridge,bx-01-146066,610 MELROSE AVE,40.8173798278,-73.9170781326,1007202.15782,237081.516372,Outdoor Kiosk,"Tablet Internet -phone , Free 1 GB Wi-FI Service",Bronx,LinkNYC Free Wi-Fi,LINK-020595,04/30/2018,2,Bronx,BX34,Melrose South-Mott Haven North,17,10455,201,65,65,2097082,2023740010,4608,"(40.8173798278, -73.9170781326)"
11987,2,Free,LinkNYC - Citybridge,bx-01-145841,301 WALTON AVENUE,40.8150393101,-73.9298853698,1003657.89293,236225.685407,Outdoor Kiosk,"Tablet Internet -phone , Free 1 GB Wi-FI Service",Bronx,LinkNYC Free Wi-Fi,LINK-018222,06/28/2017,2,Bronx,BX63,West Concourse,8,10451,201,63,63,2001025,2023440080,4535,"(40.8150393101, -73.9298853698)"
10611,2,Free,LinkNYC - Citybridge,bx-06-101312,1917 SOUTHERN BOULEVARD,40.8418335401,-73.8859743595,1015799.84995,246000.572681,Outdoor Kiosk,"Tablet Internet -phone , Free 1 GB Wi-FI Service",Bronx,LinkNYC Free Wi-Fi,LINK-010198,07/12/2018,2,Bronx,BX17,East Tremont,17,10460,206,36502,36502,2010153,2029600040,4803,"(40.8418335401, -73.8859743595)"
12324,2,Free,LinkNYC - Citybridge,bx-05-111577,111 EAST BURNSIDE AVENUE,40.8530279998,-73.9050759997,1010510.18369,250072.831925,Outdoor Kiosk,"Tablet Internet -phone , Free 1 GB Wi-FI Service",Bronx,LinkNYC Free Wi-Fi,LINK-001364,06/13/2017,2,Bronx,BX41,Mount Hope,14,10453,205,241,241,2013846,2031690060,3507,"(40.8530279998, -73.9050759997)"
11160,2,Free,LinkNYC - Citybridge,bx-01-146060,530 EAST 138 STREET,40.8071077797,-73.9183430105,1006855.53778,233338.715459,Outdoor Kiosk,"Tablet Internet -phone , Free 1 GB Wi-FI Service",Bronx,LinkNYC Free Wi-Fi,LINK-020548,07/11/2018,2,Bronx,BX39,Mott Haven-Port Morris,8,10454,201,25,25,2000040,2022650040,4603,"(40.8071077797, -73.9183430105)"
12583,2,Free,LinkNYC - Citybridge,bx-04-119146,135 EAST 149 STREET,40.8189419998,-73.92837,1004076.18803,237647.914518,Outdoor Kiosk,"Tablet Internet -phone , Free 1 GB Wi-FI Service",Bronx,LinkNYC Free Wi-Fi,LINK-001792,06/15/2016,2,Bronx,BX63,West Concourse,8,10451,204,63,63,2001114,2023520050,3596,"(40.8189419998, -73.92837)"
12876,2,Free,LinkNYC - Citybridge,bx-01-145688,518 GERARD AVE,40.8188859899,-73.9292129397,1003842.89059,237627.31843,Outdoor Kiosk,"Tablet Internet -phone , Free 1 GB Wi-FI Service",Bronx,LinkNYC Free Wi-Fi,LINK-005422,11/08/2016,2,Bronx,BX63,West Concourse,17,10451,201,63,63,2001091,2023500040,3730,"(40.8188859899, -73.9292129397)"
12881,2,Free,LinkNYC - Citybridge,bx-07-145924,82 WEST KINGSBRIDGE ROAD,40.8681002896,-73.9007058795,1011712.92735,255565.586687,Outdoor Kiosk,"Tablet Internet -phone , Free 1 GB Wi-FI Service",Bronx,LinkNYC Free Wi-Fi,LINK-005578,01/22/2018,2,Bronx,BX30,Kingsbridge Heights,14,10468,207,265,265,2014676,2032150020,3735,"(40.8681002896, -73.9007058795)"
12094,2,Free,LinkNYC - Citybridge,bx-05-119628,2366-2370 Grand Concourse,40.8591537204,-73.8985525896,1012312.26243,252306.68835,Outdoor Kiosk,"Tablet Internet -phone , Free 1 GB Wi-FI Service",Bronx,LinkNYC Free Wi-Fi,LINK-000076,07/15/2016,2,Bronx,BX40,Fordham South,15,10458,205,383,383,2013738,2031590040,3049,"(40.8591537204, -73.8985525896)"
12504,2,Free,LinkNYC - Citybridge,bx-05-119573,2454 WALTON AVENUE,40.8623132896,-73.9003140397,1011823.70239,253457.281521,Outdoor Kiosk,"Tablet Internet -phone , Free 1 GB Wi-FI Service",Bronx,LinkNYC Free Wi-Fi,LINK-001777,09/15/2016,2,Bronx,BX40,Fordham South,14,10468,205,239,239,2014027,2031840040,3589,"(40.8623132896, -73.9003140397)"
11811,2,Free,LinkNYC - Citybridge,bx-07-119802,319 EAST KINGSBRIDGE ROAD,40.8623473096,-73.8938943998,1013599.39536,253471.762135,Outdoor Kiosk,"Tablet Internet -phone , Free 1 GB Wi-FI Service",Bronx,LinkNYC Free Wi-Fi,LINK-014485,06/21/2017,2,Bronx,BX05,Bedford Park-Fordham North,15,10458,207,399,399,2016776,2032930010,4431,"(40.8623473096, -73.8938943998)"
12344,2,Free,LinkNYC - Citybridge,bx-04-140582,597 GRAND CONCOURSE,40.8198859996,-73.9268469996,1004497.44604,237992.195981,Outdoor Kiosk,"Tablet Internet -phone , Free 1 GB Wi-FI Service",Bronx,LinkNYC Free Wi-Fi,LINK-001006,07/15/2016,2,Bronx,BX63,West Concourse,8,10451,204,63,63,2001075,2023480040,3454,"(40.8198859996, -73.9268469996)"
11984,2,Free,LinkNYC - Citybridge,bx-01-145916,197 LINCOLN AVENUE,40.8101585602,-73.9278859696,1004212.79536,234447.903857,Outdoor Kiosk,"Tablet Internet -phone , Free 1 GB Wi-FI Service",Bronx,LinkNYC Free Wi-Fi,LINK-018218,02/22/2018,2,Bronx,BX39,Mott Haven-Port Morris,8,10451,201,51,51,2000780,2023180020,4532,"(40.8101585602, -73.9278859696)"
10539,2,Free,LinkNYC - Citybridge,bx-05-146097,1 EAST 177 STREET,40.8501730004,-73.9102817297,1009071.11406,249031.129612,Outdoor Kiosk,"Tablet Internet -phone , Free 1 GB Wi-FI Service",Bronx,LinkNYC Free Wi-Fi,LINK-019315,07/13/2018,2,Bronx,BX41,Mount Hope,14,10453,205,23301,23301,2008247,2028530000,4784,"(40.8501730004, -73.9102817297)"
11997,2,Free,LinkNYC - Citybridge,bx-06-118922,1901 WASHINGTON AVENUE,40.8469261747,-73.8982205565,1012409.2852,247851.836039,Outdoor Kiosk,"Tablet Internet -phone , Free 1 GB Wi-FI Service",Bronx,LinkNYC Free Wi-Fi,LINK-011757,01/12/2018,2,Bronx,BX01,Claremont-Bathgate,15,10457,206,395,395,2009536,2029090020,4084,"(40.8469261747, -73.8982205565)"
11156,2,Free,LinkNYC - Citybridge,bx-01-146045,563 ST ANNS AVENUE,40.8144708151,-73.9129543323,1008344.64799,236022.766521,Outdoor Kiosk,"Tablet Internet -phone , Free 1 GB Wi-FI Service",Bronx,LinkNYC Free Wi-Fi,LINK-020504,06/25/2018,2,Bronx,BX34,Melrose South-Mott Haven North,17,10455,201,71,71,2000000,2022760000,4599,"(40.8144708151, -73.9129543323)"
9836,2,Free,LinkNYC - Citybridge,bx-01-146046,301 MORRIS AVENUE,40.8125574777,-73.9262436244,1004666.69767,235322.293185,Outdoor Kiosk,"Tablet Internet -phone , Free 1 GB Wi-FI Service",Bronx,LinkNYC Free Wi-Fi,LINK-020604,07/02/2018,2,Bronx,BX39,Mott Haven-Port Morris,8,10451,201,51,51,2000956,2023330050,4613,"(40.8125574777, -73.9262436244)"
11155,2,Free,LinkNYC - Citybridge,bx-01-146054,601 EAST 138 STREET,40.8063848521,-73.91624535,1007436.49594,233075.875761,Outdoor Kiosk,"Tablet Internet -phone , Free 1 GB Wi-FI Service",Bronx,LinkNYC Free Wi-Fi,LINK-020497,07/11/2018,2,Bronx,BX39,Mott Haven-Port Morris,8,10454,201,27,27,2003635,2025510070,4598,"(40.8063848521, -73.91624535)"
11910,2,Free,LinkNYC - Citybridge,bx-05-119613,1 WEST BURNSIDE AVENUE,40.8539303602,-73.9075018202,1009838.74737,250400.878185,Outdoor Kiosk,"Tablet Internet -phone , Free 1 GB Wi-FI Service",Bronx,LinkNYC Free Wi-Fi,LINK-011588,01/12/2017,2,Bronx,BX36,University Heights-Morris Heights,14,10453,205,251,251,2014153,2031920080,4070,"(40.8539303602, -73.9075018202)"
11096,2,Free,LinkNYC - Citybridge,bx-01-145854,217 EAST 138 STREET,40.8122533801,-73.9286645299,1003996.65078,235210.944654,Outdoor Kiosk,"Tablet Internet -phone , Free 1 GB Wi-FI Service",Bronx,LinkNYC Free Wi-Fi,LINK-018226,10/19/2017,2,Bronx,BX39,Mott Haven-Port Morris,8,10451,201,51,51,2000969,2023400000,4539,"(40.8122533801, -73.9286645299)"
10340,2,Free,LinkNYC - Citybridge,bx-03-146064,574 EAST 163 STREET,40.8239255499,-73.9085494403,1009560.34602,239468.70812,Outdoor Kiosk,"Tablet Internet -phone , Free 1 GB Wi-FI Service",Bronx,LinkNYC Free Wi-Fi,LINK-023349,05/31/2018,2,Bronx,BX35,Morrisania-Melrose,17,10456,203,141,141,2004376,2026200030,4745,"(40.8239255499, -73.9085494403)"
11888,2,Free,LinkNYC - Citybridge,bx-06-119388,1948 WEBSTER AVENUE,40.8490930197,-73.9000305104,1011907.62512,248640.722584,Outdoor Kiosk,"Tablet Internet -phone , Free 1 GB Wi-FI Service",Bronx,LinkNYC Free Wi-Fi,LINK-011383,06/16/2017,2,Bronx,BX41,Mount Hope,15,10457,206,379,379,2011085,2030270020,4052,"(40.8490930197, -73.9000305104)"
11456,2,Free,LinkNYC - Citybridge,bx-01-116415,522 MORRIS AVENUE,40.8167513196,-73.9229548104,1005575.73883,236851.04308,Outdoor Kiosk,"Tablet Internet -phone , Free 1 GB Wi-FI Service",Bronx,LinkNYC Free Wi-Fi,LINK-010890,03/06/2017,2,Bronx,BX34,Melrose South-Mott Haven North,17,10451,201,65,65,2091151,2023300000,3952,"(40.8167513196, -73.9229548104)"
11810,2,Free,LinkNYC - Citybridge,bx-01-118942,2922 3 AVENUE,40.8174459997,-73.9155739995,1007618.46736,237106.022885,Outdoor Kiosk,"Tablet Internet -phone , Free 1 GB Wi-FI Service",Bronx,LinkNYC Free Wi-Fi,LINK-014483,12/28/2016,2,Bronx,BX34,Melrose South-Mott Haven North,17,10455,201,71,71,2001166,2023620020,4430,"(40.8174459997, -73.9155739995)"
11094,2,Free,LinkNYC - Citybridge,bx-01-145821,250 WALTON AVENUE,40.8135947398,-73.9304002806,1003515.78265,235699.263231,Outdoor Kiosk,"Tablet Internet -phone , Free 1 GB Wi-FI Service",Bronx,LinkNYC Free Wi-Fi,LINK-018224,05/16/2017,2,Bronx,BX63,West Concourse,8,10451,201,63,63,2001020,2023440000,4537,"(40.8135947398, -73.9304002806)"
12877,2,Free,LinkNYC - Citybridge,bx-04-119160,52 EAST 161 STREET,40.82755199,-73.9259025195,1004756.49867,240785.41382,Outdoor Kiosk,"Tablet Internet -phone , Free 1 GB Wi-FI Service",Bronx,LinkNYC Free Wi-Fi,LINK-005426,09/13/2016,2,Bronx,BX63,West Concourse,8,10451,204,63,63,2002981,2024830040,3731,"(40.82755199, -73.9259025195)"
11111,2,Free,LinkNYC - Citybridge,bx-05-145959,2458 Grand Concourse,40.8611500003,-73.8973999995,1012630.2385,253034.38112,Outdoor Kiosk,"Tablet Internet -phone , Free 1 GB Wi-FI Service",Bronx,LinkNYC Free Wi-Fi,LINK-018397,01/12/2018,2,Bronx,BX05,Bedford Park-Fordham North,15,10458,205,237,237,2013592,2031520070,4554,"(40.8611500003, -73.8973999995)"
12319,2,Free,LinkNYC - Citybridge,bx-07-119760,2663 JEROME AVENUE,40.8673705499,-73.89764488,1012559.8538,255300.688595,Outdoor Kiosk,"Tablet Internet -phone , Free 1 GB Wi-FI Service",Bronx,LinkNYC Free Wi-Fi,LINK-001354,07/19/2016,2,Bronx,BX30,Kingsbridge Heights,14,10468,207,265,265,2014396,2032020040,3502,"(40.8673705499, -73.89764488)"
12507,2,Free,LinkNYC - Citybridge,bx-04-101603,895 WALTON AVENUE,40.8276553203,-73.9239059906,1005309.00577,240823.534479,Outdoor Kiosk,"Tablet Internet -phone , Free 1 GB Wi-FI Service",Bronx,LinkNYC Free Wi-Fi,LINK-001786,05/11/2017,2,Bronx,BX63,West Concourse,8,10452,204,195,195,2002919,2024760060,3592,"(40.8276553203, -73.9239059906)"
12026,2,Free,LinkNYC - Citybridge,bx-01-138789,312 WILLIS AVENUE,40.8108964904,-73.9214341701,1005998.55787,234718.294065,Outdoor Kiosk,"Tablet Internet -phone , Free 1 GB Wi-FI Service",Bronx,LinkNYC Free Wi-Fi,LINK-012132,04/20/2018,2,Bronx,BX39,Mott Haven-Port Morris,8,10454,201,39,39,2000335,2022850010,4113,"(40.8108964904, -73.9214341701)"
