OBJECTID,Borough,Type,Provider,Name,Location,Latitude,Longitude,X,Y,Location_T,Remarks,City,SSID,SourceID,Activated,BoroCode,Borough Name,Neighborhood Tabulation Area Code (NTACODE),Neighborhood Tabulation Area (NTA),Council Distrcit,Postcode,BoroCD,Census Tract,BCTCB2010,BIN,BBL,DOITT_ID,"Location (Lat, Long)"
12500,5,Free,LinkNYC - Citybridge,si-02-125476,19 SEAVIEW AVENUE,40.5909830002,-74.1007320003,956273.280351,154603.543533,Outdoor Kiosk,"Tablet Internet -phone , Free 1 GB Wi-FI Service",Staten Island,LinkNYC Free Wi-Fi,LINK-001752,02/28/2017,5,Staten Island,SI36,Old Town-Dongan Hills-South Beach,50,10304,502,96,96,5048677,5033050090,3585,"(40.5909830002, -74.1007320003)"
11107,5,Free,LinkNYC - Citybridge,si-02-145807,2066 HYLAN BOULEVARD,40.5798387882,-74.1000124032,956468.501417,150543.200932,Outdoor Kiosk,"Tablet Internet -phone , Free 1 GB Wi-FI Service",Staten Island,LinkNYC Free Wi-Fi,LINK-018389,05/25/2017,5,Staten Island,SI36,Old Town-Dongan Hills-South Beach,50,10306,502,112,112,5158060,5036720000,4550,"(40.5798387882, -74.1000124032)"
11102,5,Free,LinkNYC - Citybridge,si-02-145734,2381 HYLAN BOULEVARD,40.5728504701,-74.1075388295,954374.682114,147999.662056,Outdoor Kiosk,"Tablet Internet -phone , Free 1 GB Wi-FI Service",Staten Island,LinkNYC Free Wi-Fi,LINK-018383,02/28/2017,5,Staten Island,SI45,New Dorp-Midland Beach,50,10306,502,122,122,5052790,5036450000,4545,"(40.5728504701, -74.1075388295)"
11118,5,Free,LinkNYC - Citybridge,si-02-145733,2110 RICHMOND ROAD,40.5813039997,-74.1120102804,953136.409,151081.046969,Outdoor Kiosk,"Tablet Internet -phone , Free 1 GB Wi-FI Service",Staten Island,LinkNYC Free Wi-Fi,LINK-018407,03/02/2017,5,Staten Island,SI45,New Dorp-Midland Beach,50,10306,502,114,114,5095447,5035780010,4561,"(40.5813039997, -74.1120102804)"
11122,5,Free,LinkNYC - Citybridge,si-02-145835,1630 RICHMOND ROAD,40.5899077101,-74.10090436,956224.958925,154211.843529,Outdoor Kiosk,"Tablet Internet -phone , Free 1 GB Wi-FI Service",Staten Island,LinkNYC Free Wi-Fi,LINK-018414,05/25/2017,5,Staten Island,SI36,Old Town-Dongan Hills-South Beach,50,10304,502,114,114,5050552,5035300020,4565,"(40.5899077101, -74.10090436)"
12495,5,Free,LinkNYC - Citybridge,si-02-145544,2710 HYLAN BOULEVARD,40.56585176,-74.1142242602,952514.081505,145452.213083,Outdoor Kiosk,"Tablet Internet -phone , Free 1 GB Wi-FI Service",Staten Island,LinkNYC Free Wi-Fi,LINK-001712,02/22/2017,5,Staten Island,SI25,Oakwood-Oakwood Beach,50,10306,502,128,128,5107584,5039830010,3580,"(40.56585176, -74.1142242602)"
10572,5,Free,LinkNYC - Citybridge,si-02-146098,1660 RICHMOND ROAD,40.5894883102,-74.1012707105,956123.03262,154059.16306,Outdoor Kiosk,"Tablet Internet -phone , Free 1 GB Wi-FI Service",Staten Island,LinkNYC Free Wi-Fi,LINK-018411,07/19/2018,5,Staten Island,SI36,Old Town-Dongan Hills-South Beach,50,10304,502,11401,11401,5050551,5035300000,4797,"(40.5894883102, -74.1012707105)"
12875,5,Free,LinkNYC - Citybridge,si-02-145809,2115 HYLAN BLVD,40.5788020001,-74.1016690004,956007.892759,150166.003196,Outdoor Kiosk,"Tablet Internet -phone , Free 1 GB Wi-FI Service",Staten Island,LinkNYC Free Wi-Fi,LINK-005414,05/25/2017,5,Staten Island,SI45,New Dorp-Midland Beach,50,10306,502,114,114,5051504,5035750070,3729,"(40.5788020001, -74.1016690004)"
12799,5,Free,LinkNYC - Citybridge,si-02-145729,291 NEW DORP LANE,40.5721002603,-74.1126735896,952947.845729,147728.135368,Outdoor Kiosk,"Tablet Internet -phone , Free 1 GB Wi-FI Service",Staten Island,LinkNYC Free Wi-Fi,LINK-005400,02/28/2017,5,Staten Island,SI45,New Dorp-Midland Beach,50,10306,502,122,122,5052754,5036430020,3726,"(40.5721002603, -74.1126735896)"
12501,5,Free,LinkNYC - Citybridge,si-02-145522,1177 HYLAN BOULEVARD,40.5983967327,-74.0826213606,961305.769958,157299.289454,Outdoor Kiosk,"Tablet Internet -phone , Free 1 GB Wi-FI Service",Staten Island,LinkNYC Free Wi-Fi,LINK-001757,02/28/2017,5,Staten Island,SI36,Old Town-Dongan Hills-South Beach,50,10305,502,96,96,5047160,5032080020,3586,"(40.5983967327, -74.0826213606)"
12800,5,Free,LinkNYC - Citybridge,si-02-145727,265 NEW DORP LANE,40.5726200002,-74.1133829994,952751.007868,147917.743585,Outdoor Kiosk,"Tablet Internet -phone , Free 1 GB Wi-FI Service",Staten Island,LinkNYC Free Wi-Fi,LINK-005402,02/28/2017,5,Staten Island,SI45,New Dorp-Midland Beach,50,10306,502,122,122,5152363,5036437500,3727,"(40.5726200002, -74.1133829994)"
11103,5,Free,LinkNYC - Citybridge,si-02-145737,2361 HYLAN BOULEVARD,40.5734659897,-74.1069168496,954547.747713,148223.699338,Outdoor Kiosk,"Tablet Internet -phone , Free 1 GB Wi-FI Service",Staten Island,LinkNYC Free Wi-Fi,LINK-018384,02/28/2017,5,Staten Island,SI45,New Dorp-Midland Beach,50,10306,502,122,122,5052769,5036440000,4546,"(40.5734659897, -74.1069168496)"
11130,5,Free,LinkNYC - Citybridge,si-02-145738,2754 HYLAN BOULEVARD,40.5647890002,-74.115318,952209.688741,145065.42219,Outdoor Kiosk,"Tablet Internet -phone , Free 1 GB Wi-FI Service",Staten Island,LinkNYC Free Wi-Fi,LINK-019377,02/28/2017,5,Staten Island,SI25,Oakwood-Oakwood Beach,50,10306,502,128,128,5107591,5039830130,4573,"(40.5647890002, -74.115318)"
12494,5,Free,LinkNYC - Citybridge,si-03-125464,285 MILL ROAD,40.5617550602,-74.1121606096,953085.532133,143958.945728,Outdoor Kiosk,"Tablet Internet -phone , Free 1 GB Wi-FI Service",Staten Island,LinkNYC Free Wi-Fi,LINK-001710,01/25/2017,5,Staten Island,SI25,Oakwood-Oakwood Beach,50,10306,503,128,128,5105550,5039830000,3579,"(40.5617550602, -74.1121606096)"
12874,5,Free,LinkNYC - Citybridge,si-02-145728,2820 HYLAN BOULEVARD,40.5638429997,-74.1160749996,951998.905042,144721.049191,Outdoor Kiosk,"Tablet Internet -phone , Free 1 GB Wi-FI Service",Staten Island,LinkNYC Free Wi-Fi,LINK-005407,02/28/2017,5,Staten Island,SI25,Oakwood-Oakwood Beach,50,10306,502,128,128,5105551,5039830000,3728,"(40.5638429997, -74.1160749996)"
11121,5,Free,LinkNYC - Citybridge,si-02-145826,1678 RICHMOND ROAD,40.5890320001,-74.1016839999,956008.052535,153893.05086,Outdoor Kiosk,"Tablet Internet -phone , Free 1 GB Wi-FI Service",Staten Island,LinkNYC Free Wi-Fi,LINK-018410,05/25/2017,5,Staten Island,SI36,Old Town-Dongan Hills-South Beach,50,10304,502,114,114,5050604,5035310010,4564,"(40.5890320001, -74.1016839999)"
10545,5,Free,LinkNYC - Citybridge,si-02-125479,1351 HYLAN BOULEVARD,40.5954560397,-74.0862098496,960308.180418,156228.880834,Outdoor Kiosk,"Tablet Internet -phone , Free 1 GB Wi-FI Service",Staten Island,LinkNYC Free Wi-Fi,LINK-001756,07/19/2018,5,Staten Island,SI36,Old Town-Dongan Hills-South Beach,50,10305,502,9601,9601,5048984,5033230000,4790,"(40.5954560397, -74.0862098496)"
11105,5,Free,LinkNYC - Citybridge,si-02-145731,2205 HYLAN BOULEVARD,40.57681082,-74.1035653801,955480.249785,149441.184435,Outdoor Kiosk,"Tablet Internet -phone , Free 1 GB Wi-FI Service",Staten Island,LinkNYC Free Wi-Fi,LINK-018386,02/28/2017,5,Staten Island,SI45,New Dorp-Midland Beach,50,10306,502,114,114,5051757,5035910080,4548,"(40.57681082, -74.1035653801)"
11104,5,Free,LinkNYC - Citybridge,si-02-145823,2271 HYLAN BOULEVARD,40.5755531802,-74.1048165004,955132.149103,148983.408776,Outdoor Kiosk,"Tablet Internet -phone , Free 1 GB Wi-FI Service",Staten Island,LinkNYC Free Wi-Fi,LINK-018385,05/25/2017,5,Staten Island,SI45,New Dorp-Midland Beach,50,10306,502,122,122,5107538,5036150010,4547,"(40.5755531802, -74.1048165004)"
12498,5,Free,LinkNYC - Citybridge,si-02-125472,201 NEW DORP LANE,40.5728531898,-74.1140866602,952555.634243,148002.954044,Outdoor Kiosk,"Tablet Internet -phone , Free 1 GB Wi-FI Service",Staten Island,LinkNYC Free Wi-Fi,LINK-001716,12/09/2016,5,Staten Island,SI45,New Dorp-Midland Beach,50,10306,502,122,122,5052593,5036370010,3583,"(40.5728531898, -74.1140866602)"
11117,5,Free,LinkNYC - Citybridge,si-02-145735,1220 HYLAN BOULEVARD,40.5980019945,-74.0830503856,961186.491981,157155.588954,Outdoor Kiosk,"Tablet Internet -phone , Free 1 GB Wi-FI Service",Staten Island,LinkNYC Free Wi-Fi,LINK-018406,02/28/2017,5,Staten Island,SI14,Grasmere-Arrochar-Ft. Wadsworth,50,10305,502,64,64,5047505,5032350000,4560,"(40.5980019945, -74.0830503856)"
11120,5,Free,LinkNYC - Citybridge,si-02-145825,1755 RICHMOND ROAD,40.58738523,-74.1037082195,955445.131089,153293.750549,Outdoor Kiosk,"Tablet Internet -phone , Free 1 GB Wi-FI Service",Staten Island,LinkNYC Free Wi-Fi,LINK-018409,05/25/2017,5,Staten Island,SI24,Todt Hill-Emerson Hill-Heartland Village-Lighthouse Hill,50,10304,502,181,181,5022931,5008870030,4563,"(40.58738523, -74.1037082195)"
9614,5,Free,LinkNYC - Citybridge,si-02-146099,2154 HYLAN BOULEVARD,40.57739083,-74.1026705403,955729.077699,149652.203698,Outdoor Kiosk,"Tablet Internet -phone , Free 1 GB Wi-FI Service",Staten Island,LinkNYC Free Wi-Fi,LINK-005418,07/19/2018,5,Staten Island,SI45,New Dorp-Midland Beach,50,10306,502,11202,11202,5053558,5036910010,4813,"(40.57739083, -74.1026705403)"
12497,5,Free,LinkNYC - Citybridge,si-02-125470,381 NEW DORP LANE,40.5706349998,-74.1099179999,953712.713294,147193.332632,Outdoor Kiosk,"Tablet Internet -phone , Free 1 GB Wi-FI Service",Staten Island,LinkNYC Free Wi-Fi,LINK-001715,12/09/2016,5,Staten Island,SI45,New Dorp-Midland Beach,50,10306,502,122,122,5052858,5036490000,3582,"(40.5706349998, -74.1099179999)"
11106,5,Free,LinkNYC - Citybridge,si-02-145736,2083 HYLAN BOULEVARD,40.5796341198,-74.1006515799,956290.864962,150468.838548,Outdoor Kiosk,"Tablet Internet -phone , Free 1 GB Wi-FI Service",Staten Island,LinkNYC Free Wi-Fi,LINK-018388,02/28/2017,5,Staten Island,SI45,New Dorp-Midland Beach,50,10306,502,114,114,5051478,5035740070,4549,"(40.5796341198, -74.1006515799)"
11101,5,Free,LinkNYC - Citybridge,si-02-145730,2435 HYLAN BOULEVARD,40.5717815197,-74.10861367,954075.598395,147610.585734,Outdoor Kiosk,"Tablet Internet -phone , Free 1 GB Wi-FI Service",Staten Island,LinkNYC Free Wi-Fi,LINK-018382,02/28/2017,5,Staten Island,SI45,New Dorp-Midland Beach,50,10306,502,122,122,5052814,5036470000,4544,"(40.5717815197, -74.10861367)"
11119,5,Free,LinkNYC - Citybridge,si-02-145824,2100 RICHMOND ROAD,40.5816768496,-74.1113503895,953319.882387,151216.651685,Outdoor Kiosk,"Tablet Internet -phone , Free 1 GB Wi-FI Service",Staten Island,LinkNYC Free Wi-Fi,LINK-018408,05/25/2017,5,Staten Island,SI45,New Dorp-Midland Beach,50,10306,502,114,114,5051531,5035780010,4562,"(40.5816768496, -74.1113503895)"
12499,5,Free,LinkNYC - Citybridge,si-02-125467,2154 HYLAN BOULEVARD,40.5777710002,-74.1023100002,955829.3941,149790.591873,Outdoor Kiosk,"Tablet Internet -phone , Free 1 GB Wi-FI Service",Staten Island,LinkNYC Free Wi-Fi,LINK-001750,02/22/2017,5,Staten Island,SI45,New Dorp-Midland Beach,50,10306,502,112,112,5053558,5036910010,3584,"(40.5777710002, -74.1023100002)"
11123,5,Free,LinkNYC - Citybridge,si-02-145829,1570 RICHMOND ROAD,40.5914355797,-74.1008615799,956237.481538,154768.471025,Outdoor Kiosk,"Tablet Internet -phone , Free 1 GB Wi-FI Service",Staten Island,LinkNYC Free Wi-Fi,LINK-018416,05/25/2017,5,Staten Island,SI36,Old Town-Dongan Hills-South Beach,50,10304,502,96,96,5048650,5033050010,4566,"(40.5914355797, -74.1008615799)"
11116,5,Free,LinkNYC - Citybridge,si-02-145732,1232 HYLAN BOULEVARD,40.5977150787,-74.0838283464,960970.348385,157051.264031,Outdoor Kiosk,"Tablet Internet -phone , Free 1 GB Wi-FI Service",Staten Island,LinkNYC Free Wi-Fi,LINK-018405,02/28/2017,5,Staten Island,SI14,Grasmere-Arrochar-Ft. Wadsworth,50,10305,502,64,64,5047236,5032200010,4559,"(40.5977150787, -74.0838283464)"
12496,5,Free,LinkNYC - Citybridge,si-02-125463,404 NEW DORP LANE,40.5703118496,-74.1096572901,953784.995958,147075.510361,Outdoor Kiosk,"Tablet Internet -phone , Free 1 GB Wi-FI Service",Staten Island,LinkNYC Free Wi-Fi,LINK-001714,02/22/2017,5,Staten Island,SI45,New Dorp-Midland Beach,50,10306,502,128,128,5055368,5039600000,3581,"(40.5703118496, -74.1096572901)"
10571,5,Free,LinkNYC - Citybridge,si-02-146100,1617 RICHMOND ROAD,40.5904531103,-74.10092195,956220.302439,154410.552121,Outdoor Kiosk,"Tablet Internet -phone , Free 1 GB Wi-FI Service",Staten Island,LinkNYC Free Wi-Fi,LINK-018415,07/19/2018,5,Staten Island,SI24,Todt Hill-Emerson Hill-Heartland Village-Lighthouse Hill,50,10304,502,181,181,5022895,5008830010,4796,"(40.5904531103, -74.10092195)"
9619,5,Free,LinkNYC - Citybridge,si-02-125465,2212 HYLAN BOULEVARD,40.5765409998,-74.1034790005,955504.12933,149342.853923,Outdoor Kiosk,"Tablet Internet -phone , Free 1 GB Wi-FI Service",Staten Island,LinkNYC Free Wi-Fi,LINK-001749,07/19/2018,5,Staten Island,SI45,New Dorp-Midland Beach,50,10306,502,11202,11202,5136036,5036920010,4818,"(40.5765409998, -74.1034790005)"
11100,5,Free,LinkNYC - Citybridge,si-02-145822,2455 HYLAN BOULEVARD,40.5714370196,-74.1089594206,953979.387957,147485.195237,Outdoor Kiosk,"Tablet Internet -phone , Free 1 GB Wi-FI Service",Staten Island,LinkNYC Free Wi-Fi,LINK-018381,05/25/2017,5,Staten Island,SI45,New Dorp-Midland Beach,50,10306,502,122,122,5052857,5036480060,4543,"(40.5714370196, -74.1089594206)"
